{
"type": "FeatureCollection",
"crs": { "type": "name", "properties": { "name": "urn:ogc:def:crs:EPSG::4612" } },
"features": [
{ "type": "Feature", "properties": { "P12_001": 10165, "P12_002": "大山", "P12_003": "31", "P12_004": "31386", "P12_005": "山岳", "P12_006": "大山町大山", "P12_007": -1 }, "geometry": { "type": "Point", "coordinates": [ 133.539166999924646, 35.370832999953706 ] } },
{ "type": "Feature", "properties": { "P12_001": 10135, "P12_002": "三徳山三佛寺", "P12_003": "31", "P12_004": "31364", "P12_005": "神社・寺院・教会", "P12_006": "三朝町", "P12_007": -1 }, "geometry": { "type": "Point", "coordinates": [ 133.955715422951982, 35.400154035252129 ] } },
{ "type": "Feature", "properties": { "P12_001": 10001, "P12_002": "鳥取砂丘", "P12_003": "31", "P12_004": "31201", "P12_005": "海岸・岬", "P12_006": "鳥取市福部町", "P12_007": 1 }, "geometry": { "type": "Point", "coordinates": [ 134.229145999715371, 35.540756999956088 ] } },
{ "type": "Feature", "properties": { "P12_001": 10002, "P12_002": "鳥取県立博物館", "P12_003": "31", "P12_004": "31201", "P12_005": "‐", "P12_006": "鳥取市東町124", "P12_007": 2 }, "geometry": { "type": "Point", "coordinates": [ 134.236133333696813, 35.50829166661547 ] } },
{ "type": "Feature", "properties": { "P12_001": 10003, "P12_002": "鳥取市歴史博物館（やまびこ館）", "P12_003": "31", "P12_004": "31201", "P12_005": "‐", "P12_006": "鳥取市上町88", "P12_007": 2 }, "geometry": { "type": "Point", "coordinates": [ 134.243835000352703, 35.498956944515328 ] } },
{ "type": "Feature", "properties": { "P12_001": 10004, "P12_002": "わらべ館", "P12_003": "31", "P12_004": "31201", "P12_005": "‐", "P12_006": "鳥取市西町3-202", "P12_007": 2 }, "geometry": { "type": "Point", "coordinates": [ 134.23344694452291, 35.504276944539598 ] } },
{ "type": "Feature", "properties": { "P12_001": 10005, "P12_002": "因幡万葉歴史館", "P12_003": "31", "P12_004": "31201", "P12_005": "‐", "P12_006": "鳥取市国府町町屋726", "P12_007": 2 }, "geometry": { "type": "Point", "coordinates": [ 134.274736111662577, 35.472808055667677 ] } },
{ "type": "Feature", "properties": { "P12_001": 10006, "P12_002": "流しびなの館", "P12_003": "31", "P12_004": "31201", "P12_005": "‐", "P12_006": "鳥取市用瀬町別府32-1", "P12_007": 2 }, "geometry": { "type": "Point", "coordinates": [ 134.201781944923255, 35.343164999874496 ] } },
{ "type": "Feature", "properties": { "P12_001": 10007, "P12_002": "さじアストロパーク", "P12_003": "31", "P12_004": "31201", "P12_005": "‐", "P12_006": "鳥取市佐治町高山1071-1", "P12_007": 2 }, "geometry": { "type": "Point", "coordinates": [ 134.119591943896154, 35.342006944394257 ] } },
{ "type": "Feature", "properties": { "P12_001": 10008, "P12_002": "かみんぐさじ", "P12_003": "31", "P12_004": "31201", "P12_005": "‐", "P12_006": "鳥取市佐治町福園146-4", "P12_007": 2 }, "geometry": { "type": "Point", "coordinates": [ 134.10537700011443, 35.330984999781222 ] } },
{ "type": "Feature", "properties": { "P12_001": 10009, "P12_002": "あおや和紙工房", "P12_003": "31", "P12_004": "31201", "P12_005": "‐", "P12_006": "鳥取市青谷町山根313", "P12_007": 2 }, "geometry": { "type": "Point", "coordinates": [ 134.016033889326025, 35.46971388905817 ] } },
{ "type": "Feature", "properties": { "P12_001": 10010, "P12_002": "仁風閣", "P12_003": "31", "P12_004": "31201", "P12_005": "‐", "P12_006": "鳥取市東町2-121", "P12_007": 2 }, "geometry": { "type": "Point", "coordinates": [ 134.237510000593602, 35.507173889029843 ] } },
{ "type": "Feature", "properties": { "P12_001": 10011, "P12_002": "お城山展望台河原城", "P12_003": "31", "P12_004": "31201", "P12_005": "‐", "P12_006": "鳥取市河原町谷一木1011", "P12_007": 2 }, "geometry": { "type": "Point", "coordinates": [ 134.199503889403672, 35.403836111011927 ] } },
{ "type": "Feature", "properties": { "P12_001": 10012, "P12_002": "鳥取温泉", "P12_003": "31", "P12_004": "31201", "P12_005": "‐", "P12_006": "鳥取市末広温泉町", "P12_007": 3 }, "geometry": { "type": "Point", "coordinates": [ 134.230928610591207, 35.495449999793436 ] } },
{ "type": "Feature", "properties": { "P12_001": 10013, "P12_002": "吉岡温泉", "P12_003": "31", "P12_004": "31201", "P12_005": "‐", "P12_006": "鳥取市吉岡温泉町", "P12_007": 3 }, "geometry": { "type": "Point", "coordinates": [ 134.128951999805906, 35.48377399979293 ] } },
{ "type": "Feature", "properties": { "P12_001": 10014, "P12_002": "鹿野温泉", "P12_003": "31", "P12_004": "31201", "P12_005": "‐", "P12_006": "鳥取市鹿野町", "P12_007": 3 }, "geometry": { "type": "Point", "coordinates": [ 134.064011000311893, 35.462139000167653 ] } },
{ "type": "Feature", "properties": { "P12_001": 10015, "P12_002": "浜村温泉", "P12_003": "31", "P12_004": "31201", "P12_005": "‐", "P12_006": "鳥取市気高町", "P12_007": 3 }, "geometry": { "type": "Point", "coordinates": [ 134.051471999459409, 35.510736000100302 ] } },
{ "type": "Feature", "properties": { "P12_001": 10016, "P12_002": "白兎海水浴場", "P12_003": "31", "P12_004": "31201", "P12_005": "‐", "P12_006": "鳥取市白兎", "P12_007": 4 }, "geometry": { "type": "Point", "coordinates": [ 134.11661388856723, 35.526125000127699 ] } },
{ "type": "Feature", "properties": { "P12_001": 10017, "P12_002": "砂丘海水浴場", "P12_003": "31", "P12_004": "31201", "P12_005": "‐", "P12_006": "鳥取市福部町湯山", "P12_007": 4 }, "geometry": { "type": "Point", "coordinates": [ 134.248480606870089, 35.551345620466677 ] } },
{ "type": "Feature", "properties": { "P12_001": 10018, "P12_002": "安蔵森林公園", "P12_003": "31", "P12_004": "31201", "P12_005": "‐", "P12_006": "鳥取市河内1462-36", "P12_007": 4 }, "geometry": { "type": "Point", "coordinates": [ 134.045991666275228, 35.402075000093916 ] } },
{ "type": "Feature", "properties": { "P12_001": 10019, "P12_002": "（有）門脇茶屋", "P12_003": "31", "P12_004": "31201", "P12_005": "‐", "P12_006": "鳥取市覚寺619-1", "P12_007": 5 }, "geometry": { "type": "Point", "coordinates": [ 134.261596944450162, 35.529478888659085 ] } },
{ "type": "Feature", "properties": { "P12_001": 10020, "P12_002": "山田屋", "P12_003": "31", "P12_004": "31201", "P12_005": "‐", "P12_006": "鳥取市加露町北1-5-36", "P12_007": 5 }, "geometry": { "type": "Point", "coordinates": [ 134.192091943969046, 35.534853055688252 ] } },
{ "type": "Feature", "properties": { "P12_001": 10021, "P12_002": "万葉の館", "P12_003": "31", "P12_004": "31201", "P12_005": "‐", "P12_006": "鳥取市国府町庁391-3", "P12_007": 5 }, "geometry": { "type": "Point", "coordinates": [ 134.274041944061253, 35.471875000049806 ] } },
{ "type": "Feature", "properties": { "P12_001": 10022, "P12_002": "鹿野そば道場", "P12_003": "31", "P12_004": "31201", "P12_005": "‐", "P12_006": "鳥取市鹿野町鹿野2448-9", "P12_007": 5 }, "geometry": { "type": "Point", "coordinates": [ 134.05953305616012, 35.464318889079777 ] } },
{ "type": "Feature", "properties": { "P12_001": 10023, "P12_002": "鳥取港海鮮市場「かろいち」", "P12_003": "31", "P12_004": "31201", "P12_005": "‐", "P12_006": "鳥取市賀露町西3-27-1", "P12_007": 5 }, "geometry": { "type": "Point", "coordinates": [ 134.179745000137871, 35.535051944653539 ] } },
{ "type": "Feature", "properties": { "P12_001": 10024, "P12_002": "鳥取県立とっとり賀露かにっこ館", "P12_003": "31", "P12_004": "31201", "P12_005": "‐", "P12_006": "鳥取市賀露町西3-27-2", "P12_007": 6 }, "geometry": { "type": "Point", "coordinates": [ 134.178790000064595, 35.534473889041323 ] } },
{ "type": "Feature", "properties": { "P12_001": 10025, "P12_002": "道の駅　神話の里白うさぎ", "P12_003": "31", "P12_004": "31201", "P12_005": "‐", "P12_006": "鳥取市白兎613", "P12_007": 6 }, "geometry": { "type": "Point", "coordinates": [ 134.114316111419413, 35.525536111210002 ] } },
{ "type": "Feature", "properties": { "P12_001": 10026, "P12_002": "鳥取砂丘情報館サンドパルとっとり", "P12_003": "31", "P12_004": "31201", "P12_005": "‐", "P12_006": "鳥取市福部町湯山2083-17", "P12_007": 6 }, "geometry": { "type": "Point", "coordinates": [ 134.237533888269922, 35.539688888747854 ] } },
{ "type": "Feature", "properties": { "P12_001": 10027, "P12_002": "味の散歩道まえた", "P12_003": "31", "P12_004": "31201", "P12_005": "‐", "P12_006": "鳥取市福部町海士20-1", "P12_007": 6 }, "geometry": { "type": "Point", "coordinates": [ 134.266777000609295, 35.545799999869693 ] } },
{ "type": "Feature", "properties": { "P12_001": 10028, "P12_002": "道の駅　清流茶屋かわはら", "P12_003": "31", "P12_004": "31201", "P12_005": "‐", "P12_006": "鳥取市河原町高福837", "P12_007": 6 }, "geometry": { "type": "Point", "coordinates": [ 134.202776110775801, 35.393396944661937 ] } },
{ "type": "Feature", "properties": { "P12_001": 10029, "P12_002": "鳥取しゃんしゃん祭", "P12_003": "31", "P12_004": "31201", "P12_005": "‐", "P12_006": "鳥取市", "P12_007": 1 }, "geometry": { "type": "Point", "coordinates": [ 134.235050957318975, 35.501163357335649 ] } },
{ "type": "Feature", "properties": { "P12_001": 10030, "P12_002": "鳥取三十二万石お城まつり", "P12_003": "31", "P12_004": "31201", "P12_005": "‐", "P12_006": "鳥取市", "P12_007": 1 }, "geometry": { "type": "Point", "coordinates": [ 134.235050957318975, 35.501163357335649 ] } },
{ "type": "Feature", "properties": { "P12_001": 10031, "P12_002": "鳥取市花のまつり", "P12_003": "31", "P12_004": "31201", "P12_005": "‐", "P12_006": "鳥取市", "P12_007": 1 }, "geometry": { "type": "Point", "coordinates": [ 134.235050957318975, 35.501163357335649 ] } },
{ "type": "Feature", "properties": { "P12_001": 10032, "P12_002": "鳥取市木のまつり", "P12_003": "31", "P12_004": "31201", "P12_005": "‐", "P12_006": "鳥取市", "P12_007": 1 }, "geometry": { "type": "Point", "coordinates": [ 134.235050957318975, 35.501163357335649 ] } },
{ "type": "Feature", "properties": { "P12_001": 10033, "P12_002": "あゆ祭", "P12_003": "31", "P12_004": "31201", "P12_005": "‐", "P12_006": "鳥取市河原町", "P12_007": 1 }, "geometry": { "type": "Point", "coordinates": [ 134.201310000265693, 35.410564000044964 ] } },
{ "type": "Feature", "properties": { "P12_001": 10034, "P12_002": "貝がら節まつり", "P12_003": "31", "P12_004": "31201", "P12_005": "‐", "P12_006": "鳥取市気高町", "P12_007": 1 }, "geometry": { "type": "Point", "coordinates": [ 134.018079000130371, 35.520461000040115 ] } },
{ "type": "Feature", "properties": { "P12_001": 10035, "P12_002": "鹿野まつり（隔年開催）", "P12_003": "31", "P12_004": "31201", "P12_005": "‐", "P12_006": "鳥取市鹿野町", "P12_007": 1 }, "geometry": { "type": "Point", "coordinates": [ 134.235050957318975, 35.501163357335649 ] } },
{ "type": "Feature", "properties": { "P12_001": 10036, "P12_002": "鹿野わったいな祭", "P12_003": "31", "P12_004": "31201", "P12_005": "‐", "P12_006": "鳥取市鹿野町", "P12_007": 1 }, "geometry": { "type": "Point", "coordinates": [ 134.235050957318975, 35.501163357335649 ] } },
{ "type": "Feature", "properties": { "P12_001": 10037, "P12_002": "あおやようこそまつり", "P12_003": "31", "P12_004": "31201", "P12_005": "‐", "P12_006": "鳥取市青谷町", "P12_007": 1 }, "geometry": { "type": "Point", "coordinates": [ 133.99647599988694, 35.510720000097351 ] } },
{ "type": "Feature", "properties": { "P12_001": 10038, "P12_002": "市民納涼花火大会", "P12_003": "31", "P12_004": "31201", "P12_005": "‐", "P12_006": "鳥取市古市", "P12_007": 1 }, "geometry": { "type": "Point", "coordinates": [ 134.213732000386898, 35.50461099986817 ] } },
{ "type": "Feature", "properties": { "P12_001": 10105, "P12_002": "ゆかむり温泉", "P12_003": "31", "P12_004": "31302", "P12_005": "‐", "P12_006": "岩美町岩井", "P12_007": 3 }, "geometry": { "type": "Point", "coordinates": [ 134.361659999749946, 35.554501944533165 ] } },
{ "type": "Feature", "properties": { "P12_001": 10106, "P12_002": "岩井温泉", "P12_003": "31", "P12_004": "31302", "P12_005": "‐", "P12_006": "岩美町岩井", "P12_007": 3 }, "geometry": { "type": "Point", "coordinates": [ 134.362263000526696, 35.55551899992777 ] } },
{ "type": "Feature", "properties": { "P12_001": 10107, "P12_002": "浦富海水浴場", "P12_003": "31", "P12_004": "31302", "P12_005": "‐", "P12_006": "岩美町浦富", "P12_007": 4 }, "geometry": { "type": "Point", "coordinates": [ 134.327591666261384, 35.590486111108753 ] } },
{ "type": "Feature", "properties": { "P12_001": 10108, "P12_002": "東浜海水浴場", "P12_003": "31", "P12_004": "31302", "P12_005": "‐", "P12_006": "岩美町陸上", "P12_007": 4 }, "geometry": { "type": "Point", "coordinates": [ 134.336925000078026, 35.59324722221082 ] } },
{ "type": "Feature", "properties": { "P12_001": 10109, "P12_002": "浦富海岸元気フェスティバル花火大会", "P12_003": "31", "P12_004": "31302", "P12_005": "‐", "P12_006": "岩美町浦富", "P12_007": 1 }, "geometry": { "type": "Point", "coordinates": [ 134.291427000193238, 35.584972999977616 ] } },
{ "type": "Feature", "properties": { "P12_001": 10130, "P12_002": "船岡竹林公園", "P12_003": "31", "P12_004": "31329", "P12_005": "‐", "P12_006": "八頭町西谷564-1", "P12_007": 1 }, "geometry": { "type": "Point", "coordinates": [ 134.266783888268037, 35.372550678813582 ] } },
{ "type": "Feature", "properties": { "P12_001": 10131, "P12_002": "八東ふる里の森", "P12_003": "31", "P12_004": "31329", "P12_005": "‐", "P12_006": "八頭町妻鹿野1572", "P12_007": 4 }, "geometry": { "type": "Point", "coordinates": [ 134.433698999955794, 35.416501000003755 ] } },
{ "type": "Feature", "properties": { "P12_001": 10132, "P12_002": "安徳の里　姫路公園", "P12_003": "31", "P12_004": "31329", "P12_005": "‐", "P12_006": "八頭町姫路12", "P12_007": 4 }, "geometry": { "type": "Point", "coordinates": [ 134.385541999454148, 35.42882099988406 ] } },
{ "type": "Feature", "properties": { "P12_001": 10133, "P12_002": "八東フルーツ総合センター", "P12_003": "31", "P12_004": "31329", "P12_005": "‐", "P12_006": "八頭町徳丸625", "P12_007": 6 }, "geometry": { "type": "Point", "coordinates": [ 134.339563055055009, 35.366533055742373 ] } },
{ "type": "Feature", "properties": { "P12_001": 10134, "P12_002": "八頭町きらめき祭", "P12_003": "31", "P12_004": "31329", "P12_005": "‐", "P12_006": "八頭町", "P12_007": 1 }, "geometry": { "type": "Point", "coordinates": [ 134.260791999905535, 35.417034000161543 ] } },
{ "type": "Feature", "properties": { "P12_001": 10118, "P12_002": "氷ノ山自然ふれあい館響の森", "P12_003": "31", "P12_004": "31325", "P12_005": "‐", "P12_006": "若桜町つく米", "P12_007": 1 }, "geometry": { "type": "Point", "coordinates": [ 134.491047999828339, 35.357541999954364 ] } },
{ "type": "Feature", "properties": { "P12_001": 10119, "P12_002": "若桜郷土文化の里", "P12_003": "31", "P12_004": "31325", "P12_005": "‐", "P12_006": "若桜町屋堂羅", "P12_007": 2 }, "geometry": { "type": "Point", "coordinates": [ 134.403080999685699, 35.345946999789717 ] } },
{ "type": "Feature", "properties": { "P12_001": 10120, "P12_002": "若桜駅", "P12_003": "31", "P12_004": "31325", "P12_005": "‐", "P12_006": "若桜町若桜", "P12_007": 2 }, "geometry": { "type": "Point", "coordinates": [ 134.398377999469972, 35.345128999997257 ] } },
{ "type": "Feature", "properties": { "P12_001": 10121, "P12_002": "若桜ゆはら温泉", "P12_003": "31", "P12_004": "31325", "P12_005": "‐", "P12_006": "若桜町湯原627", "P12_007": 3 }, "geometry": { "type": "Point", "coordinates": [ 134.434769000071867, 35.342211000056999 ] } },
{ "type": "Feature", "properties": { "P12_001": 10122, "P12_002": "わかさ氷ノ山スキー場", "P12_003": "31", "P12_004": "31325", "P12_005": "‐", "P12_006": "若桜町つく米", "P12_007": 4 }, "geometry": { "type": "Point", "coordinates": [ 134.496906000248117, 35.341517999869758 ] } },
{ "type": "Feature", "properties": { "P12_001": 10123, "P12_002": "わかさ氷ノ山キャンプ場", "P12_003": "31", "P12_004": "31325", "P12_005": "‐", "P12_006": "若桜町つく米", "P12_007": 4 }, "geometry": { "type": "Point", "coordinates": [ 134.494984999556237, 35.358249999845945 ] } },
{ "type": "Feature", "properties": { "P12_001": 10124, "P12_002": "道の駅若桜「桜ん坊」", "P12_003": "31", "P12_004": "31325", "P12_005": "‐", "P12_006": "若桜町若桜983-2", "P12_007": 6 }, "geometry": { "type": "Point", "coordinates": [ 134.400271944836788, 35.343886111078547 ] } },
{ "type": "Feature", "properties": { "P12_001": 10125, "P12_002": "因州若桜さくら祭り", "P12_003": "31", "P12_004": "31325", "P12_005": "‐", "P12_006": "若桜町", "P12_007": 1 }, "geometry": { "type": "Point", "coordinates": [ 134.398377999469972, 35.345128999997257 ] } },
{ "type": "Feature", "properties": { "P12_001": 10126, "P12_002": "因州わかさ鬼っこまつり", "P12_003": "31", "P12_004": "31325", "P12_005": "‐", "P12_006": "若桜町", "P12_007": 1 }, "geometry": { "type": "Point", "coordinates": [ 134.398377999469972, 35.345128999997257 ] } },
{ "type": "Feature", "properties": { "P12_001": 10127, "P12_002": "西日本雪合戦大会", "P12_003": "31", "P12_004": "31325", "P12_005": "‐", "P12_006": "若桜町", "P12_007": 1 }, "geometry": { "type": "Point", "coordinates": [ 134.398656000520475, 35.340703000018166 ] } },
{ "type": "Feature", "properties": { "P12_001": 10128, "P12_002": "石谷家住宅", "P12_003": "31", "P12_004": "31328", "P12_005": "‐", "P12_006": "智頭町智頭396", "P12_007": 2 }, "geometry": { "type": "Point", "coordinates": [ 134.230266999884236, 35.270136000219523 ] } },
{ "type": "Feature", "properties": { "P12_001": 10129, "P12_002": "智頭町総合案内所", "P12_003": "31", "P12_004": "31328", "P12_005": "‐", "P12_006": "智頭町智頭2067-1", "P12_007": 6 }, "geometry": { "type": "Point", "coordinates": [ 134.226246111273866, 35.265478055584197 ] } },
{ "type": "Feature", "properties": { "P12_001": 10079, "P12_002": "白壁土蔵群・赤瓦", "P12_003": "31", "P12_004": "31203", "P12_005": "‐", "P12_006": "倉吉市", "P12_007": 2 }, "geometry": { "type": "Point", "coordinates": [ 133.823719444352122, 35.431724999941103 ] } },
{ "type": "Feature", "properties": { "P12_001": 10080, "P12_002": "倉吉博物館", "P12_003": "31", "P12_004": "31203", "P12_005": "‐", "P12_006": "倉吉市仲ノ町3445-8", "P12_007": 2 }, "geometry": { "type": "Point", "coordinates": [ 133.825496943942056, 35.428534999950784 ] } },
{ "type": "Feature", "properties": { "P12_001": 10081, "P12_002": "倉吉ふるさと工芸館", "P12_003": "31", "P12_004": "31203", "P12_005": "‐", "P12_006": "倉吉市東仲町2606", "P12_007": 2 }, "geometry": { "type": "Point", "coordinates": [ 133.823566944690015, 35.431498889007216 ] } },
{ "type": "Feature", "properties": { "P12_001": 10082, "P12_002": "鳥取二十世紀梨記念館　なしっこ館", "P12_003": "31", "P12_004": "31203", "P12_005": "‐", "P12_006": "倉吉市駄経寺町198-4", "P12_007": 2 }, "geometry": { "type": "Point", "coordinates": [ 133.835503888706938, 35.4313211108784 ] } },
{ "type": "Feature", "properties": { "P12_001": 10083, "P12_002": "関金温泉", "P12_003": "31", "P12_004": "31203", "P12_005": "‐", "P12_006": "倉吉市関金町関金宿", "P12_007": 3 }, "geometry": { "type": "Point", "coordinates": [ 133.761026999622544, 35.364217000168352 ] } },
{ "type": "Feature", "properties": { "P12_001": 10084, "P12_002": "湯命館", "P12_003": "31", "P12_004": "31203", "P12_005": "‐", "P12_006": "倉吉市関金町関金宿1139", "P12_007": 3 }, "geometry": { "type": "Point", "coordinates": [ 133.760040000202565, 35.364331944265906 ] } },
{ "type": "Feature", "properties": { "P12_001": 10085, "P12_002": "東大山養魚場", "P12_003": "31", "P12_004": "31203", "P12_005": "‐", "P12_006": "倉吉市関金町野添467-204", "P12_007": 4 }, "geometry": { "type": "Point", "coordinates": [ 133.607804999508289, 35.365668888946487 ] } },
{ "type": "Feature", "properties": { "P12_001": 10086, "P12_002": "町屋　清水庵", "P12_003": "31", "P12_004": "31203", "P12_005": "‐", "P12_006": "倉吉市堺町1-876", "P12_007": 5 }, "geometry": { "type": "Point", "coordinates": [ 133.826729999523991, 35.431601944591684 ] } },
{ "type": "Feature", "properties": { "P12_001": 10087, "P12_002": "スウィートランドＴＡＫＡＲＡ", "P12_003": "31", "P12_004": "31203", "P12_005": "‐", "P12_006": "倉吉市関金町関金宿2913", "P12_007": 5 }, "geometry": { "type": "Point", "coordinates": [ 133.753430000224711, 35.363108888952759 ] } },
{ "type": "Feature", "properties": { "P12_001": 10088, "P12_002": "（株）赤瓦一号館", "P12_003": "31", "P12_004": "31203", "P12_005": "‐", "P12_006": "倉吉市新町1-2441", "P12_007": 5 }, "geometry": { "type": "Point", "coordinates": [ 133.824174999701256, 35.432393055689253 ] } },
{ "type": "Feature", "properties": { "P12_001": 10089, "P12_002": "倉吉ふるさと物産館", "P12_003": "31", "P12_004": "31203", "P12_005": "‐", "P12_006": "倉吉市仲ノ町812-1", "P12_007": 5 }, "geometry": { "type": "Point", "coordinates": [ 133.82352194410953, 35.431228889076884 ] } },
{ "type": "Feature", "properties": { "P12_001": 10090, "P12_002": "道の駅「犬挟」", "P12_003": "31", "P12_004": "31203", "P12_005": "‐", "P12_006": "倉吉市関金町山口2030-46", "P12_007": 6 }, "geometry": { "type": "Point", "coordinates": [ 133.756100000090242, 35.329303888877945 ] } },
{ "type": "Feature", "properties": { "P12_001": 10091, "P12_002": "倉吉打吹まつり", "P12_003": "31", "P12_004": "31203", "P12_005": "‐", "P12_006": "倉吉市葵町", "P12_007": 1 }, "geometry": { "type": "Point", "coordinates": [ 133.82155100011218, 35.433433999837881 ] } },
{ "type": "Feature", "properties": { "P12_001": 10092, "P12_002": "ＳＵＮ−ＩＮ未来ウォーク", "P12_003": "31", "P12_004": "31203", "P12_005": "‐", "P12_006": "倉吉市", "P12_007": 1 }, "geometry": { "type": "Point", "coordinates": [ 133.83634400024701, 35.431655999868724 ] } },
{ "type": "Feature", "properties": { "P12_001": 10139, "P12_002": "中国庭園　燕趙園", "P12_003": "31", "P12_004": "31370", "P12_005": "‐", "P12_006": "湯梨浜町引地565-1", "P12_007": 2 }, "geometry": { "type": "Point", "coordinates": [ 133.893006944188585, 35.465891111153709 ] } },
{ "type": "Feature", "properties": { "P12_001": 10140, "P12_002": "観光梨園　波関園", "P12_003": "31", "P12_004": "31370", "P12_005": "‐", "P12_006": "湯梨浜町別府818-7", "P12_007": 2 }, "geometry": { "type": "Point", "coordinates": [ 133.926898889042121, 35.431428055451953 ] } },
{ "type": "Feature", "properties": { "P12_001": 10141, "P12_002": "はわい温泉", "P12_003": "31", "P12_004": "31370", "P12_005": "‐", "P12_006": "湯梨浜町はわい温泉", "P12_007": 3 }, "geometry": { "type": "Point", "coordinates": [ 133.883373999810857, 35.477777999882967 ] } },
{ "type": "Feature", "properties": { "P12_001": 10142, "P12_002": "東郷温泉", "P12_003": "31", "P12_004": "31370", "P12_005": "‐", "P12_006": "湯梨浜町旭", "P12_007": 3 }, "geometry": { "type": "Point", "coordinates": [ 133.900675999491995, 35.469120000079869 ] } },
{ "type": "Feature", "properties": { "P12_001": 10143, "P12_002": "ハワイゆ〜たうん", "P12_003": "31", "P12_004": "31370", "P12_005": "‐", "P12_006": "湯梨浜町上浅津204-2", "P12_007": 3 }, "geometry": { "type": "Point", "coordinates": [ 133.88085499941522, 35.483001944503108 ] } },
{ "type": "Feature", "properties": { "P12_001": 10144, "P12_002": "ゆアシス東郷　龍鳳閣", "P12_003": "31", "P12_004": "31370", "P12_005": "‐", "P12_006": "湯梨浜町引地560-7", "P12_007": 3 }, "geometry": { "type": "Point", "coordinates": [ 133.893565000139603, 35.466741110952057 ] } },
{ "type": "Feature", "properties": { "P12_001": 10145, "P12_002": "潮風の丘とまり", "P12_003": "31", "P12_004": "31370", "P12_005": "‐", "P12_006": "湯梨浜町泊131", "P12_007": 4 }, "geometry": { "type": "Point", "coordinates": [ 133.945839000097834, 35.516080000128987 ] } },
{ "type": "Feature", "properties": { "P12_001": 10146, "P12_002": "石脇海水浴場", "P12_003": "31", "P12_004": "31370", "P12_005": "‐", "P12_006": "湯梨浜町石脇", "P12_007": 4 }, "geometry": { "type": "Point", "coordinates": [ 133.952849539732142, 35.516915291001922 ] } },
{ "type": "Feature", "properties": { "P12_001": 10147, "P12_002": "道の駅　はわい", "P12_003": "31", "P12_004": "31370", "P12_005": "‐", "P12_006": "湯梨浜町宇野2343", "P12_007": 6 }, "geometry": { "type": "Point", "coordinates": [ 133.890473055973388, 35.494298055445327 ] } },
{ "type": "Feature", "properties": { "P12_001": 10148, "P12_002": "水郷祭", "P12_003": "31", "P12_004": "31370", "P12_005": "‐", "P12_006": "湯梨浜町旭", "P12_007": 1 }, "geometry": { "type": "Point", "coordinates": [ 133.900154999715397, 35.469633999816374 ] } },
{ "type": "Feature", "properties": { "P12_001": 10149, "P12_002": "とまり夏まつり", "P12_003": "31", "P12_004": "31370", "P12_005": "‐", "P12_006": "湯梨浜町泊", "P12_007": 1 }, "geometry": { "type": "Point", "coordinates": [ 133.938807999760456, 35.514556999908343 ] } },
{ "type": "Feature", "properties": { "P12_001": 10136, "P12_002": "三朝温泉", "P12_003": "31", "P12_004": "31364", "P12_005": "‐", "P12_006": "三朝町三朝", "P12_007": 3 }, "geometry": { "type": "Point", "coordinates": [ 133.89436700005453, 35.409587000044191 ] } },
{ "type": "Feature", "properties": { "P12_001": 10137, "P12_002": "花湯まつり", "P12_003": "31", "P12_004": "31364", "P12_005": "‐", "P12_006": "三朝町山田", "P12_007": 1 }, "geometry": { "type": "Point", "coordinates": [ 133.89103100041487, 35.411899999813407 ] } },
{ "type": "Feature", "properties": { "P12_001": 10138, "P12_002": "キュリー祭", "P12_003": "31", "P12_004": "31364", "P12_005": "‐", "P12_006": "三朝町山田", "P12_007": 1 }, "geometry": { "type": "Point", "coordinates": [ 133.896158999773888, 35.410689000127654 ] } },
{ "type": "Feature", "properties": { "P12_001": 10157, "P12_002": "青山剛昌ふるさと館", "P12_003": "31", "P12_004": "31372", "P12_005": "‐", "P12_006": "北栄町由良宿1414", "P12_007": 2 }, "geometry": { "type": "Point", "coordinates": [ 133.76183000053004, 35.498040000150787 ] } },
{ "type": "Feature", "properties": { "P12_001": 10158, "P12_002": "レークサイド大栄", "P12_003": "31", "P12_004": "31372", "P12_005": "‐", "P12_006": "北栄町西高尾1677", "P12_007": 4 }, "geometry": { "type": "Point", "coordinates": [ 133.698276944658687, 35.439815000117129 ] } },
{ "type": "Feature", "properties": { "P12_001": 10159, "P12_002": "北条オートキャンプ場", "P12_003": "31", "P12_004": "31372", "P12_005": "‐", "P12_006": "北栄町田井488-1", "P12_007": 4 }, "geometry": { "type": "Point", "coordinates": [ 133.817788055098845, 35.499443888920084 ] } },
{ "type": "Feature", "properties": { "P12_001": 10160, "P12_002": "道の駅　北条公園", "P12_003": "31", "P12_004": "31372", "P12_005": "‐", "P12_006": "北栄町国坂1525-92", "P12_007": 6 }, "geometry": { "type": "Point", "coordinates": [ 133.819988055240543, 35.497913888996571 ] } },
{ "type": "Feature", "properties": { "P12_001": 10161, "P12_002": "道の駅　大栄いちば・レストラン", "P12_003": "31", "P12_004": "31372", "P12_005": "‐", "P12_006": "北栄町由良宿1458-10", "P12_007": 6 }, "geometry": { "type": "Point", "coordinates": [ 133.761709444459854, 35.498728888848163 ] } },
{ "type": "Feature", "properties": { "P12_001": 10162, "P12_002": "スイカながいも健康マラソン大会", "P12_003": "31", "P12_004": "31372", "P12_005": "‐", "P12_006": "北栄町", "P12_007": 1 }, "geometry": { "type": "Point", "coordinates": [ 133.758357999452983, 35.490032000109224 ] } },
{ "type": "Feature", "properties": { "P12_001": 10152, "P12_002": "大山滝", "P12_003": "31", "P12_004": "31371", "P12_005": "‐", "P12_006": "琴浦町野井倉", "P12_007": 1 }, "geometry": { "type": "Point", "coordinates": [ 133.595190699897358, 35.374861839847753 ] } },
{ "type": "Feature", "properties": { "P12_001": 10153, "P12_002": "船上山「少年自然の家」", "P12_003": "31", "P12_004": "31371", "P12_005": "‐", "P12_006": "琴浦町山川807-2", "P12_007": 1 }, "geometry": { "type": "Point", "coordinates": [ 133.608376944879524, 35.430371111300381 ] } },
{ "type": "Feature", "properties": { "P12_001": 10154, "P12_002": "大山乳業農業協同組合", "P12_003": "31", "P12_004": "31371", "P12_005": "‐", "P12_006": "琴浦町保37-1", "P12_007": 2 }, "geometry": { "type": "Point", "coordinates": [ 133.690758888825144, 35.496751111342974 ] } },
{ "type": "Feature", "properties": { "P12_001": 10155, "P12_002": "道の駅　ポート赤碕", "P12_003": "31", "P12_004": "31371", "P12_005": "‐", "P12_006": "琴浦町別所255", "P12_007": 6 }, "geometry": { "type": "Point", "coordinates": [ 133.662175000110722, 35.506790000209563 ] } },
{ "type": "Feature", "properties": { "P12_001": 10059, "P12_002": "伯耆古代の丘公園", "P12_003": "31", "P12_004": "31202", "P12_005": "‐", "P12_006": "米子市淀江町福岡1529", "P12_007": 2 }, "geometry": { "type": "Point", "coordinates": [ 133.439958889526309, 35.455508888771227 ] } },
{ "type": "Feature", "properties": { "P12_001": 10166, "P12_002": "県立むきばんだ史跡公園", "P12_003": "31", "P12_004": "31386", "P12_005": "‐", "P12_006": "大山町妻木1115-4", "P12_007": 2 }, "geometry": { "type": "Point", "coordinates": [ 133.45286611171943, 35.462503055382378 ] } },
{ "type": "Feature", "properties": { "P12_001": 10060, "P12_002": "米子市美術館", "P12_003": "31", "P12_004": "31202", "P12_005": "‐", "P12_006": "米子市中町12", "P12_007": 2 }, "geometry": { "type": "Point", "coordinates": [ 133.331043971352898, 35.428690872733874 ] } },
{ "type": "Feature", "properties": { "P12_001": 10061, "P12_002": "米子水鳥公園", "P12_003": "31", "P12_004": "31202", "P12_005": "‐", "P12_006": "米子市彦名新田665", "P12_007": 2 }, "geometry": { "type": "Point", "coordinates": [ 133.284491944444596, 35.443916944411384 ] } },
{ "type": "Feature", "properties": { "P12_001": 10062, "P12_002": "皆生温泉", "P12_003": "31", "P12_004": "31202", "P12_005": "‐", "P12_006": "米子市皆生温泉", "P12_007": 3 }, "geometry": { "type": "Point", "coordinates": [ 133.365074000019575, 35.45778999978495 ] } },
{ "type": "Feature", "properties": { "P12_001": 10063, "P12_002": "おーゆランド", "P12_003": "31", "P12_004": "31202", "P12_005": "‐", "P12_006": "米子市皆生温泉1-18-1", "P12_007": 3 }, "geometry": { "type": "Point", "coordinates": [ 133.360591944277871, 35.455198055649262 ] } },
{ "type": "Feature", "properties": { "P12_001": 10064, "P12_002": "皆生日帰り温泉オーシャン", "P12_003": "31", "P12_004": "31202", "P12_005": "‐", "P12_006": "米子市新開3-2-46", "P12_007": 3 }, "geometry": { "type": "Point", "coordinates": [ 133.352740000370858, 35.459271944313166 ] } },
{ "type": "Feature", "properties": { "P12_001": 10065, "P12_002": "淀江ゆめ温泉", "P12_003": "31", "P12_004": "31202", "P12_005": "‐", "P12_006": "米子市淀江町福岡1547", "P12_007": 3 }, "geometry": { "type": "Point", "coordinates": [ 133.441498055637908, 35.453398055317948 ] } },
{ "type": "Feature", "properties": { "P12_001": 10066, "P12_002": "米子ゴルフ場", "P12_003": "31", "P12_004": "31202", "P12_005": "‐", "P12_006": "米子市両三柳3199-2", "P12_007": 4 }, "geometry": { "type": "Point", "coordinates": [ 133.325476944691729, 35.461059999789995 ] } },
{ "type": "Feature", "properties": { "P12_001": 10067, "P12_002": "皆生温泉海水浴場", "P12_003": "31", "P12_004": "31202", "P12_005": "‐", "P12_006": "米子市皆生温泉", "P12_007": 4 }, "geometry": { "type": "Point", "coordinates": [ 133.3607526009921, 35.45914924993069 ] } },
{ "type": "Feature", "properties": { "P12_001": 10068, "P12_002": "白鳳の里（どんぐり館）", "P12_003": "31", "P12_004": "31202", "P12_005": "‐", "P12_006": "米子市淀江町福岡1548-1", "P12_007": 5 }, "geometry": { "type": "Point", "coordinates": [ 133.441215000352912, 35.453096111245657 ] } },
{ "type": "Feature", "properties": { "P12_001": 10069, "P12_002": "お菓子の壽城", "P12_003": "31", "P12_004": "31202", "P12_005": "‐", "P12_006": "米子市淀江町佐陀1605-1", "P12_007": 5 }, "geometry": { "type": "Point", "coordinates": [ 133.396794999448389, 35.434154999791538 ] } },
{ "type": "Feature", "properties": { "P12_001": 10070, "P12_002": "米子がいな祭", "P12_003": "31", "P12_004": "31202", "P12_005": "‐", "P12_006": "米子市　", "P12_007": 1 }, "geometry": { "type": "Point", "coordinates": [ 133.330902000265525, 35.428105999812139 ] } },
{ "type": "Feature", "properties": { "P12_001": 10071, "P12_002": "米子桜まつり", "P12_003": "31", "P12_004": "31202", "P12_005": "‐", "P12_006": "米子市", "P12_007": 1 }, "geometry": { "type": "Point", "coordinates": [ 133.321157000474727, 35.427146999934038 ] } },
{ "type": "Feature", "properties": { "P12_001": 10072, "P12_002": "勝田神社", "P12_003": "31", "P12_004": "31202", "P12_005": "‐", "P12_006": "米子市博労町2-10", "P12_007": 1 }, "geometry": { "type": "Point", "coordinates": [ 133.341046944563061, 35.431508055466679 ] } },
{ "type": "Feature", "properties": { "P12_001": 10073, "P12_002": "米子がいな祭大花火大会", "P12_003": "31", "P12_004": "31202", "P12_005": "‐", "P12_006": "米子市", "P12_007": 1 }, "geometry": { "type": "Point", "coordinates": [ 133.319264000345697, 35.431772999949942 ] } },
{ "type": "Feature", "properties": { "P12_001": 10074, "P12_002": "淀江町盆踊り花火大会", "P12_003": "31", "P12_004": "31202", "P12_005": "‐", "P12_006": "米子市淀江町", "P12_007": 1 }, "geometry": { "type": "Point", "coordinates": [ 133.424755000094223, 35.464384000163086 ] } },
{ "type": "Feature", "properties": { "P12_001": 10164, "P12_002": "日吉津村チューリップマラソン", "P12_003": "31", "P12_004": "31384", "P12_005": "‐", "P12_006": "日吉津村", "P12_007": 1 }, "geometry": { "type": "Point", "coordinates": [ 133.380814999762833, 35.440168000003055 ] } },
{ "type": "Feature", "properties": { "P12_001": 10096, "P12_002": "海とくらしの史料館", "P12_003": "31", "P12_004": "31204", "P12_005": "‐", "P12_006": "境港市花町8-1", "P12_007": 2 }, "geometry": { "type": "Point", "coordinates": [ 133.241848889472209, 35.547066110995004 ] } },
{ "type": "Feature", "properties": { "P12_001": 10097, "P12_002": "水木しげる記念館", "P12_003": "31", "P12_004": "31204", "P12_005": "‐", "P12_006": "境港市本町5", "P12_007": 2 }, "geometry": { "type": "Point", "coordinates": [ 133.231366943910558, 35.546439999987491 ] } },
{ "type": "Feature", "properties": { "P12_001": 10098, "P12_002": "水産物直売施設（境港水産物直売センター）", "P12_003": "31", "P12_004": "31204", "P12_005": "‐", "P12_006": "境港市昭和町9-5", "P12_007": 5 }, "geometry": { "type": "Point", "coordinates": [ 133.248610000429466, 35.545268889058718 ] } },
{ "type": "Feature", "properties": { "P12_001": 10099, "P12_002": "みなとまち商店街", "P12_003": "31", "P12_004": "31204", "P12_005": "‐", "P12_006": "境港市竹内団地255-3(タワー1Ｆ)", "P12_007": 5 }, "geometry": { "type": "Point", "coordinates": [ 133.259184999401469, 35.519780000093817 ] } },
{ "type": "Feature", "properties": { "P12_001": 10100, "P12_002": "水木しげるロード", "P12_003": "31", "P12_004": "31204", "P12_005": "‐", "P12_006": "境港市", "P12_007": 5 }, "geometry": { "type": "Point", "coordinates": [ 133.227408333375479, 35.546152777732296 ] } },
{ "type": "Feature", "properties": { "P12_001": 10101, "P12_002": "夢みなとタワー", "P12_003": "31", "P12_004": "31204", "P12_005": "‐", "P12_006": "境港市竹内団地255-3", "P12_007": 5 }, "geometry": { "type": "Point", "coordinates": [ 133.259184999401469, 35.519780000093817 ] } },
{ "type": "Feature", "properties": { "P12_001": 10102, "P12_002": "みなと祭", "P12_003": "31", "P12_004": "31204", "P12_005": "‐", "P12_006": "境港市弥生町", "P12_007": 1 }, "geometry": { "type": "Point", "coordinates": [ 133.248094000429234, 35.546076999980365 ] } },
{ "type": "Feature", "properties": { "P12_001": 10103, "P12_002": "境港水産まつり", "P12_003": "31", "P12_004": "31204", "P12_005": "‐", "P12_006": "境港市昭和町", "P12_007": 1 }, "geometry": { "type": "Point", "coordinates": [ 133.248094000429234, 35.546076999980365 ] } },
{ "type": "Feature", "properties": { "P12_001": 10104, "P12_002": "美保基地航空祭", "P12_003": "31", "P12_004": "31204", "P12_005": "‐", "P12_006": "境港市小篠津町2258", "P12_007": 1 }, "geometry": { "type": "Point", "coordinates": [ 133.236327777510411, 35.500027777777184 ] } },
{ "type": "Feature", "properties": { "P12_001": 10185, "P12_002": "とっとり花回廊", "P12_003": "31", "P12_004": "31389", "P12_005": "‐", "P12_006": "南部町鶴田110", "P12_007": 2 }, "geometry": { "type": "Point", "coordinates": [ 133.423483054913646, 35.348111944383966 ] } },
{ "type": "Feature", "properties": { "P12_001": 10187, "P12_002": "グリーンパーク大山ゴルフ倶楽部", "P12_003": "31", "P12_004": "31390", "P12_005": "‐", "P12_006": "南部町萩名753", "P12_007": 4 }, "geometry": { "type": "Point", "coordinates": [ 133.401171000545958, 35.363232000166107 ] } },
{ "type": "Feature", "properties": { "P12_001": 10188, "P12_002": "植田正治写真美術館", "P12_003": "31", "P12_004": "31390", "P12_005": "‐", "P12_006": "伯耆町須村353-3", "P12_007": 2 }, "geometry": { "type": "Point", "coordinates": [ 133.435765000355474, 35.389879999818838 ] } },
{ "type": "Feature", "properties": { "P12_001": 10189, "P12_002": "桝水高原スキー場", "P12_003": "31", "P12_004": "31390", "P12_005": "‐", "P12_006": "伯耆町桝水高原1067-2", "P12_007": 4 }, "geometry": { "type": "Point", "coordinates": [ 133.518018056134764, 35.36873888891472 ] } },
{ "type": "Feature", "properties": { "P12_001": 10190, "P12_002": "大山枡水フィールドステーション", "P12_003": "31", "P12_004": "31390", "P12_005": "‐", "P12_006": "伯耆町大内1069-50", "P12_007": 4 }, "geometry": { "type": "Point", "coordinates": [ 133.513985000018835, 35.368461944667985 ] } },
{ "type": "Feature", "properties": { "P12_001": 10191, "P12_002": "大山ガーデンプレイス", "P12_003": "31", "P12_004": "31390", "P12_005": "‐", "P12_006": "伯耆町丸山1800-26", "P12_007": 5 }, "geometry": { "type": "Point", "coordinates": [ 133.465441000489477, 35.385527999972737 ] } },
{ "type": "Feature", "properties": { "P12_001": 10192, "P12_002": "大山まきばみるくの里", "P12_003": "31", "P12_004": "31390", "P12_005": "‐", "P12_006": "伯耆町小林水無原2-11", "P12_007": 5 }, "geometry": { "type": "Point", "coordinates": [ 133.510663055767083, 35.378646944453735 ] } },
{ "type": "Feature", "properties": { "P12_001": 10167, "P12_002": "とっとりバーガーフェスタ", "P12_003": "31", "P12_004": "31386", "P12_005": "‐", "P12_006": "大山町大山", "P12_007": 1 }, "geometry": { "type": "Point", "coordinates": [ 133.538743000477268, 35.388586000177497 ] } },
{ "type": "Feature", "properties": { "P12_001": 10193, "P12_002": "ふれあい祭", "P12_003": "31", "P12_004": "31390", "P12_005": "‐", "P12_006": "伯耆町丸山", "P12_007": 1 }, "geometry": { "type": "Point", "coordinates": [ 133.407357999475749, 35.385250000040934 ] } },
{ "type": "Feature", "properties": { "P12_001": 10168, "P12_002": "大山登山", "P12_003": "31", "P12_004": "31386", "P12_005": "‐", "P12_006": "大山町大山", "P12_007": 1 }, "geometry": { "type": "Point", "coordinates": [ 133.496104000043431, 35.510736999921434 ] } },
{ "type": "Feature", "properties": { "P12_001": 10169, "P12_002": "県立大山自然歴史館", "P12_003": "31", "P12_004": "31386", "P12_005": "‐", "P12_006": "大山町大山43", "P12_007": 2 }, "geometry": { "type": "Point", "coordinates": [ 133.529806999769647, 35.393778000178209 ] } },
{ "type": "Feature", "properties": { "P12_001": 10170, "P12_002": "だいせんホワイトリゾート", "P12_003": "31", "P12_004": "31386", "P12_005": "‐", "P12_006": "大山町大山", "P12_007": 4 }, "geometry": { "type": "Point", "coordinates": [ 133.536068889021806, 35.396098888698504 ] } },
{ "type": "Feature", "properties": { "P12_001": 10171, "P12_002": "大山フィールドアスレチック", "P12_003": "31", "P12_004": "31386", "P12_005": "‐", "P12_006": "大山町赤松634", "P12_007": 4 }, "geometry": { "type": "Point", "coordinates": [ 133.475650000531772, 35.41070699977287 ] } },
{ "type": "Feature", "properties": { "P12_001": 10172, "P12_002": "大山スポーツ公園", "P12_003": "31", "P12_004": "31386", "P12_005": "‐", "P12_006": "大山町大山145-2", "P12_007": 4 }, "geometry": { "type": "Point", "coordinates": [ 133.536068889021806, 35.396098888698504 ] } },
{ "type": "Feature", "properties": { "P12_001": 10173, "P12_002": "道の駅　大山恵みの里", "P12_003": "31", "P12_004": "31386", "P12_005": "‐", "P12_006": "大山町名和951-6", "P12_007": 6 }, "geometry": { "type": "Point", "coordinates": [ 133.50208111079931, 35.504663055502938 ] } },
{ "type": "Feature", "properties": { "P12_001": 10174, "P12_002": "大山夏山開き祭", "P12_003": "31", "P12_004": "31386", "P12_005": "‐", "P12_006": "大山町大山", "P12_007": 1 }, "geometry": { "type": "Point", "coordinates": [ 133.530258000083961, 35.394134999826136 ] } },
{ "type": "Feature", "properties": { "P12_001": 10175, "P12_002": "大山紅葉まつり", "P12_003": "31", "P12_004": "31386", "P12_005": "‐", "P12_006": "大山町", "P12_007": 1 }, "geometry": { "type": "Point", "coordinates": [ 133.534885999764413, 35.390981999902309 ] } },
{ "type": "Feature", "properties": { "P12_001": 10176, "P12_002": "藤まつり（住雲寺）", "P12_003": "31", "P12_004": "31386", "P12_005": "‐", "P12_006": "大山町古御堂", "P12_007": 1 }, "geometry": { "type": "Point", "coordinates": [ 133.483191000100447, 35.492162999964307 ] } },
{ "type": "Feature", "properties": { "P12_001": 10194, "P12_002": "ゆきんこ村四季彩", "P12_003": "31", "P12_004": "31401", "P12_005": "‐", "P12_006": "日南町下阿毘緑字山ノ神478", "P12_007": 4 }, "geometry": { "type": "Point", "coordinates": [ 133.207664999689825, 35.20990111094693 ] } },
{ "type": "Feature", "properties": { "P12_001": 10195, "P12_002": "ふるさと日南邑ファームイン", "P12_003": "31", "P12_004": "31401", "P12_005": "‐", "P12_006": "日南町神戸上2962-1", "P12_007": 4 }, "geometry": { "type": "Point", "coordinates": [ 133.381906111486444, 35.130496111073313 ] } },
{ "type": "Feature", "properties": { "P12_001": 10196, "P12_002": "花見山スキー場", "P12_003": "31", "P12_004": "31401", "P12_005": "‐", "P12_006": "日南町神戸上", "P12_007": 4 }, "geometry": { "type": "Point", "coordinates": [ 133.407245000121492, 35.135304000230427 ] } },
{ "type": "Feature", "properties": { "P12_001": 10197, "P12_002": "ホームランド多里", "P12_003": "31", "P12_004": "31401", "P12_005": "‐", "P12_006": "日南町多里783-10", "P12_007": 6 }, "geometry": { "type": "Point", "coordinates": [ 133.200283055506617, 35.11597500019402 ] } },
{ "type": "Feature", "properties": { "P12_001": 10198, "P12_002": "オシドリ観察小屋", "P12_003": "31", "P12_004": "31402", "P12_005": "‐", "P12_006": "日野町根雨", "P12_007": 1 }, "geometry": { "type": "Point", "coordinates": [ 133.439313000367122, 35.239638000216253 ] } },
{ "type": "Feature", "properties": { "P12_001": 10199, "P12_002": "金持神社", "P12_003": "31", "P12_004": "31402", "P12_005": "‐", "P12_006": "日野町金持", "P12_007": 2 }, "geometry": { "type": "Point", "coordinates": [ 133.459172000559533, 35.215197000193861 ] } },
{ "type": "Feature", "properties": { "P12_001": 10201, "P12_002": "奥大山スキー場", "P12_003": "31", "P12_004": "31403", "P12_005": "‐", "P12_006": "江府町御机大平原", "P12_007": 4 }, "geometry": { "type": "Point", "coordinates": [ 133.556727000254199, 35.339958999881226 ] } },
{ "type": "Feature", "properties": { "P12_001": 10202, "P12_002": "鏡ヶ成スキー場", "P12_003": "31", "P12_004": "31403", "P12_005": "‐", "P12_006": "江府町鏡ヶ成", "P12_007": 4 }, "geometry": { "type": "Point", "coordinates": [ 133.591842999536254, 35.34432299996827 ] } },
{ "type": "Feature", "properties": { "P12_001": 10203, "P12_002": "鏡ヶ成キャンプ場", "P12_003": "31", "P12_004": "31403", "P12_005": "‐", "P12_006": "江府町鏡ヶ成", "P12_007": 4 }, "geometry": { "type": "Point", "coordinates": [ 133.586499999420795, 35.344347999793818 ] } },
{ "type": "Feature", "properties": { "P12_001": 10204, "P12_002": "江尾十七夜", "P12_003": "31", "P12_004": "31403", "P12_005": "‐", "P12_006": "江府町江尾", "P12_007": 1 }, "geometry": { "type": "Point", "coordinates": [ 133.488517000198328, 35.283161999871673 ] } },
{ "type": "Feature", "properties": { "P12_001": 10039, "P12_002": "鳥取県立鳥取砂丘こどもの国", "P12_003": "31", "P12_004": "31201", "P12_005": "‐", "P12_006": "鳥取市浜坂1157-1", "P12_007": 4 }, "geometry": { "type": "Point", "coordinates": [ 134.225583056129409, 35.532401111339595 ] } },
{ "type": "Feature", "properties": { "P12_001": 10040, "P12_002": "鹿野往来交流館「童里夢」", "P12_003": "31", "P12_004": "31201", "P12_005": "‐", "P12_006": "鳥取市鹿野町鹿野1353", "P12_007": 6 }, "geometry": { "type": "Point", "coordinates": [ 134.063790000083117, 35.461916944382224 ] } },
{ "type": "Feature", "properties": { "P12_001": 10041, "P12_002": "宇部神社", "P12_003": "31", "P12_004": "31201", "P12_005": "‐", "P12_006": "鳥取市国府町宮下651", "P12_007": 1 }, "geometry": { "type": "Point", "coordinates": [ 134.268795000333796, 35.480926944658336 ] } },
{ "type": "Feature", "properties": { "P12_001": 10042, "P12_002": "倉田八幡宮", "P12_003": "31", "P12_004": "31201", "P12_005": "‐", "P12_006": "鳥取市馬場299", "P12_007": 1 }, "geometry": { "type": "Point", "coordinates": [ 134.225263056179529, 35.465206110967941 ] } },
{ "type": "Feature", "properties": { "P12_001": 10043, "P12_002": "栗渓神社", "P12_003": "31", "P12_004": "31201", "P12_005": "‐", "P12_006": "鳥取市栗谷町33-1", "P12_007": 1 }, "geometry": { "type": "Point", "coordinates": [ 134.244146000445824, 35.505199000215136 ] } },
{ "type": "Feature", "properties": { "P12_001": 10044, "P12_002": "長田神社", "P12_003": "31", "P12_004": "31201", "P12_005": "‐", "P12_006": "鳥取市東町1-103", "P12_007": 1 }, "geometry": { "type": "Point", "coordinates": [ 134.241263054970517, 35.50627111118537 ] } },
{ "type": "Feature", "properties": { "P12_001": 10045, "P12_002": "白兎神社", "P12_003": "31", "P12_004": "31201", "P12_005": "‐", "P12_006": "鳥取市白兎603", "P12_007": 1 }, "geometry": { "type": "Point", "coordinates": [ 134.115066111585605, 35.524203055518498 ] } },
{ "type": "Feature", "properties": { "P12_001": 10150, "P12_002": "ハワイ海水浴場", "P12_003": "31", "P12_004": "31370", "P12_005": "‐", "P12_006": "湯梨浜町橋津", "P12_007": 4 }, "geometry": { "type": "Point", "coordinates": [ 133.881851111498122, 35.506763055650737 ] } },
{ "type": "Feature", "properties": { "P12_001": 10046, "P12_002": "鳥取砂丘ジオパークセンター", "P12_003": "31", "P12_004": "31201", "P12_005": "‐", "P12_006": "鳥取市福部町湯山2164-661", "P12_007": 6 }, "geometry": { "type": "Point", "coordinates": [ 134.236651111366484, 35.544263888814051 ] } },
{ "type": "Feature", "properties": { "P12_001": 10047, "P12_002": "賀露みなと海水浴場", "P12_003": "31", "P12_004": "31201", "P12_005": "‐", "P12_006": "鳥取市賀露", "P12_007": 4 }, "geometry": { "type": "Point", "coordinates": [ 134.176259453245564, 35.534958947441552 ] } },
{ "type": "Feature", "properties": { "P12_001": 10075, "P12_002": "汐の湯", "P12_003": "31", "P12_004": "31202", "P12_005": "‐", "P12_006": "米子市皆生温泉4-21-1", "P12_007": 3 }, "geometry": { "type": "Point", "coordinates": [ 133.359572999969345, 35.4584089998392 ] } },
{ "type": "Feature", "properties": { "P12_001": 10048, "P12_002": "鳥取砂丘イリュージョン", "P12_003": "31", "P12_004": "31201", "P12_005": "‐", "P12_006": "鳥取市福部町湯山", "P12_007": 1 }, "geometry": { "type": "Point", "coordinates": [ 134.229145999715371, 35.540756999956088 ] } },
{ "type": "Feature", "properties": { "P12_001": 10049, "P12_002": "ゆるキャラカップｉｎ鳥取砂丘", "P12_003": "31", "P12_004": "31201", "P12_005": "‐", "P12_006": "鳥取市福部町湯山", "P12_007": 1 }, "geometry": { "type": "Point", "coordinates": [ 134.229145999715371, 35.540756999956088 ] } },
{ "type": "Feature", "properties": { "P12_001": 10110, "P12_002": "浦富海岸自然探勝歩道", "P12_003": "31", "P12_004": "31302", "P12_005": "‐", "P12_006": "岩美町田後", "P12_007": 4 }, "geometry": { "type": "Point", "coordinates": [ 134.32819799935794, 35.590071999901525 ] } },
{ "type": "Feature", "properties": { "P12_001": 10111, "P12_002": "山陰海岸学習館", "P12_003": "31", "P12_004": "31302", "P12_005": "‐", "P12_006": "岩美町牧谷1794-4", "P12_007": 2 }, "geometry": { "type": "Point", "coordinates": [ 134.339480556151841, 35.593444444330082 ] } },
{ "type": "Feature", "properties": { "P12_001": 10112, "P12_002": "渚交流館", "P12_003": "31", "P12_004": "31302", "P12_005": "‐", "P12_006": "岩美町大字牧谷690-20", "P12_007": 2 }, "geometry": { "type": "Point", "coordinates": [ 134.338625000541157, 35.592999999962991 ] } },
{ "type": "Feature", "properties": { "P12_001": 10113, "P12_002": "牧谷海水浴場", "P12_003": "31", "P12_004": "31302", "P12_005": "‐", "P12_006": "岩美町牧谷", "P12_007": 4 }, "geometry": { "type": "Point", "coordinates": [ 134.335543000172891, 35.592423999856969 ] } },
{ "type": "Feature", "properties": { "P12_001": 10177, "P12_002": "大山情報館", "P12_003": "31", "P12_004": "31386", "P12_005": "‐", "P12_006": "大山町大山40-33", "P12_007": 6 }, "geometry": { "type": "Point", "coordinates": [ 133.52996666716092, 35.394400000173334 ] } },
{ "type": "Feature", "properties": { "P12_001": 10200, "P12_002": "滝山公園", "P12_003": "31", "P12_004": "31402", "P12_005": "‐", "P12_006": "日野町中菅", "P12_007": 1 }, "geometry": { "type": "Point", "coordinates": [ 133.384630000279685, 35.19866399995589 ] } },
{ "type": "Feature", "properties": { "P12_001": 10114, "P12_002": "浦富海岸民宿", "P12_003": "31", "P12_004": "31302", "P12_005": "‐", "P12_006": "岩美町", "P12_007": 5 }, "geometry": { "type": "Point", "coordinates": [ 134.324251000077368, 35.589567999808757 ] } },
{ "type": "Feature", "properties": { "P12_001": 10151, "P12_002": "道の駅　燕趙園", "P12_003": "31", "P12_004": "31370", "P12_005": "‐", "P12_006": "湯梨浜町引地563-1", "P12_007": 6 }, "geometry": { "type": "Point", "coordinates": [ 133.891983333335702, 35.464630555386023 ] } },
{ "type": "Feature", "properties": { "P12_001": 10156, "P12_002": "物産館　ことうら", "P12_003": "31", "P12_004": "31371", "P12_005": "‐", "P12_006": "琴浦町別所1030-1", "P12_007": 6 }, "geometry": { "type": "Point", "coordinates": [ 133.658133333124795, 35.501991666649552 ] } },
{ "type": "Feature", "properties": { "P12_001": 10076, "P12_002": "上淀白鳳の丘展示館", "P12_003": "31", "P12_004": "31202", "P12_005": "‐", "P12_006": "米子市淀江町福岡977-2", "P12_007": 2 }, "geometry": { "type": "Point", "coordinates": [ 133.443022222420439, 35.453594444252928 ] } },
{ "type": "Feature", "properties": { "P12_001": 10050, "P12_002": "Ｂ−１グランプリｉｎＴＯＴＴＯＲＩ", "P12_003": "31", "P12_004": "31201", "P12_005": "‐", "P12_006": "鳥取市", "P12_007": 1 }, "geometry": { "type": "Point", "coordinates": [ 134.235050957318975, 35.501163357335649 ] } },
{ "type": "Feature", "properties": { "P12_001": 10115, "P12_002": "田後港大漁感謝祭", "P12_003": "31", "P12_004": "31302", "P12_005": "‐", "P12_006": "岩美町田後", "P12_007": 1 }, "geometry": { "type": "Point", "coordinates": [ 134.312831000001836, 35.593055999973302 ] } },
{ "type": "Feature", "properties": { "P12_001": 10116, "P12_002": "網代港松葉か〜にバル", "P12_003": "31", "P12_004": "31302", "P12_005": "‐", "P12_006": "岩美町大谷", "P12_007": 1 }, "geometry": { "type": "Point", "coordinates": [ 134.290424000451594, 35.578214999808026 ] } },
{ "type": "Feature", "properties": { "P12_001": 10117, "P12_002": "国際まんが博", "P12_003": "31", "P12_004": "31302", "P12_005": "‐", "P12_006": "岩美町", "P12_007": 1 }, "geometry": { "type": "Point", "coordinates": [ 134.332089999801951, 35.575992999995876 ] } },
{ "type": "Feature", "properties": { "P12_001": 10051, "P12_002": "鳥取砂丘砂の美術館", "P12_003": "31", "P12_004": "31201", "P12_005": "‐", "P12_006": "鳥取市福部町湯山2083-17", "P12_007": 2 }, "geometry": { "type": "Point", "coordinates": [ 134.238350000624138, 35.539619999925861 ] } },
{ "type": "Feature", "properties": { "P12_001": 10093, "P12_002": "エキパル倉吉観光案内所", "P12_003": "31", "P12_004": "31203", "P12_005": "‐", "P12_006": "倉吉市上井195（エキパル倉吉1階）", "P12_007": 6 }, "geometry": { "type": "Point", "coordinates": [ 133.84982777730437, 35.454494444657321 ] } },
{ "type": "Feature", "properties": { "P12_001": 10094, "P12_002": "倉吉白壁土蔵群・赤瓦観光案内所", "P12_003": "31", "P12_004": "31203", "P12_005": "‐", "P12_006": "倉吉市魚町2568（赤瓦10号館1階）", "P12_007": 6 }, "geometry": { "type": "Point", "coordinates": [ 133.824827777815784, 35.431305555399561 ] } },
{ "type": "Feature", "properties": { "P12_001": 10095, "P12_002": "第５３代横綱　琴櫻記念館", "P12_003": "31", "P12_004": "31203", "P12_005": "‐", "P12_006": "倉吉市魚町2518", "P12_007": 2 }, "geometry": { "type": "Point", "coordinates": [ 133.825011111160904, 35.431847222106242 ] } },
{ "type": "Feature", "properties": { "P12_001": 10052, "P12_002": "エンジン０２", "P12_003": "31", "P12_004": "31201", "P12_005": "‐", "P12_006": "鳥取市", "P12_007": 1 }, "geometry": { "type": "Point", "coordinates": [ 134.235050957318975, 35.501163357335649 ] } },
{ "type": "Feature", "properties": { "P12_001": 10053, "P12_002": "多鯰ヶ池弁天宮", "P12_003": "31", "P12_004": "31201", "P12_005": "‐", "P12_006": "鳥取市", "P12_007": 1 }, "geometry": { "type": "Point", "coordinates": [ 134.238501960891284, 35.537306550380372 ] } },
{ "type": "Feature", "properties": { "P12_001": 10054, "P12_002": "青い鳥コンサート", "P12_003": "31", "P12_004": "31201", "P12_005": "‐", "P12_006": "鳥取市", "P12_007": 1 }, "geometry": { "type": "Point", "coordinates": [ 134.235050957318975, 35.501163357335649 ] } },
{ "type": "Feature", "properties": { "P12_001": 10163, "P12_002": "北栄砂丘まつり", "P12_003": "31", "P12_004": "31372", "P12_005": "‐", "P12_006": "北栄町", "P12_007": 1 }, "geometry": { "type": "Point", "coordinates": [ 133.817788055098845, 35.499443888920084 ] } },
{ "type": "Feature", "properties": { "P12_001": 10055, "P12_002": "国際まんが博・乙", "P12_003": "31", "P12_004": "31201", "P12_005": "‐", "P12_006": "鳥取市", "P12_007": 1 }, "geometry": { "type": "Point", "coordinates": [ 134.237672000608768, 35.503868999850965 ] } },
{ "type": "Feature", "properties": { "P12_001": 10056, "P12_002": "全国都市緑化とっとりフェア", "P12_003": "31", "P12_004": "31201", "P12_005": "‐", "P12_006": "鳥取市", "P12_007": 1 }, "geometry": { "type": "Point", "coordinates": [ 134.174878000515122, 35.509025000083788 ] } },
{ "type": "Feature", "properties": { "P12_001": 10077, "P12_002": "エコツーリズム国際大会２０１３ｉｎ鳥取", "P12_003": "31", "P12_004": "31202", "P12_005": "‐", "P12_006": "米子市", "P12_007": 1 }, "geometry": { "type": "Point", "coordinates": [ 133.330902000265525, 35.428105999812139 ] } },
{ "type": "Feature", "properties": { "P12_001": 10186, "P12_002": "全国植樹祭", "P12_003": "31", "P12_004": "31389", "P12_005": "‐", "P12_006": "南部町", "P12_007": 1 }, "geometry": { "type": "Point", "coordinates": [ 133.423483054913646, 35.348111944383966 ] } },
{ "type": "Feature", "properties": { "P12_001": 10057, "P12_002": "地場産プラザ「わったいな」", "P12_003": "31", "P12_004": "31201", "P12_005": "‐", "P12_006": "鳥取市賀露町西3-323", "P12_007": 5 }, "geometry": { "type": "Point", "coordinates": [ 134.179419444160573, 35.535413888975604 ] } },
{ "type": "Feature", "properties": { "P12_001": 10058, "P12_002": "森林公園「とっとり出合いの森」", "P12_003": "31", "P12_004": "31201", "P12_005": "‐", "P12_006": "鳥取市桂見293", "P12_007": 4 }, "geometry": { "type": "Point", "coordinates": [ 134.171056380740424, 35.491494561763091 ] } },
{ "type": "Feature", "properties": { "P12_001": 10078, "P12_002": "とっとり自然環境館", "P12_003": "31", "P12_004": "31202", "P12_005": "‐", "P12_006": "米子市大崎字中海ノ一3421-9", "P12_007": 2 }, "geometry": { "type": "Point", "coordinates": [ 133.262244445021338, 35.463541666615022 ] } },
{ "type": "Feature", "properties": { "P12_001": 10178, "P12_002": "門脇家住宅", "P12_003": "31", "P12_004": "31386", "P12_005": "‐", "P12_006": "大山町所子360", "P12_007": 2 }, "geometry": { "type": "Point", "coordinates": [ 133.465924999846408, 35.48351388873342 ] } },
{ "type": "Feature", "properties": { "P12_001": 10179, "P12_002": "大山（下山・豪円山）キャンプ場", "P12_003": "31", "P12_004": "31386", "P12_005": "‐", "P12_006": "大山町大山", "P12_007": 4 }, "geometry": { "type": "Point", "coordinates": [ 133.529904000098867, 35.393738000170849 ] } },
{ "type": "Feature", "properties": { "P12_001": 10180, "P12_002": "鳥取県立大山青年の家", "P12_003": "31", "P12_004": "31386", "P12_005": "‐", "P12_006": "大山町赤松312-1", "P12_007": 1 }, "geometry": { "type": "Point", "coordinates": [ 133.503236111003361, 35.415016666695628 ] } },
{ "type": "Feature", "properties": { "P12_001": 10181, "P12_002": "夕陽の丘神田（鳥取県フットボールセンター）", "P12_003": "31", "P12_004": "31386", "P12_005": "‐", "P12_006": "大山町加茂2663", "P12_007": 4 }, "geometry": { "type": "Point", "coordinates": [ 133.538125000371451, 35.456125000135003 ] } },
{ "type": "Feature", "properties": { "P12_001": 10182, "P12_002": "大山火の神岳温泉　豪円湯院", "P12_003": "31", "P12_004": "31386", "P12_005": "‐", "P12_006": "大山町大山25", "P12_007": 3 }, "geometry": { "type": "Point", "coordinates": [ 133.5308722218318, 35.392999999915645 ] } },
{ "type": "Feature", "properties": { "P12_001": 10183, "P12_002": "御輿行幸", "P12_003": "31", "P12_004": "31386", "P12_005": "‐", "P12_006": "大山町大山", "P12_007": 1 }, "geometry": { "type": "Point", "coordinates": [ 133.534885999764413, 35.390981999902309 ] } },
{ "type": "Feature", "properties": { "P12_001": 10184, "P12_002": "大山夏祭り（お盆の大献灯８/１３〜１５・ぐ〜ちゃん祭り）", "P12_003": "31", "P12_004": "31386", "P12_005": "‐", "P12_006": "大山町大山", "P12_007": 1 }, "geometry": { "type": "Point", "coordinates": [ 133.496104000043431, 35.510736999921434 ] } },
{ "type": "Feature", "properties": { "P12_001": 10135, "P12_002": "三徳山三佛寺", "P12_003": "31", "P12_004": "31364", "P12_005": "神社・寺院・教会", "P12_006": "三朝町", "P12_007": -1 }, "geometry": { "type": "Polygon", "coordinates": [ [ [ 133.955575740516508, 35.399687950146209 ], [ 133.955353220026552, 35.399685590149076 ], [ 133.955313519460617, 35.399687950146209 ], [ 133.955305920515514, 35.399706949856132 ], [ 133.955273620027242, 35.399708849827121 ], [ 133.955273620027242, 35.399735459923889 ], [ 133.955248919588854, 35.399737359894885 ], [ 133.955224210311911, 35.399762059867875 ], [ 133.955226109495783, 35.3998247599609 ], [ 133.955190009534959, 35.399820960018914 ], [ 133.9551424404481, 35.399841720011523 ], [ 133.955085500286458, 35.399866569825605 ], [ 133.955062700136779, 35.399881769943633 ], [ 133.955064600425459, 35.399925469976644 ], [ 133.955036100514519, 35.399925469976644 ], [ 133.955034200225839, 35.399991980164437 ], [ 133.955007599498771, 35.399993880135426 ], [ 133.955012229795216, 35.400041089880837 ], [ 133.955026740487966, 35.400099129846005 ], [ 133.955092039710138, 35.400099129846005 ], [ 133.95508739947033, 35.400132589921107 ], [ 133.955115910429441, 35.400132589921107 ], [ 133.955113800225149, 35.400273250091601 ], [ 133.955113800225149, 35.400331299859459 ], [ 133.955169109673932, 35.400391010132644 ], [ 133.955216610262028, 35.40039481007463 ], [ 133.955216610262028, 35.400415710105634 ], [ 133.955271719738562, 35.400411910163648 ], [ 133.955269819449882, 35.400436610136644 ], [ 133.955324920087861, 35.400436610136644 ], [ 133.955324920087861, 35.40045560984656 ], [ 133.95529642017695, 35.400459410138645 ], [ 133.955260320216127, 35.400522120034353 ], [ 133.95526411968865, 35.400636120044354 ], [ 133.95533871043861, 35.400657780133777 ], [ 133.955411259483071, 35.400708560158193 ], [ 133.955507340067413, 35.400763430004083 ], [ 133.955541850193697, 35.400817389950468 ], [ 133.955752249714408, 35.400817389950468 ], [ 133.955748650214105, 35.400706430174132 ], [ 133.955828460129027, 35.400658929849044 ], [ 133.955962650339956, 35.400585219937014 ], [ 133.95613676981435, 35.400505420105063 ], [ 133.956223829551561, 35.400461889868609 ], [ 133.956296379700831, 35.400403849903441 ], [ 133.956406100380548, 35.400301699942851 ], [ 133.956550310194984, 35.400280510032353 ], [ 133.956687329847341, 35.400191490072146 ], [ 133.956753830007784, 35.400138289834082 ], [ 133.956774729868812, 35.400098379940374 ], [ 133.956776630157492, 35.400060380170437 ], [ 133.956775220408446, 35.399932269891252 ], [ 133.956744329669192, 35.399900770003654 ], [ 133.956675920381542, 35.399900770003654 ], [ 133.956537210356089, 35.399893170119682 ], [ 133.95645551009585, 35.399896970061668 ], [ 133.95645360980717, 35.399876070030658 ], [ 133.956212289717115, 35.399874170059668 ], [ 133.956210390533244, 35.399895070090672 ], [ 133.956157180240552, 35.399896970061668 ], [ 133.956157180240552, 35.399936870152693 ], [ 133.956126780040961, 35.399938770123683 ], [ 133.956130579513513, 35.399959670154693 ], [ 133.956085990123483, 35.399961290048886 ], [ 133.956081179741545, 35.399942570065669 ], [ 133.9559975703541, 35.399936870152693 ], [ 133.95599567006542, 35.399910269858609 ], [ 133.95589115971211, 35.399910269858609 ], [ 133.955811680138055, 35.399915339948883 ], [ 133.955678349476329, 35.399915970121683 ], [ 133.955682470451194, 35.399890000000404 ], [ 133.95568215005369, 35.3998475599629 ], [ 133.95565174985407, 35.3998475599629 ], [ 133.955652060308211, 35.399798789839622 ], [ 133.955657130322606, 35.399740519861382 ], [ 133.955630840049679, 35.39973165998191 ], [ 133.955627039472319, 35.39969745000117 ], [ 133.955575740516508, 35.399687950146209 ] ] ] } },
{ "type": "Feature", "properties": { "P12_001": 10010, "P12_002": "仁風閣", "P12_003": "31", "P12_004": "31201", "P12_005": "‐", "P12_006": "鳥取市東町2-121", "P12_007": 2 }, "geometry": { "type": "Polygon", "coordinates": [ [ [ 134.236942244657996, 35.506993470996981 ], [ 134.237812734862558, 35.50740731072618 ], [ 134.23794932253071, 35.507211603211125 ], [ 134.237072716048175, 35.506795724872916 ], [ 134.236942244657996, 35.506993470996981 ] ] ] } },
{ "type": "Feature", "properties": { "P12_001": 10072, "P12_002": "勝田神社", "P12_003": "31", "P12_004": "31202", "P12_005": "‐", "P12_006": "米子市博労町2-10", "P12_007": 1 }, "geometry": { "type": "Polygon", "coordinates": [ [ [ 133.341201305736746, 35.431403999970165 ], [ 133.341177889098049, 35.431400917024789 ], [ 133.341178944200209, 35.431395332993588 ], [ 133.341093167157851, 35.431385082882898 ], [ 133.34110261115066, 35.431332694167359 ], [ 133.341118000174532, 35.431334638950645 ], [ 133.341127889409393, 35.431283528085508 ], [ 133.341111500524335, 35.431281388998947 ], [ 133.341117833346857, 35.431250444013507 ], [ 133.3410314166143, 35.431238722099238 ], [ 133.34103561050722, 35.431218582826837 ], [ 133.340964389455223, 35.431209082971876 ], [ 133.340944777813149, 35.431308333087301 ], [ 133.34097391741426, 35.431312166988597 ], [ 133.340964055799873, 35.431361943987973 ], [ 133.340935193508329, 35.431358056171888 ], [ 133.340921889277922, 35.431428306085152 ], [ 133.34093952771326, 35.431430417164037 ], [ 133.340938221817197, 35.431437443940851 ], [ 133.340923278035405, 35.431435972137265 ], [ 133.340898471534388, 35.431617917028468 ], [ 133.341018360968178, 35.431628833021747 ], [ 133.341015693935105, 35.431648194030736 ], [ 133.34101038859427, 35.431685638898514 ], [ 133.341025916825316, 35.431687111052192 ], [ 133.341137443884094, 35.431697667146786 ], [ 133.341161333385344, 35.431528500059393 ], [ 133.341183667301408, 35.431530583130595 ], [ 133.341201305736746, 35.431403999970165 ] ] ] } },
{ "type": "Feature", "properties": { "P12_001": 10199, "P12_002": "金持神社", "P12_003": "31", "P12_004": "31402", "P12_005": "‐", "P12_006": "日野町金持", "P12_007": 2 }, "geometry": { "type": "Polygon", "coordinates": [ [ [ 133.459189444351637, 35.215288332834533 ], [ 133.459230555771455, 35.215277500164099 ], [ 133.459277777945147, 35.215243332895078 ], [ 133.459216944401362, 35.215159167015912 ], [ 133.459168056160621, 35.21511416707645 ], [ 133.459140556110896, 35.215125000096982 ], [ 133.459100556138992, 35.215170000036437 ], [ 133.459189444351637, 35.215288332834533 ] ] ] } },
{ "type": "Feature", "properties": { "P12_001": 10041, "P12_002": "宇部神社", "P12_003": "31", "P12_004": "31201", "P12_005": "‐", "P12_006": "鳥取市国府町宮下651", "P12_007": 1 }, "geometry": { "type": "Polygon", "coordinates": [ [ [ 134.268733917390108, 35.480997333032931 ], [ 134.268832916906234, 35.48095177784122 ], [ 134.268825221841894, 35.480940499848671 ], [ 134.268871194465305, 35.480919417067554 ], [ 134.268878332700865, 35.480929972111859 ], [ 134.268969944292337, 35.480887833156913 ], [ 134.268918667432928, 35.480813278113139 ], [ 134.26882825015079, 35.480854778142884 ], [ 134.268837833350801, 35.480868750124145 ], [ 134.268789778143571, 35.480890889144895 ], [ 134.268779639219588, 35.480876110892545 ], [ 134.268681638459839, 35.480921222162529 ], [ 134.268733917390108, 35.480997333032931 ] ] ] } },
{ "type": "Feature", "properties": { "P12_001": 10042, "P12_002": "倉田八幡宮", "P12_003": "31", "P12_004": "31201", "P12_005": "‐", "P12_006": "鳥取市馬場299", "P12_007": 1 }, "geometry": { "type": "Polygon", "coordinates": [ [ [ 134.22518283295085, 35.465277610920033 ], [ 134.225293916977193, 35.465255360918853 ], [ 134.225286249533355, 35.465234611079026 ], [ 134.225352582866094, 35.465220055837825 ], [ 134.225360277930434, 35.465241693871199 ], [ 134.225459805550059, 35.465219443870019 ], [ 134.225431806122145, 35.465140361034678 ], [ 134.225332833121655, 35.46516372189047 ], [ 134.225338666565989, 35.46517902808759 ], [ 134.225288167499116, 35.465189361171028 ], [ 134.225281582777882, 35.465170167157829 ], [ 134.225155721797393, 35.465194388899683 ], [ 134.22518283295085, 35.465277610920033 ] ] ] } },
{ "type": "Feature", "properties": { "P12_001": 10043, "P12_002": "栗渓神社", "P12_003": "31", "P12_004": "31201", "P12_005": "‐", "P12_006": "鳥取市栗谷町33-1", "P12_007": 1 }, "geometry": { "type": "Polygon", "coordinates": [ [ [ 134.244106055672034, 35.505153556173013 ], [ 134.244061555772362, 35.505232139071268 ], [ 134.244130861068214, 35.505258416926928 ], [ 134.244122028040323, 35.505273917077233 ], [ 134.244189139165655, 35.50529938901191 ], [ 134.244217193834515, 35.505249916946148 ], [ 134.244241443506752, 35.505259139174981 ], [ 134.244268721487856, 35.505211110905122 ], [ 134.24424733329684, 35.505202971873317 ], [ 134.244255944256139, 35.505187667076576 ], [ 134.244234582580759, 35.505179528044771 ], [ 134.244259750357571, 35.505135111015157 ], [ 134.244173361245515, 35.505102416950095 ], [ 134.244147416780947, 35.505148083122243 ], [ 134.244163055493885, 35.505154056110101 ], [ 134.244153221499971, 35.505171443978035 ], [ 134.244106055672034, 35.505153556173013 ] ] ] } },
{ "type": "Feature", "properties": { "P12_001": 10044, "P12_002": "長田神社", "P12_003": "31", "P12_004": "31201", "P12_005": "‐", "P12_006": "鳥取市東町1-103", "P12_007": 1 }, "geometry": { "type": "Polygon", "coordinates": [ [ [ 134.24114116671808, 35.506317028109237 ], [ 134.24121644356066, 35.506314917030352 ], [ 134.241216028148699, 35.506304721884739 ], [ 134.241245028542636, 35.506303943971425 ], [ 134.241244583300585, 35.506293943829284 ], [ 134.241286028375725, 35.506292806017285 ], [ 134.241286250444347, 35.506299833144197 ], [ 134.241308944531426, 35.506299221876581 ], [ 134.241309278186776, 35.506306777998546 ], [ 134.241395610953077, 35.506304332928082 ], [ 134.241392472162289, 35.506231306053344 ], [ 134.24130824960028, 35.506233667100773 ], [ 134.241308583255631, 35.50624169410186 ], [ 134.241286194098592, 35.506242306069666 ], [ 134.241286639340643, 35.506252944086725 ], [ 134.241242972474481, 35.506254193929443 ], [ 134.241242332784282, 35.506240027994991 ], [ 134.241209917394826, 35.506240916888736 ], [ 134.241209694221396, 35.506235944125152 ], [ 134.241135832651963, 35.506238055904227 ], [ 134.241136499962636, 35.506253639027285 ], [ 134.241114000323705, 35.506254249944803 ], [ 134.241115943700322, 35.506300500077074 ], [ 134.241140416545989, 35.506299805836704 ], [ 134.24114116671808, 35.506317028109237 ] ] ] } },
{ "type": "Feature", "properties": { "P12_001": 10045, "P12_002": "白兎神社", "P12_003": "31", "P12_004": "31201", "P12_005": "‐", "P12_006": "鳥取市白兎603", "P12_007": 1 }, "geometry": { "type": "Polygon", "coordinates": [ [ [ 134.115102444062188, 35.524242805945775 ], [ 134.115104582991762, 35.524235500142453 ], [ 134.115117139259723, 35.524237944162628 ], [ 134.115134693728805, 35.524184443892288 ], [ 134.11511972232654, 35.524181610915456 ], [ 134.115123277634069, 35.524168833111652 ], [ 134.115033556387914, 35.524151638846803 ], [ 134.115030555699491, 35.524162166933714 ], [ 134.115011499781389, 35.52415852803589 ], [ 134.114995360585425, 35.524214555999343 ], [ 134.115014638572177, 35.524218221854561 ], [ 134.115012416781155, 35.524225500000306 ], [ 134.115102444062188, 35.524242805945775 ] ] ] } },
{ "type": "Feature", "properties": { "P12_001": 10200, "P12_002": "滝山公園", "P12_003": "31", "P12_004": "31402", "P12_005": "‐", "P12_006": "日野町中菅", "P12_007": 1 }, "geometry": { "type": "Polygon", "coordinates": [ [ [ 133.383589284240031, 35.198410191720981 ], [ 133.384730911389823, 35.199714908488019 ], [ 133.385313957520708, 35.199568127939251 ], [ 133.385600556407866, 35.199038332913894 ], [ 133.384906232907298, 35.197978004510709 ], [ 133.384404732362015, 35.19770482915316 ], [ 133.383874691027472, 35.19781491473978 ], [ 133.383589284240031, 35.198410191720981 ] ] ] } },
{ "type": "Feature", "properties": { "P12_001": 10053, "P12_002": "多鯰ヶ池弁天宮", "P12_003": "31", "P12_004": "31201", "P12_005": "‐", "P12_006": "鳥取市", "P12_007": 1 }, "geometry": { "type": "Polygon", "coordinates": [ [ [ 134.238459806359288, 35.537359721841874 ], [ 134.238491111405665, 35.537368667144769 ], [ 134.238509250324, 35.53732605591032 ], [ 134.238519611316576, 35.537329027875266 ], [ 134.238534222547855, 35.537294971936767 ], [ 134.23852374996855, 35.537292082944575 ], [ 134.238527389242336, 35.537283499991041 ], [ 134.23849619357307, 35.537274667068964 ], [ 134.238492556508902, 35.537283139042067 ], [ 134.238482082824788, 35.537280139069445 ], [ 134.238467583180238, 35.537314193957648 ], [ 134.238478055759543, 35.537317193930271 ], [ 134.238459806359288, 35.537359721841874 ] ] ] } },
{ "type": "Feature", "properties": { "P12_001": 10001, "P12_002": "鳥取砂丘", "P12_003": "31", "P12_004": "31201", "P12_005": "海岸・岬", "P12_006": "鳥取市福部町", "P12_007": 1 }, "geometry": { "type": "Polygon", "coordinates": [ [ [ 134.218071988064509, 35.541472935678307 ], [ 134.216180342383524, 35.541775073427651 ], [ 134.215838795323407, 35.542261121507138 ], [ 134.215489806202527, 35.543027527863806 ], [ 134.216479277679639, 35.543347582826243 ], [ 134.217875027562087, 35.54363213910456 ], [ 134.221392278508802, 35.544230000144339 ], [ 134.223752500024062, 35.544687832936901 ], [ 134.227624889514232, 35.545541749989923 ], [ 134.23059655653276, 35.546327889157538 ], [ 134.233333333507773, 35.547220360882655 ], [ 134.235409777843586, 35.547800778039139 ], [ 134.235622261052924, 35.545886776599843 ], [ 134.235622261052924, 35.544402359757157 ], [ 134.235806170328487, 35.543706128743295 ], [ 134.236331627768976, 35.541906437849157 ], [ 134.23627908257734, 35.54102629685525 ], [ 134.23663376593538, 35.540369475447925 ], [ 134.236896494103206, 35.539804608855569 ], [ 134.237382542649982, 35.539108377841714 ], [ 134.237553315627622, 35.538885058605231 ], [ 134.235057393613886, 35.538793103440163 ], [ 134.233520431290941, 35.537873553189826 ], [ 134.231773285991807, 35.536086998597796 ], [ 134.230196914775149, 35.53556154126187 ], [ 134.227963720929267, 35.535377631281825 ], [ 134.22559916299943, 35.535508995703331 ], [ 134.224508839224711, 35.535469586446901 ], [ 134.223142650984244, 35.535430177190463 ], [ 134.222577784650014, 35.538359601269313 ], [ 134.22143491457885, 35.540369475447925 ], [ 134.220699274162143, 35.540684749499377 ], [ 134.218071988064509, 35.541472935678307 ] ] ] } },
{ "type": "Feature", "properties": { "P12_001": 10018, "P12_002": "安蔵森林公園", "P12_003": "31", "P12_004": "31201", "P12_005": "‐", "P12_006": "鳥取市河内1462-36", "P12_007": 4 }, "geometry": { "type": "Polygon", "coordinates": [ [ [ 134.049671597064986, 35.402125965475619 ], [ 134.049614607186498, 35.401474562153986 ], [ 134.049445367697643, 35.400842951509716 ], [ 134.049169020425978, 35.400250324405143 ], [ 134.048793964205601, 35.399714687677921 ], [ 134.048331593034817, 35.399252316590918 ], [ 134.047795955792054, 35.3988772597964 ], [ 134.047203328670832, 35.398600913269284 ], [ 134.046571718011165, 35.398431673712018 ], [ 134.045920314519122, 35.398374683334659 ], [ 134.045268912131917, 35.398431673712018 ], [ 134.044637300367441, 35.398600913269284 ], [ 134.044044674351028, 35.3988772597964 ], [ 134.043509037108265, 35.399252316590918 ], [ 134.043046665937482, 35.399714687677921 ], [ 134.042671609717104, 35.400250324405143 ], [ 134.042395262445439, 35.400842951509716 ], [ 134.042226022956555, 35.401474562153986 ], [ 134.042169033078096, 35.402125965475619 ], [ 134.042226022956555, 35.402777368797253 ], [ 134.042395262445439, 35.403408979441522 ], [ 134.042671609717104, 35.404001606546096 ], [ 134.043046665937482, 35.404537243273317 ], [ 134.043509037108265, 35.404999614360321 ], [ 134.044044674351028, 35.405374671154838 ], [ 134.044637300367441, 35.405651017681954 ], [ 134.045268912131917, 35.40582025723922 ], [ 134.045920314519122, 35.40587724761658 ], [ 134.046571718011165, 35.40582025723922 ], [ 134.047203328670832, 35.405651017681954 ], [ 134.047795955792054, 35.405374671154838 ], [ 134.048331593034817, 35.404999614360321 ], [ 134.048793964205601, 35.404537243273317 ], [ 134.049169020425978, 35.404001606546096 ], [ 134.049445367697643, 35.403408979441522 ], [ 134.049614607186498, 35.402777368797253 ], [ 134.049671597064986, 35.402125965475619 ] ] ] } },
{ "type": "Feature", "properties": { "P12_001": 10132, "P12_002": "安徳の里　姫路公園", "P12_003": "31", "P12_004": "31329", "P12_005": "‐", "P12_006": "八頭町姫路12", "P12_007": 4 }, "geometry": { "type": "Polygon", "coordinates": [ [ [ 134.383152499612351, 35.427654639156053 ], [ 134.383199472096948, 35.427746277834338 ], [ 134.383292024994233, 35.428011041785396 ], [ 134.383333333071818, 35.428155611127828 ], [ 134.38339455551187, 35.42835755595322 ], [ 134.383465471633855, 35.428499305972565 ], [ 134.383580417002605, 35.428630416924562 ], [ 134.383984194097735, 35.428885528028708 ], [ 134.384298818928443, 35.429019250696868 ], [ 134.384748194113314, 35.429075943842726 ], [ 134.38493755567066, 35.42912175005327 ], [ 134.385164917477482, 35.42921377803831 ], [ 134.385385556460704, 35.429260083135652 ], [ 134.38567927811593, 35.429268806127588 ], [ 134.385848582789151, 35.42932569392682 ], [ 134.385975472356108, 35.429354388845269 ], [ 134.386998750189804, 35.429225943874307 ], [ 134.38712130555183, 35.429029389126931 ], [ 134.386955782674079, 35.428693586146224 ], [ 134.386478746135907, 35.428518265071347 ], [ 134.385977245590595, 35.428542728379441 ], [ 134.385553212743957, 35.428624273089859 ], [ 134.385284114189744, 35.428599809781765 ], [ 134.384941626928679, 35.428448952014982 ], [ 134.384807077651573, 35.428285862244053 ], [ 134.384452357834505, 35.427906678867984 ], [ 134.384289267768196, 35.427523418273907 ], [ 134.383979398078452, 35.427319556322821 ], [ 134.383339271473943, 35.427441873563488 ], [ 134.383152499612351, 35.427654639156053 ] ] ] } },
{ "type": "Feature", "properties": { "P12_001": 10130, "P12_002": "船岡竹林公園", "P12_003": "31", "P12_004": "31329", "P12_005": "‐", "P12_006": "八頭町西谷564-1", "P12_007": 1 }, "geometry": { "type": "Polygon", "coordinates": [ [ [ 134.268109354370864, 35.372556794648432 ], [ 134.268087668983526, 35.372308929831298 ], [ 134.268023271293657, 35.372068596279313 ], [ 134.267918119040502, 35.371843096294853 ], [ 134.267775407360631, 35.371639281606726 ], [ 134.267599470458975, 35.371463345413169 ], [ 134.267395655659499, 35.371320632979923 ], [ 134.267170156577492, 35.371215480596035 ], [ 134.266929823090805, 35.371151083237606 ], [ 134.26668195805297, 35.371129397941267 ], [ 134.266434093015135, 35.371151083237606 ], [ 134.26619375952842, 35.371215480596035 ], [ 134.265968259341605, 35.371320632979923 ], [ 134.265764445646937, 35.371463345413169 ], [ 134.265588508745282, 35.371639281606726 ], [ 134.265445795960602, 35.371843096294853 ], [ 134.265340643707475, 35.372068596279313 ], [ 134.265276247122415, 35.372308929831298 ], [ 134.265254561735077, 35.372556794648432 ], [ 134.265276247122415, 35.372804659115474 ], [ 134.265340643707475, 35.373044992667459 ], [ 134.265445795960602, 35.373270492651926 ], [ 134.265588508745282, 35.373474307340054 ], [ 134.265764445646937, 35.373650243533604 ], [ 134.265968259341605, 35.373792955966849 ], [ 134.26619375952842, 35.373898108350737 ], [ 134.266434093015135, 35.373962505709173 ], [ 134.26668195805297, 35.373984191005505 ], [ 134.266929823090805, 35.373962505709173 ], [ 134.267170156577492, 35.373898108350737 ], [ 134.267395655659499, 35.373792955966849 ], [ 134.267599470458975, 35.373650243533604 ], [ 134.267775407360631, 35.373474307340054 ], [ 134.267918119040502, 35.373270492651926 ], [ 134.268023271293657, 35.373044992667459 ], [ 134.268087668983526, 35.372804659115474 ], [ 134.268109354370864, 35.372556794648432 ] ] ] } },
{ "type": "Feature", "properties": { "P12_001": 10059, "P12_002": "伯耆古代の丘公園", "P12_003": "31", "P12_004": "31202", "P12_005": "‐", "P12_006": "米子市淀江町福岡1529", "P12_007": 2 }, "geometry": { "type": "Polygon", "coordinates": [ [ [ 133.437547201306415, 35.453651706274883 ], [ 133.438962003792511, 35.454984963568037 ], [ 133.439532817367422, 35.455543545587091 ], [ 133.439830455606028, 35.455649553605603 ], [ 133.440005777123503, 35.455812643376532 ], [ 133.4415143555415, 35.455812643376532 ], [ 133.44243988893345, 35.45578817971834 ], [ 133.442533665970188, 35.455706635007921 ], [ 133.442643751240155, 35.455364146944099 ], [ 133.442643751240155, 35.45503796775234 ], [ 133.442655982691292, 35.454903418857619 ], [ 133.442696754931688, 35.454809642143061 ], [ 133.442672292029386, 35.454577239665859 ], [ 133.442533665970188, 35.454401918240883 ], [ 133.44230534076118, 35.454263292128147 ], [ 133.441461351849966, 35.453790332387619 ], [ 133.441339034024026, 35.453570161214373 ], [ 133.441000623545051, 35.453301063424931 ], [ 133.440307493249037, 35.4529055711768 ], [ 133.439912000086764, 35.452695593398694 ], [ 133.439842687057165, 35.452724133924804 ], [ 133.439720370336033, 35.452846451165478 ], [ 133.439655134088554, 35.4530340042445 ], [ 133.439801914816798, 35.453307179251958 ], [ 133.439952773431969, 35.453400955966515 ], [ 133.439965004883106, 35.453482500676934 ], [ 133.438945694454446, 35.453498809548996 ], [ 133.438607283975472, 35.453307179251958 ], [ 133.438199559362062, 35.453213402887492 ], [ 133.437804067304626, 35.453225634541539 ], [ 133.43762874578718, 35.453335720128166 ], [ 133.437506429066048, 35.45347026902288 ], [ 133.437547201306415, 35.453651706274883 ] ] ] } },
{ "type": "Feature", "properties": { "P12_001": 10058, "P12_002": "森林公園「とっとり出合いの森」", "P12_003": "31", "P12_004": "31201", "P12_005": "‐", "P12_006": "鳥取市桂見293", "P12_007": 4 }, "geometry": { "type": "Polygon", "coordinates": [ [ [ 134.174645178085626, 35.491425248376835 ], [ 134.174592514678352, 35.490823300316357 ], [ 134.174436124234461, 35.490239641971108 ], [ 134.174180758580434, 35.489692007804067 ], [ 134.173834175755303, 35.489197037177924 ], [ 134.173406909103448, 35.488769769866735 ], [ 134.172911938038425, 35.488423187780292 ], [ 134.172364303566155, 35.488167821806258 ], [ 134.171780645365544, 35.488011430772197 ], [ 134.171178696886415, 35.487958767231298 ], [ 134.170576749512094, 35.488011430772197 ], [ 134.169993091311511, 35.488167821806258 ], [ 134.169445456839213, 35.488423187780292 ], [ 134.168950485774218, 35.488769769866735 ], [ 134.168523219122335, 35.489197037177924 ], [ 134.168176636297204, 35.489692007804067 ], [ 134.167921270643205, 35.490239641971108 ], [ 134.167764880199286, 35.490823300316357 ], [ 134.167712215687203, 35.491425248376835 ], [ 134.167764880199286, 35.492027196787411 ], [ 134.167921270643205, 35.492610854782562 ], [ 134.168176636297204, 35.493158488949604 ], [ 134.168523219122335, 35.493653459575746 ], [ 134.168950485774218, 35.494080727237026 ], [ 134.169445456839213, 35.494427309323477 ], [ 134.169993091311511, 35.494682675297504 ], [ 134.170576749512094, 35.494839065981473 ], [ 134.171178696886415, 35.494891729522372 ], [ 134.171780645365544, 35.494839065981473 ], [ 134.172364303566155, 35.494682675297504 ], [ 134.172911938038425, 35.494427309323477 ], [ 134.173406909103448, 35.494080727237026 ], [ 134.173834175755303, 35.493653459575746 ], [ 134.174180758580434, 35.493158488949604 ], [ 134.174436124234461, 35.492610854782562 ], [ 134.174592514678352, 35.492027196787411 ], [ 134.174645178085626, 35.491425248376835 ] ] ] } },
{ "type": "Feature", "properties": { "P12_001": 10061, "P12_002": "米子水鳥公園", "P12_003": "31", "P12_004": "31202", "P12_005": "‐", "P12_006": "米子市彦名新田665", "P12_007": 2 }, "geometry": { "type": "Polygon", "coordinates": [ [ [ 133.282302466855413, 35.44286909396935 ], [ 133.28358272006443, 35.445502990811519 ], [ 133.283802890604392, 35.445698698326581 ], [ 133.284071989158576, 35.445666080232357 ], [ 133.284561257147914, 35.445372519134821 ], [ 133.2852380792107, 35.445070803251156 ], [ 133.288532489269926, 35.443660078465605 ], [ 133.29208784210951, 35.442241198893925 ], [ 133.29249556672292, 35.442029182506801 ], [ 133.292821745750729, 35.441588840510406 ], [ 133.293694274346336, 35.440447213164198 ], [ 133.293800282834212, 35.440072107356244 ], [ 133.293669811444062, 35.439664383454065 ], [ 133.293343632416224, 35.4393626675704 ], [ 133.29287882732919, 35.439175114491377 ], [ 133.29249556672292, 35.439199577799478 ], [ 133.282302466855413, 35.44286909396935 ] ] ] } },
{ "type": "Feature", "properties": { "P12_001": 10172, "P12_002": "大山スポーツ公園", "P12_003": "31", "P12_004": "31386", "P12_005": "‐", "P12_006": "大山町大山145-2", "P12_007": 4 }, "geometry": { "type": "Polygon", "coordinates": [ [ [ 133.541600830170552, 35.399071196875987 ], [ 133.541519884501696, 35.398145985573329 ], [ 133.541279506822235, 35.397248886279286 ], [ 133.540887002195376, 35.396407157118304 ], [ 133.540354296037407, 35.395646373653491 ], [ 133.539697573946711, 35.394989651323328 ], [ 133.538936790059211, 35.394456944899638 ], [ 133.538095061607692, 35.394064440370769 ], [ 133.537197961837506, 35.393824063406882 ], [ 133.536272751052707, 35.39374311771072 ], [ 133.53534753916307, 35.393824063406882 ], [ 133.534450440497722, 35.394064440370769 ], [ 133.533608710941394, 35.394456944899638 ], [ 133.532847928158702, 35.394989651323328 ], [ 133.532191206068006, 35.395646373653491 ], [ 133.531658498805228, 35.396407157118304 ], [ 133.531265994178369, 35.397248886279286 ], [ 133.531025617603717, 35.398145985573329 ], [ 133.530944671934861, 35.399071196875987 ], [ 133.531025617603717, 35.399996407828546 ], [ 133.531265994178369, 35.400893507122596 ], [ 133.531658498805228, 35.401735236283571 ], [ 133.532191206068006, 35.402496019748384 ], [ 133.532847928158702, 35.403152742078547 ], [ 133.533608710941394, 35.403685448502245 ], [ 133.534450440497722, 35.404077953031106 ], [ 133.53534753916307, 35.404318330345092 ], [ 133.536272751052707, 35.404399275691155 ], [ 133.537197961837506, 35.404318330345092 ], [ 133.538095061607692, 35.404077953031106 ], [ 133.538936790059211, 35.403685448502245 ], [ 133.539697573946711, 35.403152742078547 ], [ 133.540354296037407, 35.402496019748384 ], [ 133.540887002195376, 35.401735236283571 ], [ 133.541279506822235, 35.400893507122596 ], [ 133.541519884501696, 35.399996407828546 ], [ 133.541600830170552, 35.399071196875987 ] ] ] } }
]
}
