{
"type": "FeatureCollection",
"crs": { "type": "name", "properties": { "name": "urn:ogc:def:crs:EPSG::4612" } },
"features": [
{ "type": "Feature", "properties": { "P12_001": 10001, "P12_002": "磯庭園（仙巌園）", "P12_003": "46", "P12_004": "46201", "P12_005": "庭園・公園", "P12_006": "鹿児島市吉野町", "P12_007": -1 }, "geometry": { "type": "MultiPoint", "coordinates": [ [ 130.578902001826009, 31.618242001167459 ] ] } },
{ "type": "Feature", "properties": { "P12_001": 10002, "P12_002": "桜島", "P12_003": "46", "P12_004": "46201", "P12_005": "山岳", "P12_006": "鹿児島市", "P12_007": -1 }, "geometry": { "type": "MultiPoint", "coordinates": [ [ 130.656643968944081, 31.592595364384636 ] ] } },
{ "type": "Feature", "properties": { "P12_001": 10003, "P12_002": "出水のツル", "P12_003": "46", "P12_004": "46208", "P12_005": "動物", "P12_006": "出水市", "P12_007": -1 }, "geometry": { "type": "MultiPoint", "coordinates": [ [ 130.273296629735682, 32.101027000395788 ] ] } },
{ "type": "Feature", "properties": { "P12_001": 10004, "P12_002": "指宿温泉郷（指宿、山川伏目海岸）の砂蒸し風呂群", "P12_003": "46", "P12_004": "46210", "P12_005": "温泉", "P12_006": "指宿市", "P12_007": -1 }, "geometry": { "type": "MultiPoint", "coordinates": [ [ 130.655067999688526, 31.223111999918899 ] ] } },
{ "type": "Feature", "properties": { "P12_001": 10005, "P12_002": "霧島温泉郷の噴煙地帯と温浴場群", "P12_003": "46", "P12_004": "46218", "P12_005": "温泉", "P12_006": "霧島市", "P12_007": -1 }, "geometry": { "type": "MultiPoint", "coordinates": [ [ 130.833096001379431, 31.886510997784399 ] ] } },
{ "type": "Feature", "properties": { "P12_001": 10006, "P12_002": "霧島のミヤマキリシマ", "P12_003": "46", "P12_004": "46218", "P12_005": "植物", "P12_006": "霧島市", "P12_007": -1 }, "geometry": { "type": "MultiPoint", "coordinates": [ [ 130.890291220663357, 31.901593867762813 ] ] } },
{ "type": "Feature", "properties": { "P12_001": 10007, "P12_002": "知覧武家屋敷", "P12_003": "46", "P12_004": "46223", "P12_005": "集落・街", "P12_006": "南九州市", "P12_007": -1 }, "geometry": { "type": "MultiPoint", "coordinates": [ [ 130.445469541286343, 31.378411900488857 ] ] } },
{ "type": "Feature", "properties": { "P12_001": 10008, "P12_002": "屋久島の森", "P12_003": "46", "P12_004": "46505", "P12_005": "植物", "P12_006": "屋久島町", "P12_007": -1 }, "geometry": { "type": "MultiPoint", "coordinates": [ [ 130.570673899381063, 30.305836179895834 ] ] } },
{ "type": "Feature", "properties": { "P12_001": 10009, "P12_002": "永田いなか浜のウミガメ", "P12_003": "46", "P12_004": "46505", "P12_005": "動物", "P12_006": "屋久島町", "P12_007": -1 }, "geometry": { "type": "MultiPoint", "coordinates": [ [ 130.431281001217258, 30.405846999439518 ] ] } },
{ "type": "Feature", "properties": { "P12_001": 10010, "P12_002": "宮之浦岳", "P12_003": "46", "P12_004": "46505", "P12_005": "山岳", "P12_006": "屋久島町", "P12_007": -1 }, "geometry": { "type": "MultiPoint", "coordinates": [ [ 130.504186599631907, 30.336054913303656 ] ] } },
{ "type": "Feature", "properties": { "P12_001": 10011, "P12_002": "大金久海岸・百合ケ浜", "P12_003": "46", "P12_004": "46535", "P12_005": "海岸・岬", "P12_006": "与論町", "P12_007": -1 }, "geometry": { "type": "MultiPoint", "coordinates": [ [ 128.453318000725176, 27.043952999931037 ] ] } },
{ "type": "Feature", "properties": { "P12_001": 10011, "P12_002": "大金久海岸・百合ケ浜", "P12_003": "46", "P12_004": "46535", "P12_005": "海岸・岬", "P12_006": "与論町", "P12_007": -1 }, "geometry": { "type": "Polygon", "coordinates": [ [ [ 128.453527003534248, 27.045599222824105 ], [ 128.453702831271187, 27.046377844586107 ], [ 128.454180039083951, 27.046654129083798 ], [ 128.454908429376445, 27.046804834304968 ], [ 128.458048054797501, 27.046453192146171 ], [ 128.460182969724514, 27.045850391463567 ], [ 128.462016504587126, 27.044996412011226 ], [ 128.463197003900007, 27.043640095294574 ], [ 128.463824940657389, 27.042107967614179 ], [ 128.464302167929162, 27.041279104020067 ], [ 128.464377503212916, 27.04075165089753 ], [ 128.46400074894666, 27.040224192702546 ], [ 128.463021195622105, 27.038616712418875 ], [ 128.461338370245073, 27.036808295182961 ], [ 128.457872227060534, 27.033543092768891 ], [ 128.456314992929066, 27.032312360357352 ], [ 128.455461011391009, 27.032186776037623 ], [ 128.454883330584096, 27.032337481273409 ], [ 128.45450657631784, 27.032990518715678 ], [ 128.454104703788829, 27.033869614011632 ], [ 128.453125131016606, 27.038666944120713 ], [ 128.453024677470125, 27.041178640616391 ], [ 128.453049795721483, 27.044192674405615 ], [ 128.453527003534248, 27.045599222824105 ] ] ] } },
{ "type": "Feature", "properties": { "P12_001": 10001, "P12_002": "磯庭園（仙巌園）", "P12_003": "46", "P12_004": "46201", "P12_005": "庭園・公園", "P12_006": "鹿児島市", "P12_007": -1 }, "geometry": { "type": "Polygon", "coordinates": [ [ [ 130.58282893, 31.61919136 ], [ 130.58259929, 31.61908002 ], [ 130.58227222, 31.61885037 ], [ 130.58167375, 31.61848851 ], [ 130.58124235, 31.61834218 ], [ 130.58080308000001, 31.61822344 ], [ 130.579509519999988, 31.61802922 ], [ 130.57856311, 31.61793179 ], [ 130.5779368, 31.61779957 ], [ 130.57767236, 31.61773694 ], [ 130.577400970000014, 31.61759776 ], [ 130.57699735, 31.61725678 ], [ 130.57682337, 31.61716631 ], [ 130.576384960000013, 31.61688795 ], [ 130.57598134, 31.61674877 ], [ 130.575751700000012, 31.61736812 ], [ 130.57575866, 31.61747946 ], [ 130.57574474, 31.61764648 ], [ 130.57566123, 31.61785524 ], [ 130.575459419999987, 31.61805009 ], [ 130.57526457, 31.61819623 ], [ 130.57516969, 31.61831088 ], [ 130.57504885, 31.61830062 ], [ 130.57480528, 31.61845371 ], [ 130.574680019999988, 31.61863464 ], [ 130.574854, 31.6186764 ], [ 130.575097559999989, 31.61865552 ], [ 130.57553597, 31.61846763 ], [ 130.57595351, 31.61825886 ], [ 130.57658677, 31.61842588 ], [ 130.577073899999988, 31.61824494 ], [ 130.57730354, 31.61811272 ], [ 130.57771412, 31.61805009 ], [ 130.57819428, 31.61796659 ], [ 130.57876492, 31.6182867 ], [ 130.57919637, 31.61861377 ], [ 130.57966958, 31.61917744 ], [ 130.580010570000013, 31.61956018 ], [ 130.58011495, 31.61958802 ], [ 130.580275, 31.61960194 ], [ 130.58044202, 31.61962977 ], [ 130.58090827, 31.61950451 ], [ 130.58118663, 31.61937925 ], [ 130.58152761, 31.61924007 ], [ 130.58193123, 31.6191844 ], [ 130.58282893, 31.61919136 ] ] ] } }
]
}
