{
"type": "FeatureCollection",
"crs": { "type": "name", "properties": { "name": "urn:ogc:def:crs:EPSG::4612" } },
"features": [
{ "type": "Feature", "properties": { "P12_001": 10002, "P12_002": "熱田神宮", "P12_003": "23", "P12_004": "23109", "P12_005": "神社・寺院・教会", "P12_006": "名古屋市熱田区神宮1-1-1", "P12_007": -1 }, "geometry": { "type": "Point", "coordinates": [ 136.909413789229603, 35.124899856062285 ] } },
{ "type": "Feature", "properties": { "P12_001": 10001, "P12_002": "名古屋城", "P12_003": "23", "P12_004": "23106", "P12_005": "城跡・城郭・宮殿", "P12_006": "名古屋市中区本丸1", "P12_007": -1 }, "geometry": { "type": "Point", "coordinates": [ 136.899713840212229, 35.185368541517455 ] } },
{ "type": "Feature", "properties": { "P12_001": 10003, "P12_002": "尾張津島天王祭り（津島祭り）", "P12_003": "23", "P12_004": "23208", "P12_005": "年中行事", "P12_006": "津島市神明町1", "P12_007": -1 }, "geometry": { "type": "Point", "coordinates": [ 136.718698419878564, 35.178386860081069 ] } },
{ "type": "Feature", "properties": { "P12_001": 10004, "P12_002": "博物館明治村", "P12_003": "23", "P12_004": "23215", "P12_005": "テーマ・公園テーマ施設", "P12_006": "犬山市内山1", "P12_007": -1 }, "geometry": { "type": "Point", "coordinates": [ 136.989968110011347, 35.340575669997776 ] } },
{ "type": "Feature", "properties": { "P12_001": 10002, "P12_002": "熱田神宮", "P12_003": "23", "P12_004": "23109", "P12_005": "神社・寺院・教会", "P12_006": "名古屋市熱田区神宮1-1-1", "P12_007": -1 }, "geometry": { "type": "Polygon", "coordinates": [ [ [ 136.907193832971586, 35.128164972342866 ], [ 136.908333333057612, 35.128696722159845 ], [ 136.908976657624578, 35.128667283169037 ], [ 136.909018893202131, 35.128557470938709 ], [ 136.909437666847964, 35.128667249687325 ], [ 136.909574805792261, 35.128360332780247 ], [ 136.909993777732382, 35.127616000093411 ], [ 136.910205417318792, 35.127228639075994 ], [ 136.910451278359659, 35.126753443667297 ], [ 136.910706943623182, 35.126259361311945 ], [ 136.911155138890479, 35.125284667110563 ], [ 136.911190582960529, 35.125208221770336 ], [ 136.911280110851294, 35.125000000197929 ], [ 136.911346860774501, 35.124775388718994 ], [ 136.91135236103662, 35.124733861002603 ], [ 136.911372167238, 35.124578221989957 ], [ 136.911378583028636, 35.124488888628967 ], [ 136.911380082880328, 35.124357722093706 ], [ 136.911360527874535, 35.124160555974072 ], [ 136.911351999980383, 35.124117166939861 ], [ 136.911343778071142, 35.124075221992605 ], [ 136.911321638951307, 35.123964389036139 ], [ 136.911214693660639, 35.123429082916658 ], [ 136.910182388702452, 35.123592027824863 ], [ 136.909818472259332, 35.123478306049243 ], [ 136.909750083046191, 35.123456971998237 ], [ 136.90974924970601, 35.123297416808477 ], [ 136.909679777862323, 35.123029471930899 ], [ 136.909512028333751, 35.122776416807163 ], [ 136.909344833268875, 35.122456221928523 ], [ 136.90930736064206, 35.122340499710333 ], [ 136.909308471765115, 35.122330583137575 ], [ 136.909276166828164, 35.122317527887496 ], [ 136.908624693860133, 35.122544666877069 ], [ 136.908509056281531, 35.122585000042044 ], [ 136.907555860834407, 35.122917306015211 ], [ 136.907543749733861, 35.122934055581261 ], [ 136.907548694165342, 35.123245777759003 ], [ 136.907556555829927, 35.123359388837073 ], [ 136.907512028291336, 35.12463169425267 ], [ 136.907501000103281, 35.124824916664195 ], [ 136.907500638773598, 35.124832055939855 ], [ 136.907481138839159, 35.125000000197929 ], [ 136.907472111526943, 35.125077722037311 ], [ 136.907472111526943, 35.125077999964184 ], [ 136.90745888931184, 35.125167666959307 ], [ 136.907401806343103, 35.125555082967026 ], [ 136.907305389019371, 35.126099250017511 ], [ 136.907293028355042, 35.126154305671164 ], [ 136.907253055707685, 35.126340638557643 ], [ 136.907240471793529, 35.12639975012258 ], [ 136.907027416722372, 35.127394139025839 ], [ 136.906987221910214, 35.127579111027778 ], [ 136.90697183252027, 35.127650305941152 ], [ 136.906952028215557, 35.127741832999412 ], [ 136.907193832971586, 35.128164972342866 ] ] ] } },
{ "type": "Feature", "properties": { "P12_001": 10001, "P12_002": "名古屋城", "P12_003": "23", "P12_004": "23106", "P12_005": "城跡・城郭・宮殿", "P12_006": "名古屋市中区本丸1", "P12_007": -1 }, "geometry": { "type": "Polygon", "coordinates": [ [ [ 136.904975694005401, 35.182335361124899 ], [ 136.904864832944583, 35.182184333016927 ], [ 136.904627778119021, 35.182124417102308 ], [ 136.904091555906234, 35.182007416915205 ], [ 136.903922361050491, 35.181977916911691 ], [ 136.903797332933351, 35.181962332896305 ], [ 136.90365913903085, 35.181948500325667 ], [ 136.902793360985697, 35.181888028306361 ], [ 136.90043438894017, 35.181717082775037 ], [ 136.900403693980422, 35.181731444098588 ], [ 136.900298361118956, 35.182819972063676 ], [ 136.900298806003889, 35.182819972063676 ], [ 136.900281222040149, 35.182889722029756 ], [ 136.900260443880569, 35.183105472183364 ], [ 136.900046277968272, 35.183224444206594 ], [ 136.898347167073325, 35.183116472179812 ], [ 136.898077805960924, 35.183052332909512 ], [ 136.897635389003511, 35.18303494425146 ], [ 136.896866500019172, 35.182989528104038 ], [ 136.896423555988463, 35.182959056055495 ], [ 136.896197111061923, 35.18294233272993 ], [ 136.896057249932284, 35.182931000174783 ], [ 136.895970749955524, 35.182924056089604 ], [ 136.895910056116549, 35.182950610885598 ], [ 136.895848139123785, 35.183081166935288 ], [ 136.895846471905202, 35.183090806226431 ], [ 136.895848082975988, 35.1830983887942 ], [ 136.895861556113289, 35.183108778269229 ], [ 136.895876555962985, 35.183117028284492 ], [ 136.895895861131606, 35.183122556208041 ], [ 136.895919360929724, 35.183126138966109 ], [ 136.895956332523809, 35.183333333431491 ], [ 136.895940556301895, 35.183487111341414 ], [ 136.895889972414238, 35.184075028340303 ], [ 136.895869722412954, 35.184455389350198 ], [ 136.89586719363507, 35.184620166790552 ], [ 136.895903082590053, 35.184659805837377 ], [ 136.896201556357312, 35.184716832502673 ], [ 136.896294806328825, 35.184734693632819 ], [ 136.896245443963153, 35.185124471857641 ], [ 136.896171000015642, 35.185683638857661 ], [ 136.896121528054124, 35.186068360985772 ], [ 136.896106416985333, 35.186187749809697 ], [ 136.896093667054146, 35.186285999773098 ], [ 136.896049944106892, 35.186624750079282 ], [ 136.896003277886024, 35.186990722198779 ], [ 136.895984000116357, 35.187144000320686 ], [ 136.896063917191896, 35.187210805760358 ], [ 136.896063916927062, 35.187210806154681 ], [ 136.896063917465284, 35.187210806154681 ], [ 136.896309167065965, 35.187231722329564 ], [ 136.89670455592605, 35.187268028189699 ], [ 136.897122583042062, 35.187304388896742 ], [ 136.897581639122023, 35.187345443710868 ], [ 136.897828306104117, 35.18736644369757 ], [ 136.897941583091921, 35.187374999600877 ], [ 136.89805280602917, 35.187382443689152 ], [ 136.898162583101026, 35.187389639066389 ], [ 136.898352499968553, 35.187399777715378 ], [ 136.898609416869874, 35.18741188906084 ], [ 136.898972582981344, 35.187430111141033 ], [ 136.899369805888682, 35.187449082974936 ], [ 136.89946918194974, 35.187454493138937 ], [ 136.899999999937762, 35.187483389037759 ], [ 136.900158610935023, 35.187492027713304 ], [ 136.900210750019113, 35.18749366699074 ], [ 136.90028025008192, 35.187495083152363 ], [ 136.900343528034938, 35.187492693655194 ], [ 136.900428083010212, 35.187490555629331 ], [ 136.900492972025489, 35.187486805641953 ], [ 136.900592833108817, 35.18747847181487 ], [ 136.900753194076884, 35.187457805641536 ], [ 136.900895943955646, 35.187425499770335 ], [ 136.901065832986717, 35.187381527745707 ], [ 136.901176943893233, 35.187351555700268 ], [ 136.901210138873495, 35.187340917048182 ], [ 136.901322389105133, 35.187304750241104 ], [ 136.901503194020165, 35.187246000271472 ], [ 136.901682611131321, 35.18717861101689 ], [ 136.901844805873225, 35.187110806216282 ], [ 136.90201852794786, 35.187036110851054 ], [ 136.902254611080025, 35.186934028128029 ], [ 136.902603027999135, 35.186795778167763 ], [ 136.902732638936129, 35.186745500038683 ], [ 136.902849860998231, 35.186699693940461 ], [ 136.902931528036021, 35.186671305931213 ], [ 136.90302066692476, 35.186643443986313 ], [ 136.903094083031107, 35.186623611199266 ], [ 136.903443194125543, 35.186543221935842 ], [ 136.90356138896604, 35.186523556019637 ], [ 136.903523082999044, 35.186383027905016 ], [ 136.903757582997599, 35.186332167215689 ], [ 136.903980500071015, 35.186288389055179 ], [ 136.904148306029299, 35.186282361128534 ], [ 136.904168694101855, 35.186296471841132 ], [ 136.904177916991557, 35.186327389260939 ], [ 136.904201028069593, 35.18645149993803 ], [ 136.904276471912567, 35.186445527862034 ], [ 136.90431094402436, 35.186442721994347 ], [ 136.904372999908588, 35.186408777885298 ], [ 136.904542722111017, 35.184671889042427 ], [ 136.904567528080008, 35.184501916846642 ], [ 136.904674027947493, 35.183928111384844 ], [ 136.90471272209632, 35.183707333095704 ], [ 136.904786778126862, 35.183333333001322 ], [ 136.90486852790832, 35.182920082735478 ], [ 136.904885056085135, 35.182829972053931 ], [ 136.904935472059151, 35.182555055990349 ], [ 136.904956917003631, 35.182437917180366 ], [ 136.904975694005401, 35.182335361124899 ] ] ] } }
]
}
