{
"type": "FeatureCollection",
"crs": { "type": "name", "properties": { "name": "urn:ogc:def:crs:EPSG::4612" } },
"features": [
{ "type": "Feature", "properties": { "P12_001": 10034, "P12_002": "南島", "P12_003": "13", "P12_004": "13421", "P12_005": "海岸・岬", "P12_006": "小笠原村南島", "P12_007": -1 }, "geometry": { "type": "Point", "coordinates": [ 142.175460418424194, 27.03785670484675 ] } },
{ "type": "Feature", "properties": { "P12_001": 10032, "P12_002": "三原山溶岩群", "P12_003": "13", "P12_004": "13361", "P12_005": "岩石・洞窟", "P12_006": "大島町", "P12_007": -1 }, "geometry": { "type": "Point", "coordinates": [ 139.381705306298642, 34.737855699876953 ] } },
{ "type": "Feature", "properties": { "P12_001": 10035, "P12_002": "小笠原のクジラ", "P12_003": "13", "P12_004": "13421", "P12_005": "動物", "P12_006": "小笠原村", "P12_007": -1 }, "geometry": { "type": "Point", "coordinates": [ 142.185525230576246, 27.101061872628367 ] } },
{ "type": "Feature", "properties": { "P12_001": 10033, "P12_002": "御蔵島のイルカ", "P12_003": "13", "P12_004": "13382", "P12_005": "動物", "P12_006": "御蔵島村", "P12_007": -1 }, "geometry": { "type": "Point", "coordinates": [ 139.594497702982295, 33.898130001041196 ] } },
{ "type": "Feature", "properties": { "P12_001": 10001, "P12_002": "千鳥ヶ淵・牛ヶ淵のサクラ", "P12_003": "13", "P12_004": "13101", "P12_005": "植物", "P12_006": "千代田区", "P12_007": -1 }, "geometry": { "type": "Point", "coordinates": [ 139.750220401383928, 35.69244572970171 ] } },
{ "type": "Feature", "properties": { "P12_001": 10028, "P12_002": "明治神宮", "P12_003": "13", "P12_004": "13113", "P12_005": "神社・寺院・教会", "P12_006": "渋谷区代々木神園町1-1", "P12_007": -1 }, "geometry": { "type": "Point", "coordinates": [ 139.699423688458324, 35.675979485692729 ] } },
{ "type": "Feature", "properties": { "P12_001": 10019, "P12_002": "浅草寺", "P12_003": "13", "P12_004": "13106", "P12_005": "神社・寺院・教会", "P12_006": "台東区浅草2-3-1", "P12_007": -1 }, "geometry": { "type": "Point", "coordinates": [ 139.796748199018083, 35.714661402802051 ] } },
{ "type": "Feature", "properties": { "P12_001": 10002, "P12_002": "江戸城跡", "P12_003": "13", "P12_004": "13101", "P12_005": "城跡・城郭・宮殿", "P12_006": "千代田区千代田", "P12_007": -1 }, "geometry": { "type": "Point", "coordinates": [ 139.753620448967524, 35.684854561679828 ] } },
{ "type": "Feature", "properties": { "P12_001": 10029, "P12_002": "原宿", "P12_003": "13", "P12_004": "13113", "P12_005": "集落・街", "P12_006": "渋谷区神宮前", "P12_007": -1 }, "geometry": { "type": "Point", "coordinates": [ 139.706963201124466, 35.667793175862101 ] } },
{ "type": "Feature", "properties": { "P12_001": 10008, "P12_002": "銀座通り", "P12_003": "13", "P12_004": "13102", "P12_005": "銀座通り", "P12_006": "中央区銀座", "P12_007": -1 }, "geometry": { "type": "Point", "coordinates": [ 139.765104098688795, 35.671220460700418 ] } },
{ "type": "Feature", "properties": { "P12_001": 10009, "P12_002": "築地市場", "P12_003": "13", "P12_004": "13102", "P12_005": "郷土景観", "P12_006": "中央区", "P12_007": -1 }, "geometry": { "type": "Point", "coordinates": [ 139.770632999391495, 35.665458001461083 ] } },
{ "type": "Feature", "properties": { "P12_001": 10036, "P12_002": "小笠原の見送り", "P12_003": "13", "P12_004": "13421", "P12_005": "郷土景観", "P12_006": "小笠原村", "P12_007": -1 }, "geometry": { "type": "Point", "coordinates": [ 142.196635783779186, 27.094949847766927 ] } },
{ "type": "Feature", "properties": { "P12_001": 10013, "P12_002": "隅田川橋梁群", "P12_003": "13", "P12_004": "13102、13106、13107、13108、13118", "P12_005": "隅田川橋梁群", "P12_006": "中央区　および　台東区　および　墨田区　および　江東区　および　荒川区", "P12_007": -1 }, "geometry": { "type": "Point", "coordinates": [ 139.793483000680112, 35.700875002744603 ] } },
{ "type": "Feature", "properties": { "P12_001": 10016, "P12_002": "新宿御苑", "P12_003": "13", "P12_004": "13104", "P12_005": "庭園・公園", "P12_006": "新宿区", "P12_007": -1 }, "geometry": { "type": "Point", "coordinates": [ 139.71005110950972, 35.68529309864546 ] } },
{ "type": "Feature", "properties": { "P12_001": 10010, "P12_002": "浜離宮恩賜庭園", "P12_003": "13", "P12_004": "13102", "P12_005": "庭園・公園", "P12_006": "中央区浜離宮庭園1-1-1", "P12_007": -1 }, "geometry": { "type": "Point", "coordinates": [ 139.764078079040985, 35.660010982919331 ] } },
{ "type": "Feature", "properties": { "P12_001": 10026, "P12_002": "東京スカイツリー", "P12_003": "13", "P12_004": "13107", "P12_005": "建造物", "P12_006": "墨田区押上1-1-2", "P12_007": -1 }, "geometry": { "type": "Point", "coordinates": [ 139.810703999522531, 35.710064998570608 ] } },
{ "type": "Feature", "properties": { "P12_001": 10014, "P12_002": "東京タワー", "P12_003": "13", "P12_004": "13103", "P12_005": "建造物", "P12_006": "港区芝公園4-4-2-8", "P12_007": -1 }, "geometry": { "type": "Point", "coordinates": [ 139.745432998413833, 35.658581000137303 ] } },
{ "type": "Feature", "properties": { "P12_001": 10003, "P12_002": "国会議事堂", "P12_003": "13", "P12_004": "13101", "P12_005": "建造物", "P12_006": "千代田区永田町1-7-1", "P12_007": -1 }, "geometry": { "type": "Point", "coordinates": [ 139.744858001005383, 35.675888005546568 ] } },
{ "type": "Feature", "properties": { "P12_001": 10004, "P12_002": "東京駅", "P12_003": "13", "P12_004": "13101", "P12_005": "建造物", "P12_006": "千代田区丸の内1-9-1", "P12_007": -1 }, "geometry": { "type": "Point", "coordinates": [ 139.767383170574021, 35.680966759639595 ] } },
{ "type": "Feature", "properties": { "P12_001": 10020, "P12_002": "三社祭", "P12_003": "13", "P12_004": "13106", "P12_005": "年中行事", "P12_006": "台東区浅草2-3-1", "P12_007": -1 }, "geometry": { "type": "Point", "coordinates": [ 139.796748207462883, 35.714661402802051 ] } },
{ "type": "Feature", "properties": { "P12_001": 10021, "P12_002": "上野動物園", "P12_003": "13", "P12_004": "13106", "P12_005": "動植物園・水族館", "P12_006": "台東区上野公園9-83", "P12_007": -1 }, "geometry": { "type": "Point", "coordinates": [ 139.771645490483309, 35.716775160178202 ] } },
{ "type": "Feature", "properties": { "P12_001": 10022, "P12_002": "東京国立博物館", "P12_003": "13", "P12_004": "13106", "P12_005": "博物館・美術館", "P12_006": "台東区上野公園13-9", "P12_007": -1 }, "geometry": { "type": "Point", "coordinates": [ 139.776521000778075, 35.718835 ] } },
{ "type": "Feature", "properties": { "P12_001": 10023, "P12_002": "国立西洋美術館", "P12_003": "13", "P12_004": "13106", "P12_005": "博物館・美術館", "P12_006": "台東区上野公園7-7", "P12_007": -1 }, "geometry": { "type": "Point", "coordinates": [ 139.775814000018755, 35.71538700234818 ] } },
{ "type": "Feature", "properties": { "P12_001": 10024, "P12_002": "国立科学博物館", "P12_003": "13", "P12_004": "13106", "P12_005": "博物館・美術館", "P12_006": "台東区上野公園7-20", "P12_007": -1 }, "geometry": { "type": "Point", "coordinates": [ 139.776382998810305, 35.71635699746794 ] } },
{ "type": "Feature", "properties": { "P12_001": 10005, "P12_002": "東京国立近代美術館", "P12_003": "13", "P12_004": "13101", "P12_005": "博物館・美術館", "P12_006": "千代田区北の丸公園3-1", "P12_007": -1 }, "geometry": { "type": "Point", "coordinates": [ 139.754692999416505, 35.690542998219762 ] } },
{ "type": "Feature", "properties": { "P12_001": 10015, "P12_002": "根津美術館", "P12_003": "13", "P12_004": "13103", "P12_005": "博物館・美術館", "P12_006": "港区南青山6-6-5-1", "P12_007": -1 }, "geometry": { "type": "Point", "coordinates": [ 139.717093001576984, 35.66224300125878 ] } },
{ "type": "Feature", "properties": { "P12_001": 10031, "P12_002": "三鷹の森ジブリ美術館", "P12_003": "13", "P12_004": "13204", "P12_005": "テーマ・公園テーマ施設", "P12_006": "三鷹市下連雀1-1-83", "P12_007": -1 }, "geometry": { "type": "Point", "coordinates": [ 139.570432000769046, 35.696237997579054 ] } },
{ "type": "Feature", "properties": { "P12_001": 10017, "P12_002": "江戸前の寿司", "P12_003": "13", "P12_004": "13104", "P12_005": "食", "P12_006": "新宿区", "P12_007": -1 }, "geometry": { "type": "Point", "coordinates": [ 139.692101001443831, 35.68963399565142 ] } },
{ "type": "Feature", "properties": { "P12_001": 10011, "P12_002": "築地市場の海鮮料理", "P12_003": "13", "P12_004": "13102", "P12_005": "食", "P12_006": "中央区", "P12_007": -1 }, "geometry": { "type": "Point", "coordinates": [ 139.770632999391495, 35.665458001461083 ] } },
{ "type": "Feature", "properties": { "P12_001": 10012, "P12_002": "歌舞伎座で上演される歌舞伎", "P12_003": "13", "P12_004": "13102", "P12_005": "芸能・興行・イベント", "P12_006": "中央区銀座4-12-15", "P12_007": -1 }, "geometry": { "type": "Point", "coordinates": [ 139.768018759361496, 35.669580346164921 ] } },
{ "type": "Feature", "properties": { "P12_001": 10027, "P12_002": "国技館で開催される大相撲", "P12_003": "13", "P12_004": "13107", "P12_005": "芸能・興行・イベント", "P12_006": "墨田区横綱1-3-28", "P12_007": -1 }, "geometry": { "type": "Point", "coordinates": [ 139.793493002128173, 35.696912006072928 ] } },
{ "type": "Feature", "properties": { "P12_001": 10030, "P12_002": "国立能楽堂で上演される能・狂言", "P12_003": "13", "P12_004": "13113", "P12_005": "芸能・興行・イベント", "P12_006": "渋谷区千駄ヶ谷4-18-1", "P12_007": -1 }, "geometry": { "type": "Point", "coordinates": [ 139.708209998586312, 35.680403997878791 ] } },
{ "type": "Feature", "properties": { "P12_001": 10018, "P12_002": "末廣亭で上演される演芸", "P12_003": "13", "P12_004": "13104", "P12_005": "芸能・興行・イベント", "P12_006": "新宿区新宿3-6-12", "P12_007": -1 }, "geometry": { "type": "Point", "coordinates": [ 139.705804057783467, 35.691215695885958 ] } },
{ "type": "Feature", "properties": { "P12_001": 10006, "P12_002": "国立劇場で上演される歌舞伎・文楽", "P12_003": "13", "P12_004": "13101", "P12_005": "芸能・興行・イベント", "P12_006": "千代田区隼町4-1", "P12_007": -1 }, "geometry": { "type": "Point", "coordinates": [ 139.743277000919932, 35.681560000314164 ] } },
{ "type": "Feature", "properties": { "P12_001": 10025, "P12_002": "鈴本演芸場で上演される演芸", "P12_003": "13", "P12_004": "13106", "P12_005": "芸能・興行・イベント", "P12_006": "台東区上野2-7-12", "P12_007": -1 }, "geometry": { "type": "Point", "coordinates": [ 139.773003998462059, 35.709202005185674 ] } },
{ "type": "Feature", "properties": { "P12_001": 10007, "P12_002": "箱根駅伝", "P12_003": "13", "P12_004": "13101", "P12_005": "芸能・興行・イベント", "P12_006": "千代田区", "P12_007": -1 }, "geometry": { "type": "Point", "coordinates": [ 139.764346997796451, 35.687470999768053 ] } },
{ "type": "Feature", "properties": { "P12_001": 10034, "P12_002": "南島", "P12_003": "13", "P12_004": "13421", "P12_005": "海岸・岬", "P12_006": "小笠原村南島", "P12_007": -1 }, "geometry": { "type": "Polygon", "coordinates": [ [ [ 142.174740827417082, 27.04251416495644 ], [ 142.174748046851846, 27.042461661504532 ], [ 142.174740827417082, 27.042423886113234 ], [ 142.174715564353789, 27.042356116192842 ], [ 142.174707769744288, 27.042293339571298 ], [ 142.174715834586777, 27.042226385946719 ], [ 142.174737227616504, 27.042173613290874 ], [ 142.174772504174655, 27.042121387726901 ], [ 142.174775841179866, 27.042098062508273 ], [ 142.174771663725352, 27.042082222895921 ], [ 142.174722230926648, 27.042011943300107 ], [ 142.174728054570949, 27.041977502564041 ], [ 142.174745002392399, 27.041954715753288 ], [ 142.174761665105706, 27.041955835989029 ], [ 142.174796659034854, 27.041988062305606 ], [ 142.174820558537334, 27.042002503794283 ], [ 142.17484861813989, 27.042006394225385 ], [ 142.174875834813975, 27.042003884549963 ], [ 142.174961392057725, 27.041972491897194 ], [ 142.175068339852032, 27.041910557623456 ], [ 142.175200838297002, 27.041791951578773 ], [ 142.175295280998938, 27.041667779091373 ], [ 142.175344158456511, 27.041645000964618 ], [ 142.175366391935569, 27.041628614260393 ], [ 142.175371660238767, 27.041600834150788 ], [ 142.175404717911562, 27.041589171541474 ], [ 142.17542138062484, 27.041569441498019 ], [ 142.175419446847684, 27.04152527468419 ], [ 142.175468879646388, 27.041526942011807 ], [ 142.175492784107234, 27.041516946730109 ], [ 142.17550749320975, 27.041489175304505 ], [ 142.17552028588949, 27.041456384528058 ], [ 142.175544168037533, 27.041411939826293 ], [ 142.175553326207876, 27.041369171136143 ], [ 142.175580827990103, 27.041339723698925 ], [ 142.175603061469161, 27.041305282962856 ], [ 142.175615839273689, 27.041269166215177 ], [ 142.175617505297112, 27.041239440890021 ], [ 142.17562861459902, 27.041216662763269 ], [ 142.175667223203988, 27.041182222027199 ], [ 142.175691110310453, 27.041131108014973 ], [ 142.175691110310453, 27.041078604563065 ], [ 142.175666940575013, 27.041041671519569 ], [ 142.175786663694652, 27.040815826783582 ], [ 142.175851665878781, 27.04067971379893 ], [ 142.175871948226245, 27.040570000168199 ], [ 142.175887502736458, 27.040460555741404 ], [ 142.175922223953478, 27.040449726795899 ], [ 142.175938618912994, 27.040415008171895 ], [ 142.17592500313836, 27.040375278881047 ], [ 142.175908340425082, 27.040342783360529 ], [ 142.175933333255387, 27.040308056052528 ], [ 142.175961105270602, 27.040265556566315 ], [ 142.175952775153547, 27.040215831993766 ], [ 142.175933333255387, 27.040178621062338 ], [ 142.175891387645208, 27.040163606429797 ], [ 142.175885836713064, 27.040136104208131 ], [ 142.175949998447862, 27.040128609917854 ], [ 142.175977787817487, 27.040116391532671 ], [ 142.175997227236451, 27.040076393037882 ], [ 142.176047217855483, 27.040014172192212 ], [ 142.176122506246656, 27.039974442901361 ], [ 142.176166940975122, 27.039929442423727 ], [ 142.176186397748495, 27.039877216859754 ], [ 142.176186397748495, 27.039834995261479 ], [ 142.176245006071952, 27.039810002715235 ], [ 142.176286664094761, 27.039739167343548 ], [ 142.176311676758701, 27.039701669840184 ], [ 142.176333892883349, 27.039661940549333 ], [ 142.176331116177664, 27.039609723669361 ], [ 142.176394990325122, 27.039607222677937 ], [ 142.176423049927678, 27.039587223430541 ], [ 142.176450839297303, 27.039522501593449 ], [ 142.176453616002988, 27.03948528197802 ], [ 142.176442509180248, 27.039445283483232 ], [ 142.176403340275755, 27.03941055617523 ], [ 142.176450839297303, 27.03938805593641 ], [ 142.176470278716266, 27.039363332594107 ], [ 142.176470278716266, 27.039325835090743 ], [ 142.176448062591618, 27.039265003684751 ], [ 142.176475834606833, 27.039235000471663 ], [ 142.176511936739075, 27.039197772172237 ], [ 142.17653417269733, 27.039140561993413 ], [ 142.176578607425796, 27.03912055406202 ], [ 142.176642769160622, 27.039043335951803 ], [ 142.176667781824563, 27.038998613362104 ], [ 142.176665005118878, 27.03895889275525 ], [ 142.17663443656437, 27.038902776760175 ], [ 142.176609443734066, 27.038865279256811 ], [ 142.176626108926541, 27.038840555914504 ], [ 142.176684447017038, 27.038823048974539 ], [ 142.176714993258713, 27.038788339034532 ], [ 142.176714993258713, 27.038748340539744 ], [ 142.176706665620884, 27.038703609266047 ], [ 142.176728881745532, 27.038643889411798 ], [ 142.176726105039847, 27.038601667813523 ], [ 142.17669555383975, 27.038556667335886 ], [ 142.176776398121461, 27.03854193927528 ], [ 142.176806944363165, 27.038514437053614 ], [ 142.176856934982197, 27.038428613101381 ], [ 142.176873617529083, 27.038388614606593 ], [ 142.176935002558224, 27.038346393008315 ], [ 142.177001670765776, 27.038299169427191 ], [ 142.177040554562097, 27.038251945846067 ], [ 142.177040554562097, 27.038209437675857 ], [ 142.177012780067685, 27.03817472773585 ], [ 142.177018335958252, 27.038147216830186 ], [ 142.177059993981061, 27.038122502171881 ], [ 142.177099160406357, 27.038132228249641 ], [ 142.177129726481638, 27.038115268401544 ], [ 142.177146389194945, 27.038062773633637 ], [ 142.177193600629096, 27.037993336385629 ], [ 142.177196397168387, 27.037958331189689 ], [ 142.177182493806384, 27.037926122241107 ], [ 142.177154721791169, 27.03789111704517 ], [ 142.177171384504447, 27.037866385018866 ], [ 142.177243608602566, 27.037858882044592 ], [ 142.177268891499438, 27.0378388827972 ], [ 142.177288330918401, 27.037801671865768 ], [ 142.177316102933617, 27.037709447807011 ], [ 142.177316102933617, 27.03766971851616 ], [ 142.177285551733519, 27.037624718038522 ], [ 142.177324452884278, 27.037584997431672 ], [ 142.17735360333549, 27.037532493979764 ], [ 142.177339719807094, 27.037498886907503 ], [ 142.177310547043049, 27.03747194046171 ], [ 142.177237784958237, 27.03746833660254 ], [ 142.177275558072296, 27.037403614765445 ], [ 142.177272493779242, 27.037366942241892 ], [ 142.177284998871585, 27.03732166387632 ], [ 142.177332497893133, 27.037316114801598 ], [ 142.177357493202663, 27.037299163637503 ], [ 142.17739221689888, 27.037262499797947 ], [ 142.177426940595069, 27.037197508756915 ], [ 142.177436381394386, 27.037135557115182 ], [ 142.177508895559072, 27.037093335516907 ], [ 142.177559168807079, 27.03699444214768 ], [ 142.177587496163426, 27.036974720788223 ], [ 142.17757194413241, 27.036918326905212 ], [ 142.177593892503296, 27.036895835350393 ], [ 142.177656946035029, 27.036881671749654 ], [ 142.177707219283064, 27.036842229030739 ], [ 142.177719994608395, 27.036808335386542 ], [ 142.177723058901449, 27.036692499537221 ], [ 142.177704174823617, 27.036655835697665 ], [ 142.177663342374899, 27.036641663412929 ], [ 142.177694714190693, 27.036559999095736 ], [ 142.177685273391376, 27.036540286420276 ], [ 142.177623888362234, 27.036500557129429 ], [ 142.177574723317292, 27.036499723465621 ], [ 142.177536952682431, 27.036509449543381 ], [ 142.177506384127952, 27.036402775311949 ], [ 142.177513338288151, 27.036285550022946 ], [ 142.177544727458354, 27.036116107853971 ], [ 142.177658341825492, 27.035839722249623 ], [ 142.177853603735628, 27.035563336645279 ], [ 142.17790499262432, 27.035476939549177 ], [ 142.1779416699313, 27.035416941806993 ], [ 142.177973326855266, 27.035354720961323 ], [ 142.177960554009132, 27.035292778003591 ], [ 142.177872505167869, 27.035168614200185 ], [ 142.177790552683064, 27.035089720078357 ], [ 142.177752782048231, 27.035027499232687 ], [ 142.177633061407789, 27.034739720222962 ], [ 142.177604161355902, 27.03469666496088 ], [ 142.177576389340686, 27.034666383859854 ], [ 142.177500830716582, 27.034666383859854 ], [ 142.177368619858981, 27.034728613389522 ], [ 142.177318609406342, 27.034737775007411 ], [ 142.177090004715211, 27.034712218001296 ], [ 142.17703639694119, 27.034653053922924 ], [ 142.176960838317058, 27.034641660517547 ], [ 142.176926114620869, 27.034698054400561 ], [ 142.176891658678414, 27.03470361215928 ], [ 142.176838050904365, 27.034734718240117 ], [ 142.176828607625851, 27.03478832455977 ], [ 142.176787504944201, 27.034844727126778 ], [ 142.176787504944201, 27.034938054053285 ], [ 142.176819166826562, 27.034963333171465 ], [ 142.176828607625851, 27.034997218131661 ], [ 142.176787504944201, 27.035036669534573 ], [ 142.1767813961917, 27.035132506136502 ], [ 142.176800282748729, 27.035183324892799 ], [ 142.176822228640418, 27.035200006852957 ], [ 142.17687277707978, 27.035222498407776 ], [ 142.176838050904365, 27.035304449296902 ], [ 142.176866395615122, 27.035383334734732 ], [ 142.176915560660063, 27.035410281180528 ], [ 142.176944730944911, 27.035428613100304 ], [ 142.176951397517769, 27.035453892218484 ], [ 142.176920005868368, 27.035513334184795 ], [ 142.176964170363874, 27.035611940982083 ], [ 142.176989165673405, 27.035614719861442 ], [ 142.177033332648136, 27.035679719586472 ], [ 142.176986121213957, 27.035716392110029 ], [ 142.176945001177899, 27.035803892073876 ], [ 142.176989165673405, 27.035916662471905 ], [ 142.176986121213957, 27.035941941590082 ], [ 142.176923050327815, 27.035950556116099 ], [ 142.176882217879097, 27.035989998835014 ], [ 142.176831671918904, 27.03608027767822 ], [ 142.176838050904365, 27.036125547359795 ], [ 142.176882217879097, 27.036193056760247 ], [ 142.176859999275251, 27.036209999240345 ], [ 142.176828607625851, 27.036213047323642 ], [ 142.176778064144884, 27.036280556724094 ], [ 142.176718325305529, 27.036334163043751 ], [ 142.176699443706923, 27.036390556926762 ], [ 142.176714727984177, 27.036446117145967 ], [ 142.176718325305529, 27.036469728936527 ], [ 142.176667781824563, 27.036469728936527 ], [ 142.176598602185891, 27.036571114613178 ], [ 142.176544996891067, 27.036608056340668 ], [ 142.176542505293554, 27.036689164881988 ], [ 142.176511668985313, 27.036705838158149 ], [ 142.176481102910003, 27.036750282859913 ], [ 142.176458884306157, 27.036809716142226 ], [ 142.176428335585285, 27.036840275131187 ], [ 142.176397501756242, 27.036876938970742 ], [ 142.176354710738337, 27.036875271643126 ], [ 142.176324164496663, 27.036850834872755 ], [ 142.176303614395437, 27.03680526993525 ], [ 142.176264713244677, 27.036808335386542 ], [ 142.176289728387815, 27.036763057020973 ], [ 142.176293060434631, 27.036729172060774 ], [ 142.1762550022124, 27.036633335458848 ], [ 142.176236120613794, 27.036624720932831 ], [ 142.176185825052954, 27.036630556579489 ], [ 142.176166940975122, 27.036664441539685 ], [ 142.176106951736443, 27.036689720657861 ], [ 142.176091382351018, 27.036723614302055 ], [ 142.176025554592798, 27.036700002511495 ], [ 142.175981390097263, 27.036708886241449 ], [ 142.175945553239586, 27.036750282859913 ], [ 142.175915004518714, 27.036751941503532 ], [ 142.175851933632543, 27.03678555725979 ], [ 142.175823606276197, 27.036836384700084 ], [ 142.175735274805959, 27.036791384222447 ], [ 142.175643898876274, 27.036794171785807 ], [ 142.175609175180057, 27.036805547823185 ], [ 142.175505271845196, 27.036796950665167 ], [ 142.175445282606518, 27.036720826738698 ], [ 142.175382501786913, 27.036706663137959 ], [ 142.175335270519156, 27.036723614302055 ], [ 142.175310007455863, 27.036720826738698 ], [ 142.175275283759646, 27.036689720657861 ], [ 142.175303611115993, 27.036630556579489 ], [ 142.175303881348952, 27.036546104698939 ], [ 142.175286948402714, 27.036511108186996 ], [ 142.17523111926414, 27.036469728936527 ], [ 142.175268887419776, 27.036421671691595 ], [ 142.175262776188077, 27.036289162566113 ], [ 142.175225008032442, 27.036260826680639 ], [ 142.175225008032442, 27.0362297292838 ], [ 142.175272221945789, 27.036187499001528 ], [ 142.175281662745107, 27.03614527740325 ], [ 142.175275283759646, 27.036111392443054 ], [ 142.175303611115993, 27.036077498798861 ], [ 142.175341381750854, 27.036057777439403 ], [ 142.175360283183068, 27.036021113599848 ], [ 142.175366662168528, 27.035933604952003 ], [ 142.175388610539414, 27.035908325833823 ], [ 142.175439173854016, 27.035902498871167 ], [ 142.175480006302706, 27.035860285956886 ], [ 142.175530552262899, 27.035834728950775 ], [ 142.175546104293915, 27.035789728473137 ], [ 142.175530552262899, 27.035767219550323 ], [ 142.175398053817929, 27.035772777309042 ], [ 142.175303611115993, 27.035823604749336 ], [ 142.175281662745107, 27.035812228711954 ], [ 142.175262776188077, 27.035758613708303 ], [ 142.175213326034964, 27.035728610495212 ], [ 142.175143340655808, 27.035739170236781 ], [ 142.175152498826151, 27.035674161827753 ], [ 142.175186949810211, 27.035637220100263 ], [ 142.175199727614739, 27.035588051303584 ], [ 142.175184443337486, 27.035546941257053 ], [ 142.175146942935612, 27.035482783879829 ], [ 142.175192775933738, 27.035446111356276 ], [ 142.175212215352701, 27.035417219694928 ], [ 142.175218611692571, 27.035338334257098 ], [ 142.17520583636724, 27.035293055891525 ], [ 142.175243892110245, 27.03525639205197 ], [ 142.175300549302136, 27.035242228451231 ], [ 142.175328891533695, 27.035191661530877 ], [ 142.175404450157799, 27.0351633343294 ], [ 142.175435283986843, 27.035114721308599 ], [ 142.175431937064843, 27.035078057469043 ], [ 142.175385548725558, 27.035058891885456 ], [ 142.175464436917281, 27.035002506686443 ], [ 142.175492784107234, 27.034912219159235 ], [ 142.175482230146457, 27.034853332968797 ], [ 142.175487228216696, 27.034825839431129 ], [ 142.1755366610154, 27.034808888267033 ], [ 142.175584160036919, 27.034805275723865 ], [ 142.175672223753423, 27.034754448283572 ], [ 142.175691110310453, 27.034731948044755 ], [ 142.175703883156558, 27.034698054400561 ], [ 142.175700551109742, 27.034647226960267 ], [ 142.17571332891427, 27.034630284480169 ], [ 142.175763602162306, 27.03461916027873 ], [ 142.175804722198393, 27.034562783763715 ], [ 142.175810833430063, 27.03450916876006 ], [ 142.17586417345035, 27.034468058713529 ], [ 142.175910006448476, 27.03447583089174 ], [ 142.175939174254125, 27.034468058713529 ], [ 142.175987228616805, 27.034427226554932 ], [ 142.176021952313022, 27.034517496714145 ], [ 142.176050282148537, 27.034528890119521 ], [ 142.176085003365557, 27.034523054472864 ], [ 142.176122774000419, 27.034497784038685 ], [ 142.176198332624523, 27.034494996475324 ], [ 142.176210279896566, 27.03440860806322 ], [ 142.176263334808652, 27.034367220128754 ], [ 142.176260558102967, 27.034302498291659 ], [ 142.176291394411237, 27.034241380313734 ], [ 142.176286106274432, 27.03416055834435 ], [ 142.176257226056151, 27.034129999355386 ], [ 142.176257226056151, 27.034102497133723 ], [ 142.176286106274432, 27.034056662992278 ], [ 142.176282774227616, 27.034017220273363 ], [ 142.176262494359349, 27.033966662037006 ], [ 142.176253048601637, 27.033901948883909 ], [ 142.176232498500411, 27.033856114742466 ], [ 142.176290549003511, 27.033839172262368 ], [ 142.176336669589034, 27.033746114539799 ], [ 142.176331386410624, 27.03371249878354 ], [ 142.176290549003511, 27.033714174795154 ], [ 142.176276953062484, 27.033688331217107 ], [ 142.176302501233948, 27.033656947248335 ], [ 142.176336937342796, 27.033623053604142 ], [ 142.17634027186881, 27.033597774485962 ], [ 142.176313613015083, 27.033514998617029 ], [ 142.176316942582702, 27.033484448312063 ], [ 142.176315279038477, 27.033455556650718 ], [ 142.17626749242956, 27.033409722509273 ], [ 142.176272507854208, 27.033377496192696 ], [ 142.17631194699166, 27.033341118925073 ], [ 142.176412783554269, 27.033324176444975 ], [ 142.176434714570746, 27.033264717110669 ], [ 142.176500829916336, 27.033264717110669 ], [ 142.176598602185891, 27.033225283075751 ], [ 142.176633328361305, 27.033190555767749 ], [ 142.176641946065729, 27.033161664106405 ], [ 142.176684447017038, 27.03314638895392 ], [ 142.176704994639067, 27.033123610827168 ], [ 142.176701665071448, 27.03308999507091 ], [ 142.176708331644306, 27.033054720671032 ], [ 142.176790836991017, 27.033027774225239 ], [ 142.176806391501231, 27.033005273986422 ], [ 142.176815832300548, 27.032943053140752 ], [ 142.176866395615122, 27.032881110183016 ], [ 142.176869440074569, 27.03284722522282 ], [ 142.176822228640418, 27.032824724984003 ], [ 142.176771935558776, 27.032861388823559 ], [ 142.176721389598583, 27.032875561108295 ], [ 142.176667781824563, 27.032852782981543 ], [ 142.176658341025245, 27.032838888584742 ], [ 142.176664717531509, 27.032805003624546 ], [ 142.176699443706923, 27.032785273581091 ], [ 142.176727771063241, 27.032796389098529 ], [ 142.176769443961263, 27.032772777307969 ], [ 142.176812770486691, 27.032751388620895 ], [ 142.17684749418288, 27.03272583161478 ], [ 142.176863331322068, 27.032680831137142 ], [ 142.176822228640418, 27.032638331650933 ], [ 142.176831671918904, 27.032593331173295 ], [ 142.176831671918904, 27.032534167094923 ], [ 142.176812770486691, 27.032457773964516 ], [ 142.176765559052512, 27.032418331245598 ], [ 142.176771935558776, 27.032373330767964 ], [ 142.176819166826562, 27.03233943712377 ], [ 142.176853050073447, 27.032232780260333 ], [ 142.176831671918904, 27.032181666248107 ], [ 142.176878885832281, 27.032085829646178 ], [ 142.176885282172151, 27.032029444447165 ], [ 142.176923050327815, 27.031933338641299 ], [ 142.176920005868368, 27.031905280643759 ], [ 142.176904163770786, 27.031876944758285 ], [ 142.176822228640418, 27.031803608395176 ], [ 142.176721389598583, 27.031775272509702 ], [ 142.176655276732191, 27.03176972343498 ], [ 142.176566942782756, 27.031701953514588 ], [ 142.176532506673908, 27.031701953514588 ], [ 142.1763811043175, 27.031766944555621 ], [ 142.176318055744161, 27.031752772270885 ], [ 142.176242497120057, 27.03176972343498 ], [ 142.176151118711147, 27.031815001800553 ], [ 142.176132217278933, 27.031882493833006 ], [ 142.176053614195354, 27.031882493833006 ], [ 142.176001940198489, 27.031960832178967 ], [ 142.175979719115446, 27.031976107331449 ], [ 142.175915004518714, 27.03206888716608 ], [ 142.175895830374316, 27.03206888716608 ], [ 142.175854997925597, 27.032035002205884 ], [ 142.175829717507895, 27.032032223326524 ], [ 142.17582027422938, 27.032018059725786 ], [ 142.175852508807282, 27.031934719396979 ], [ 142.175844158856648, 27.031898055557424 ], [ 142.175817229769933, 27.031845829993451 ], [ 142.175817229769933, 27.031764165676261 ], [ 142.175801390151577, 27.031747223196163 ], [ 142.175751116903541, 27.031733059595425 ], [ 142.175722769713587, 27.031656953036951 ], [ 142.175646943335721, 27.031608895792019 ], [ 142.175558896973655, 27.031642772068217 ], [ 142.175524173277438, 27.031676665712411 ], [ 142.175458060411046, 27.031668051186397 ], [ 142.175423334235632, 27.031682214787132 ], [ 142.175388610539414, 27.031721666190048 ], [ 142.175313054394508, 27.031761386796898 ], [ 142.175265842960329, 27.031823329754634 ], [ 142.175265842960329, 27.031868616804203 ], [ 142.175237495770375, 27.031891108359023 ], [ 142.175171380424786, 27.031983888193654 ], [ 142.175171380424786, 27.032014994274491 ], [ 142.175186949810211, 27.032037494513311 ], [ 142.175143053068439, 27.032091109516962 ], [ 142.175148053617875, 27.032166113207687 ], [ 142.175168335965338, 27.032215004116427 ], [ 142.175201106050764, 27.032262783473424 ], [ 142.175163337895128, 27.032313610913718 ], [ 142.175062496374096, 27.03254471815249 ], [ 142.17502472821846, 27.032668881955896 ], [ 142.175021663925406, 27.032768053213054 ], [ 142.175037218435619, 27.03284944832631 ], [ 142.17507500642489, 27.032968063054991 ], [ 142.175080004495101, 27.033014166400374 ], [ 142.17506861008502, 27.033086391211739 ], [ 142.174923891655851, 27.033441948825853 ], [ 142.174886118541792, 27.033611390994828 ], [ 142.174892229773491, 27.033780555275868 ], [ 142.174856107807642, 27.033815004695935 ], [ 142.174799435740539, 27.033831947176033 ], [ 142.174701946099958, 27.033950561904714 ], [ 142.174730273456305, 27.03402083281653 ], [ 142.174673603868428, 27.034071668940822 ], [ 142.174648338325937, 27.034136668665852 ], [ 142.174645276512081, 27.034215562787683 ], [ 142.174610550336666, 27.034271939302698 ], [ 142.17463250118675, 27.034342496786447 ], [ 142.174591668738032, 27.034365274913203 ], [ 142.174512778067111, 27.034489447400603 ], [ 142.174525283159483, 27.034548602794981 ], [ 142.174487495170212, 27.034562783763715 ], [ 142.174459167813865, 27.034593611956613 ], [ 142.174440281256835, 27.034649719267691 ], [ 142.174371104097389, 27.034740275998836 ], [ 142.17440249574679, 27.03480777671529 ], [ 142.174386673482815, 27.034819161436669 ], [ 142.174336380401172, 27.034850276201503 ], [ 142.174326939601883, 27.034884169845697 ], [ 142.174270284889189, 27.03493194920269 ], [ 142.174266950363176, 27.034996940243722 ], [ 142.174305008585407, 27.035056113006096 ], [ 142.174270284889189, 27.035095555725011 ], [ 142.174251378498553, 27.035151940924024 ], [ 142.174210278296073, 27.035200006852957 ], [ 142.174181950939754, 27.03525639205197 ], [ 142.174163047028316, 27.035321383093002 ], [ 142.174204167064403, 27.035386113614095 ], [ 142.174194726265085, 27.035403056094193 ], [ 142.174153606228998, 27.035442776701043 ], [ 142.174141116011839, 27.035504728342776 ], [ 142.174090555176463, 27.03555277690371 ], [ 142.174055829001048, 27.03563166234154 ], [ 142.174090555176463, 27.035693891871208 ], [ 142.174046388201731, 27.035736113469486 ], [ 142.174036947402413, 27.035837777034072 ], [ 142.17399305066067, 27.035916662471905 ], [ 142.173989716134628, 27.035984441076295 ], [ 142.173999159413142, 27.036021113599848 ], [ 142.174059163527062, 27.036083056557583 ], [ 142.174055829001048, 27.036114171322417 ], [ 142.17401499655233, 27.036159449687986 ], [ 142.174002491459959, 27.036226941720443 ], [ 142.173980272856113, 27.036246671763898 ], [ 142.173986669195983, 27.036303334850849 ], [ 142.174027501644701, 27.036334163043751 ], [ 142.17404027944923, 27.03637944140932 ], [ 142.174008620046067, 27.036410556174154 ], [ 142.17399305066067, 27.036458326847153 ], [ 142.174005555753013, 27.036503605212726 ], [ 142.174008620046067, 27.036650277938946 ], [ 142.174075003145447, 27.03669527841658 ], [ 142.174059163527062, 27.036731942256136 ], [ 142.174095285492911, 27.036826658622324 ], [ 142.174119437873912, 27.036866387913175 ], [ 142.174115835594137, 27.036918326905212 ], [ 142.174200835017587, 27.036983057426305 ], [ 142.174194726265085, 27.037005835553057 ], [ 142.174147227243537, 27.037050836030694 ], [ 142.174134719671969, 27.037096114396267 ], [ 142.174156670522052, 27.037223048395031 ], [ 142.174191394218269, 27.037251115076568 ], [ 142.174153606228998, 27.037296384758143 ], [ 142.174137783965023, 27.037330278402337 ], [ 142.174160002568868, 27.037459444188588 ], [ 142.174174999258753, 27.037484158846894 ], [ 142.174217497730865, 27.037504175462285 ], [ 142.17423860565242, 27.037532216091826 ], [ 142.174212499660626, 27.037579448356951 ], [ 142.174203326615071, 27.037608887110171 ], [ 142.174212499660626, 27.037641677886619 ], [ 142.174249159613225, 27.037699165953377 ], [ 142.174291390331575, 27.03773528270106 ], [ 142.174359171700559, 27.037746111646566 ], [ 142.174388609739196, 27.037793613115625 ], [ 142.174427223302558, 27.037815001802699 ], [ 142.174531662144943, 27.037841105900689 ], [ 142.174533057935378, 27.037921676034131 ], [ 142.174508062625847, 27.037949725347673 ], [ 142.174444996698099, 27.038068331392356 ], [ 142.174412491887239, 27.038199720282094 ], [ 142.174359171700559, 27.038219450325553 ], [ 142.174331669918331, 27.03823582834578 ], [ 142.174294992611351, 27.038260551688087 ], [ 142.174274995372031, 27.038309720484762 ], [ 142.174265842160111, 27.03839278292563 ], [ 142.174203326615071, 27.038394450253247 ], [ 142.174159162119565, 27.038409160945861 ], [ 142.174122502166966, 27.038436949739459 ], [ 142.174095000384739, 27.038481394441224 ], [ 142.174084158836592, 27.038530563237899 ], [ 142.174047498883994, 27.038568329945203 ], [ 142.17400333190929, 27.038555277896208 ], [ 142.173977783737826, 27.038563327962354 ], [ 142.17396110119094, 27.038589718632277 ], [ 142.173891386044744, 27.03859138595989 ], [ 142.17384750665741, 27.038606114020499 ], [ 142.173823604675732, 27.038633885446103 ], [ 142.173803339682678, 27.038670002193786 ], [ 142.173768615986461, 27.038665278098872 ], [ 142.173746382507403, 27.038668612754105 ], [ 142.173718895600388, 27.038686666785949 ], [ 142.173682220772605, 27.038721116206013 ], [ 142.173649163099782, 27.038757224269698 ], [ 142.173627232083334, 27.038794999660997 ], [ 142.173614439403593, 27.038824447098214 ], [ 142.17362916586049, 27.038852218523818 ], [ 142.173657225463074, 27.03886389850113 ], [ 142.173687774183946, 27.038965553381718 ], [ 142.173718895600388, 27.039128048352293 ], [ 142.173726385268111, 27.039236389911341 ], [ 142.173720274036413, 27.039343333346711 ], [ 142.17370138995858, 27.039484439630215 ], [ 142.173673062602262, 27.039584444551181 ], [ 142.173619437473803, 27.039704448719544 ], [ 142.1735752704991, 27.039924718328813 ], [ 142.173557494624333, 27.040014450080147 ], [ 142.173518615786406, 27.04011082508995 ], [ 142.173445836347184, 27.040250281413833 ], [ 142.173421666611745, 27.040291669348303 ], [ 142.173430554549128, 27.040358892176819 ], [ 142.173455564733871, 27.04043778629865 ], [ 142.173449436147763, 27.040494171497663 ], [ 142.173366658088867, 27.040489447402752 ], [ 142.173331936871847, 27.040496108029217 ], [ 142.173315274158568, 27.040510827405829 ], [ 142.173308052244607, 27.040545276825895 ], [ 142.173287767417946, 27.040568332840582 ], [ 142.1732602829901, 27.040583052217194 ], [ 142.173236383487648, 27.040586386872427 ], [ 142.173225559293911, 27.040602782260649 ], [ 142.173220003403344, 27.040635555669102 ], [ 142.173206945449039, 27.040673339744398 ], [ 142.173196103900864, 27.040704445825234 ], [ 142.173196103900864, 27.04072084121346 ], [ 142.173214452471171, 27.040735560590068 ], [ 142.173214452471171, 27.040751947294297 ], [ 142.173181394798377, 27.040756949277142 ], [ 142.173166665862254, 27.040766944558843 ], [ 142.173148337125582, 27.040847219436355 ], [ 142.173148337125582, 27.040868608123429 ], [ 142.173166665862254, 27.040883336184034 ], [ 142.173201659791431, 27.040888329482886 ], [ 142.173212498860408, 27.040903057543492 ], [ 142.173220003403344, 27.040945834917643 ], [ 142.173238334619242, 27.040967223604717 ], [ 142.173273058315431, 27.040971947699628 ], [ 142.173324444724926, 27.040968604360398 ], [ 142.173364992065473, 27.040975282354861 ], [ 142.173410827542796, 27.040994995030321 ], [ 142.173476670176228, 27.041000005697164 ], [ 142.173518615786406, 27.04099082671128 ], [ 142.173580000815548, 27.041019727056625 ], [ 142.173665825813089, 27.041044163826996 ], [ 142.173814716738349, 27.041035835872915 ], [ 142.174130009189128, 27.041001950912719 ], [ 142.174243335968896, 27.040973892915179 ], [ 142.174381943166338, 27.040968326472463 ], [ 142.17442611014107, 27.040984999748623 ], [ 142.174457501790471, 27.041024729039471 ], [ 142.17448278468737, 27.041086671997206 ], [ 142.17449860447212, 27.041170550733888 ], [ 142.174501666285977, 27.041250278519527 ], [ 142.174482226867013, 27.041345550661582 ], [ 142.174425287046176, 27.041470278924859 ], [ 142.174388339506208, 27.041532499770529 ], [ 142.174325273578461, 27.041583335894821 ], [ 142.174289436720784, 27.041603890918086 ], [ 142.174157496096143, 27.041651670275083 ], [ 142.174132193365637, 27.041666667539626 ], [ 142.174111107756886, 27.041679163812748 ], [ 142.174073049534655, 27.041709167025839 ], [ 142.174010286069489, 27.041803327616154 ], [ 142.173896671702352, 27.041983893986568 ], [ 142.173865835394082, 27.042001114354601 ], [ 142.173841950766843, 27.041986394977993 ], [ 142.173820004875154, 27.041963330279305 ], [ 142.173786947202359, 27.041943886807783 ], [ 142.173741114204233, 27.041940560836547 ], [ 142.173698881006686, 27.041956947540772 ], [ 142.173682220772605, 27.041980828535273 ], [ 142.173654714031954, 27.042000280690793 ], [ 142.173636385295254, 27.042003606662028 ], [ 142.173601664078262, 27.041993889268266 ], [ 142.173557494624333, 27.041992221940649 ], [ 142.173528056585724, 27.041995556595882 ], [ 142.173513617716196, 27.042010284656488 ], [ 142.173494998912929, 27.042021660693869 ], [ 142.173480560043373, 27.042013610627723 ], [ 142.173462228827503, 27.041979169891654 ], [ 142.173439995348446, 27.041961115859813 ], [ 142.173399715761661, 27.041962783187429 ], [ 142.17337778722441, 27.041975835236425 ], [ 142.173361104677497, 27.041992221940649 ], [ 142.173342775940824, 27.041990545929036 ], [ 142.173296942942699, 27.041975835236425 ], [ 142.173253061076139, 27.041977502564041 ], [ 142.173221674385161, 27.041988895969414 ], [ 142.17319416764451, 27.042016936598959 ], [ 142.173172221752822, 27.042031673343562 ], [ 142.173142781235015, 27.042029997331948 ], [ 142.173095282213467, 27.042008608644874 ], [ 142.173054717518539, 27.042011943300107 ], [ 142.173029169347075, 27.042034999314797 ], [ 142.173030835370497, 27.042062779424398 ], [ 142.173043898283197, 27.042090559534003 ], [ 142.17308610916794, 27.042108604881847 ], [ 142.17312278647492, 27.042130827232729 ], [ 142.17315193692616, 27.0421522246038 ], [ 142.173150270902738, 27.042180273917339 ], [ 142.173137227823645, 27.042193334650332 ], [ 142.173108060017995, 27.042193334650332 ], [ 142.173040008416024, 27.042153883247419 ], [ 142.173019993822322, 27.042135829215574 ], [ 142.172983333869752, 27.042137496543191 ], [ 142.172928330305268, 27.042166943980408 ], [ 142.172904445678, 27.042173613290874 ], [ 142.17288222955338, 27.042150557276184 ], [ 142.172854725291927, 27.042145555293335 ], [ 142.172808894772999, 27.042166943980408 ], [ 142.172774171076782, 27.042199726072859 ], [ 142.172731937879234, 27.042198336633181 ], [ 142.172696946429284, 27.042211388682173 ], [ 142.172649444928538, 27.042250831401091 ], [ 142.172621672913323, 27.042294998214917 ], [ 142.172625562780468, 27.042323047528459 ], [ 142.172649444928538, 27.042354162293293 ], [ 142.172643891517168, 27.042388603029359 ], [ 142.172620006889929, 27.042419717794193 ], [ 142.17261443612415, 27.042459160513111 ], [ 142.172623609169705, 27.042505281226486 ], [ 142.172658603098881, 27.042528059353241 ], [ 142.172700563584272, 27.042549448040315 ], [ 142.172720828577326, 27.042582221448768 ], [ 142.172768615186243, 27.042611938089923 ], [ 142.172803338882431, 27.042618338196451 ], [ 142.172830840664687, 27.042613614101537 ], [ 142.172902494546435, 27.04263305757306 ], [ 142.172970273436249, 27.042636392228292 ], [ 142.173007220976189, 27.042631668133378 ], [ 142.173036388781838, 27.042624998822916 ], [ 142.173080553277373, 27.04263305757306 ], [ 142.173126386275499, 27.042643052854757 ], [ 142.173188616712338, 27.042643052854757 ], [ 142.173221674385161, 27.042629992121764 ], [ 142.173256663355914, 27.042615003541218 ], [ 142.173298053624961, 27.042626944038467 ], [ 142.173354993445798, 27.042660828998663 ], [ 142.173405271652229, 27.042717214197676 ], [ 142.173436663301629, 27.042824444204982 ], [ 142.173436663301629, 27.042971394819137 ], [ 142.173399715761661, 27.043094994162672 ], [ 142.173361104677497, 27.043185281689876 ], [ 142.173279169547129, 27.043303887734563 ], [ 142.173203325814853, 27.043380550068907 ], [ 142.173126386275499, 27.043433053520815 ], [ 142.173041119098315, 27.043461111518351 ], [ 142.172933615962876, 27.043500554237269 ], [ 142.172860278703297, 27.043549723033944 ], [ 142.172790563557101, 27.0436072197847 ], [ 142.172731114784341, 27.043664994423395 ], [ 142.172661664912738, 27.043698896751586 ], [ 142.172573603675431, 27.043710272788967 ], [ 142.172478890740535, 27.043710272788967 ], [ 142.172441945679793, 27.043696664964102 ], [ 142.172394449137443, 27.043656935673251 ], [ 142.172302493074625, 27.043574724264186 ], [ 142.172249443120904, 27.043506111995988 ], [ 142.172194434598026, 27.043458610526926 ], [ 142.172155825993087, 27.043442223822701 ], [ 142.172109992994933, 27.043428885201774 ], [ 142.172056670329084, 27.043428885201774 ], [ 142.172018056765722, 27.043415833152778 ], [ 142.171994442371442, 27.043391396382408 ], [ 142.171988888960072, 27.04335360362311 ], [ 142.171957497310672, 27.04334027368618 ], [ 142.171913617923337, 27.04336332970087 ], [ 142.171880560250543, 27.043366664356103 ], [ 142.171841946687181, 27.04336332970087 ], [ 142.171790562756883, 27.04336332970087 ], [ 142.171746663535913, 27.043370007695334 ], [ 142.171719161753686, 27.043389720370794 ], [ 142.171684167824509, 27.043417509164392 ], [ 142.171640271082737, 27.043433887184623 ], [ 142.171603611130166, 27.043451941216464 ], [ 142.171585284872691, 27.043483055981298 ], [ 142.171592504307455, 27.043520831372597 ], [ 142.171636668802961, 27.043569444393402 ], [ 142.171640271082737, 27.043589165752859 ], [ 142.17162556198025, 27.043610276551998 ], [ 142.171590550696664, 27.043653062610144 ], [ 142.171577775371333, 27.043677777268453 ], [ 142.171586950896085, 27.043708883349289 ], [ 142.171614452678313, 27.043738330786507 ], [ 142.171653619103608, 27.043732773027784 ], [ 142.171748059326376, 27.043783609152079 ], [ 142.171817489364372, 27.043800551632177 ], [ 142.171924439637877, 27.04385110986853 ], [ 142.171943326194906, 27.043868052348628 ], [ 142.171933882916392, 27.043914164378009 ], [ 142.171935548939786, 27.04393221840985 ], [ 142.171950277875908, 27.043960007203452 ], [ 142.17198138193794, 27.043979719878912 ], [ 142.172018056765722, 27.043984721861758 ], [ 142.172053050694899, 27.043988056516991 ], [ 142.172086108367694, 27.044024164580676 ], [ 142.172124721931056, 27.044058605316742 ], [ 142.172166665062036, 27.044068331394502 ], [ 142.172195565113924, 27.044065552515143 ], [ 142.172308048965164, 27.044121668510218 ], [ 142.172387494977244, 27.044149170731885 ], [ 142.172563049714654, 27.044191392330163 ], [ 142.172651110951932, 27.044198600048503 ], [ 142.172901111151987, 27.044206667482644 ], [ 142.173033612076154, 27.044235003368119 ], [ 142.173089728802125, 27.044265275785147 ], [ 142.173139164080027, 27.044314722469757 ], [ 142.173172221752822, 27.044381676094339 ], [ 142.173172221752822, 27.044449446014731 ], [ 142.173134448638763, 27.044539724857938 ], [ 142.173121675792657, 27.044686388900161 ], [ 142.173109168221089, 27.044753889616615 ], [ 142.173058607385684, 27.044827225979724 ], [ 142.17298304876158, 27.044866946586577 ], [ 142.172844441564109, 27.044900822862772 ], [ 142.172777768398163, 27.044934169415093 ], [ 142.172719162553904, 27.044980272760476 ], [ 142.172671395778622, 27.045034443540001 ], [ 142.172629165060272, 27.045098331713287 ], [ 142.172611391664702, 27.045160274671019 ], [ 142.172630275742534, 27.045205283832654 ], [ 142.172680551469739, 27.04523916879285 ], [ 142.17281915866721, 27.045290004917142 ], [ 142.172981667846329, 27.045293895348244 ], [ 142.173084175390755, 27.045285558710166 ], [ 142.173284170096565, 27.045261669031667 ], [ 142.17334499730535, 27.045231110042707 ], [ 142.173411667992099, 27.045194159631215 ], [ 142.173461941240106, 27.045126389710823 ], [ 142.173594174410511, 27.044827225979724 ], [ 142.173606947256644, 27.044776667743367 ], [ 142.17359972782188, 27.044722496963843 ], [ 142.173556386421268, 27.044675004178782 ], [ 142.173529992842077, 27.044668326184318 ], [ 142.173489715734519, 27.044659998230237 ], [ 142.173453055781948, 27.044651939480094 ], [ 142.173432773434484, 27.044638887431098 ], [ 142.173432773434484, 27.044615831416408 ], [ 142.173463894850897, 27.044592784085719 ], [ 142.173513617716196, 27.04457305404226 ], [ 142.173555563326374, 27.044550275915508 ], [ 142.173603327622459, 27.044548608587892 ], [ 142.173645560820006, 27.044533611323345 ], [ 142.173669442968077, 27.044515557291504 ], [ 142.173724451490955, 27.044504163886128 ], [ 142.173726670376283, 27.044483053086989 ], [ 142.17382749206368, 27.044471946253548 ], [ 142.17389056294985, 27.044421110129257 ], [ 142.173934439857987, 27.04436472493024 ], [ 142.173978606832719, 27.044263061365655 ], [ 142.174010286069489, 27.044093888400617 ], [ 142.174098332431555, 27.043935830953021 ], [ 142.174142496927089, 27.043789166910798 ], [ 142.1742622200467, 27.043557781784088 ], [ 142.174325003345501, 27.043467502940878 ], [ 142.17441304722837, 27.043354715174857 ], [ 142.174551676738645, 27.043112223214703 ], [ 142.174583336141808, 27.04302778001815 ], [ 142.174597507257573, 27.042789161121107 ], [ 142.174615280653114, 27.042741381764113 ], [ 142.174643340255699, 27.042670832964358 ], [ 142.174740827417082, 27.04251416495644 ] ] ] } },
{ "type": "Feature", "properties": { "P12_001": 10028, "P12_002": "明治神宮", "P12_003": "13", "P12_004": "13113", "P12_005": "神社・寺院・教会", "P12_006": "渋谷区代々木神園町1-1", "P12_007": -1 }, "geometry": { "type": "Polygon", "coordinates": [ [ [ 139.70006449739256, 35.674782005702347 ], [ 139.698996660680876, 35.674659257390616 ], [ 139.698771638435943, 35.676782668581573 ], [ 139.699786281400236, 35.676876768383906 ], [ 139.699839480106021, 35.676492188848478 ], [ 139.700179053856289, 35.676520819989882 ], [ 139.700330441337456, 35.675187036053067 ], [ 139.699917205552254, 35.675146125738486 ], [ 139.699954036569721, 35.67477381669223 ], [ 139.70006449739256, 35.674782005702347 ] ] ] } },
{ "type": "Feature", "properties": { "P12_001": 10019, "P12_002": "浅草寺", "P12_003": "13", "P12_004": "13106", "P12_005": "神社・寺院・教会", "P12_006": "台東区浅草2-3-1", "P12_007": -1 }, "geometry": { "type": "Polygon", "coordinates": [ [ [ 139.794332388356594, 35.713876062098649 ], [ 139.794535695275613, 35.713962754450684 ], [ 139.794648608028723, 35.714005609980809 ], [ 139.794615114016466, 35.714102566818482 ], [ 139.794946536152167, 35.714203058043339 ], [ 139.795260328686027, 35.714257697758754 ], [ 139.795246224508702, 35.714349366041638 ], [ 139.795482452744437, 35.714395200183084 ], [ 139.795597138126624, 35.71448344697076 ], [ 139.795656361292032, 35.714728274926372 ], [ 139.795256805740706, 35.714795827746819 ], [ 139.795216972410202, 35.715069391051813 ], [ 139.795234998684293, 35.71508255599278 ], [ 139.795721889066897, 35.714998086744231 ], [ 139.795735889117765, 35.715058918150227 ], [ 139.795775087772682, 35.71522375780026 ], [ 139.795835027427358, 35.715304857657586 ], [ 139.795889388878635, 35.715337023186173 ], [ 139.795929470129295, 35.715463696664997 ], [ 139.795909777831781, 35.715492970422261 ], [ 139.795910719928344, 35.715606748164056 ], [ 139.797135998331271, 35.715498493444983 ], [ 139.797102248961266, 35.715436559171252 ], [ 139.797221984476892, 35.715335017182639 ], [ 139.797901124539806, 35.715216706393882 ], [ 139.797855289062483, 35.714966381467534 ], [ 139.797686053809684, 35.714998112796231 ], [ 139.797623166384426, 35.714686774099931 ], [ 139.797474506024884, 35.714716056541185 ], [ 139.797407518000341, 35.714321169100131 ], [ 139.797651863141795, 35.714292164546812 ], [ 139.797486584694582, 35.713602828785575 ], [ 139.797211222263201, 35.71352039159256 ], [ 139.796758765510248, 35.713546686738503 ], [ 139.796688088433882, 35.71284828488335 ], [ 139.796527332050204, 35.711245392532511 ], [ 139.796245610466968, 35.711265061787984 ], [ 139.796422067633728, 35.712894987424598 ], [ 139.796501501249793, 35.712899468367567 ], [ 139.796508450451597, 35.712960221617571 ], [ 139.795935511943355, 35.712964763348523 ], [ 139.795922250694531, 35.712918416851203 ], [ 139.794609823400464, 35.712958458765975 ], [ 139.794569670252969, 35.712975609662031 ], [ 139.794477582792439, 35.713017753104324 ], [ 139.7944652685986, 35.713132981073784 ], [ 139.794332388356594, 35.713876062098649 ] ] ] } },
{ "type": "Feature", "properties": { "P12_001": 10002, "P12_002": "江戸城跡", "P12_003": "13", "P12_004": "13101", "P12_005": "城跡・城郭・宮殿", "P12_006": "千代田区千代田", "P12_007": -1 }, "geometry": { "type": "Polygon", "coordinates": [ [ [ 139.747670751833539, 35.694351751239267 ], [ 139.747724887677492, 35.694361972304911 ], [ 139.748524110344249, 35.694563362902528 ], [ 139.748977137313545, 35.694683306282904 ], [ 139.749507304637518, 35.694877836522103 ], [ 139.75032702782147, 35.695031083034806 ], [ 139.750412473501171, 35.694904861123881 ], [ 139.750427056164398, 35.694896498433806 ], [ 139.750442305732832, 35.694892000122842 ], [ 139.750468830709679, 35.694892469058729 ], [ 139.750654027061728, 35.694677522740236 ], [ 139.750819084859984, 35.694481785425317 ], [ 139.750960473721534, 35.694323580349753 ], [ 139.751265889033533, 35.693989194322761 ], [ 139.751613168142029, 35.693657561123139 ], [ 139.752345554015562, 35.693528803484796 ], [ 139.752645138245612, 35.693483386175259 ], [ 139.752840779473587, 35.693427079132228 ], [ 139.753008695791181, 35.693350225749924 ], [ 139.753120470590801, 35.693291799811384 ], [ 139.753436970412707, 35.693452436406382 ], [ 139.753496463811103, 35.693430387735461 ], [ 139.753842991721569, 35.693304860544373 ], [ 139.754081833035656, 35.693217360580526 ], [ 139.754152138231802, 35.693191169642553 ], [ 139.754252610351784, 35.693154557906986 ], [ 139.75439033743271, 35.693101846039127 ], [ 139.754812374383278, 35.692928105291145 ], [ 139.754928001862027, 35.692877833626717 ], [ 139.755151194456261, 35.692782413856698 ], [ 139.755320082620841, 35.692709164333564 ], [ 139.755323020474634, 35.692707305957995 ], [ 139.755469494178442, 35.692455530803983 ], [ 139.755672815972673, 35.692086990612857 ], [ 139.755772251786425, 35.691900110975901 ], [ 139.755787640190135, 35.691869473830955 ], [ 139.755754386660414, 35.691857915429615 ], [ 139.75565541693652, 35.691814582279598 ], [ 139.755857831343008, 35.691340635720749 ], [ 139.755892473225572, 35.691271719512621 ], [ 139.756151044025216, 35.690744036374156 ], [ 139.756136305172276, 35.690522776789109 ], [ 139.756226362166785, 35.690402494732815 ], [ 139.756440639552409, 35.690496750847103 ], [ 139.756711554296345, 35.690412029762619 ], [ 139.757317084387495, 35.69022266650223 ], [ 139.757341442542241, 35.690267467247914 ], [ 139.757513833818535, 35.690244220185264 ], [ 139.75801883476808, 35.690197057392126 ], [ 139.758133750716013, 35.690183979291142 ], [ 139.758220944232761, 35.690170223838308 ], [ 139.758722350340122, 35.690183119575337 ], [ 139.759206292952143, 35.690064982466545 ], [ 139.759337110498478, 35.690037975232762 ], [ 139.759517695535749, 35.690006886519924 ], [ 139.759679027094165, 35.689973201291686 ], [ 139.75975119664983, 35.689957717723246 ], [ 139.759779278565219, 35.689948200061437 ], [ 139.759798167601446, 35.689936745868081 ], [ 139.759823832295353, 35.689917554232501 ], [ 139.75985388765514, 35.689885944479776 ], [ 139.759879220136071, 35.689851364799743 ], [ 139.759903251036206, 35.689805026986413 ], [ 139.759918778275221, 35.689758810749055 ], [ 139.759928861187717, 35.689703719465747 ], [ 139.75993980686232, 35.689704996013454 ], [ 139.759946138742976, 35.689667255358145 ], [ 139.75997285957672, 35.689311584852057 ], [ 139.760704833902793, 35.689226664035615 ], [ 139.760718417447805, 35.689220168405114 ], [ 139.760958250442513, 35.688406555948497 ], [ 139.761122668606816, 35.687897751821673 ], [ 139.761390278575107, 35.687308724921337 ], [ 139.761403418343065, 35.68727974642001 ], [ 139.761367445129309, 35.687144111055247 ], [ 139.761326416823692, 35.686989284054903 ], [ 139.761266001162312, 35.686752115385524 ], [ 139.761201668362588, 35.686513470436488 ], [ 139.761134055579305, 35.686265359929628 ], [ 139.761069529401851, 35.686024309513144 ], [ 139.76102338898275, 35.685855084444121 ], [ 139.760923529225522, 35.685709193277724 ], [ 139.760899860288788, 35.685639139465856 ], [ 139.760826805658184, 35.685417167792977 ], [ 139.76079616520687, 35.685326220281922 ], [ 139.760761582825126, 35.685331691200659 ], [ 139.760503473156973, 35.685363361741366 ], [ 139.760275108948406, 35.684626333463115 ], [ 139.760261998930872, 35.684578910150037 ], [ 139.760637776460641, 35.684424664977556 ], [ 139.760797613060532, 35.684404700466153 ], [ 139.762591972334178, 35.684180748841733 ], [ 139.762427445085052, 35.683676443025881 ], [ 139.762383830972254, 35.683542804980661 ], [ 139.762143720306966, 35.683588552282124 ], [ 139.762133389474315, 35.683550499002884 ], [ 139.762114666544591, 35.683484335622126 ], [ 139.762107499173055, 35.683448522814373 ], [ 139.762394248576953, 35.683396062782457 ], [ 139.762190554902503, 35.682721889281723 ], [ 139.761885692452466, 35.681797799002545 ], [ 139.76093311381851, 35.678983332618742 ], [ 139.760650388158666, 35.6781403074609 ], [ 139.760650720371672, 35.678129834559314 ], [ 139.760650303865816, 35.678119300869739 ], [ 139.760648972534597, 35.67810883665215 ], [ 139.76064677844127, 35.678098467958534 ], [ 139.760643813316278, 35.678088281628881 ], [ 139.760291459282286, 35.677068962627644 ], [ 139.75999070982752, 35.676245215945357 ], [ 139.75976377115984, 35.675654495665405 ], [ 139.759696416213473, 35.675492026746824 ], [ 139.759682527726682, 35.675458671510505 ], [ 139.759606778204045, 35.67543130823281 ], [ 139.756267638392558, 35.676773255127742 ], [ 139.755672612678126, 35.677033193239879 ], [ 139.755662777685785, 35.677036970779007 ], [ 139.754760075627615, 35.677423235010046 ], [ 139.753595299658087, 35.677925543506362 ], [ 139.753108471255558, 35.678016725485364 ], [ 139.752195693722484, 35.677740643820947 ], [ 139.751873861138165, 35.677645171946935 ], [ 139.751576528023065, 35.677577549654508 ], [ 139.751308332963191, 35.677529058209679 ], [ 139.750940082289191, 35.677470832003088 ], [ 139.750857557108873, 35.677462938248901 ], [ 139.750783443859234, 35.677461357761267 ], [ 139.750674083801869, 35.677465968964206 ], [ 139.750382499955037, 35.677497135833029 ], [ 139.750185165432441, 35.677523248615017 ], [ 139.750003583756182, 35.677554606531793 ], [ 139.749565389849465, 35.677655940104451 ], [ 139.749429110622202, 35.677718499626046 ], [ 139.749238970742368, 35.677842107653575 ], [ 139.749037416618819, 35.678001693484823 ], [ 139.748868441682191, 35.678156694165125 ], [ 139.748716721987989, 35.678313162441093 ], [ 139.748425331518888, 35.678689552966404 ], [ 139.748170360519822, 35.678979615867597 ], [ 139.747870444076767, 35.679292439527558 ], [ 139.747748140108371, 35.679403777065914 ], [ 139.7476591119825, 35.679473561673838 ], [ 139.747568916152744, 35.679537779839052 ], [ 139.747509192188602, 35.679578750941616 ], [ 139.747412917356741, 35.67963086361361 ], [ 139.747325721360795, 35.679676141979186 ], [ 139.747192970037275, 35.679731919298341 ], [ 139.747033388795131, 35.679787774773473 ], [ 139.746808279778122, 35.679854606822083 ], [ 139.746638085074352, 35.679913892476428 ], [ 139.746471192666974, 35.679979916913226 ], [ 139.746328611309508, 35.680045967402009 ], [ 139.74624703070495, 35.680090716043708 ], [ 139.746205556143053, 35.680121413976636 ], [ 139.746170168020853, 35.680159614883834 ], [ 139.746127555505467, 35.680223859101041 ], [ 139.745998473400164, 35.680466498689157 ], [ 139.745555804534717, 35.681284531300761 ], [ 139.745193692363642, 35.681959026109418 ], [ 139.744953613927976, 35.682372862034107 ], [ 139.74491841670428, 35.682433502392144 ], [ 139.74484280353775, 35.682579358822551 ], [ 139.744806138626757, 35.682665973018601 ], [ 139.744773110704386, 35.682751666710864 ], [ 139.744735332631905, 35.682857924110394 ], [ 139.744705941698129, 35.682967863525072 ], [ 139.744674126105281, 35.68311258235174 ], [ 139.744654694123938, 35.683452751921401 ], [ 139.744781029273952, 35.684082524140358 ], [ 139.744890136452767, 35.684758278128726 ], [ 139.744921582644594, 35.684888746514673 ], [ 139.744950750450244, 35.685007031251438 ], [ 139.745012556943635, 35.685257833797671 ], [ 139.74520777670736, 35.685963382583175 ], [ 139.745284138592751, 35.686243415466684 ], [ 139.745370166884811, 35.686595638425565 ], [ 139.745397834773541, 35.686751585661646 ], [ 139.745412442228798, 35.68683633279813 ], [ 139.745437777188926, 35.687009700134205 ], [ 139.745463082398629, 35.687286111790542 ], [ 139.745483441601351, 35.6875754712879 ], [ 139.745516472002919, 35.687909909418877 ], [ 139.745594083405877, 35.688265467032991 ], [ 139.745559778694741, 35.688405166508815 ], [ 139.745557331722864, 35.688432191110593 ], [ 139.745561328195663, 35.688505666417669 ], [ 139.745600799562766, 35.688580227224499 ], [ 139.745643501329397, 35.688650116040399 ], [ 139.745682640483466, 35.688710799818423 ], [ 139.7455777305928, 35.688759899143115 ], [ 139.745484666326888, 35.688801886273446 ], [ 139.745479363314871, 35.688808277695976 ], [ 139.745523889773807, 35.688988774594407 ], [ 139.745530831538019, 35.689003111875103 ], [ 139.745577529777478, 35.689044612701544 ], [ 139.745665139800082, 35.689054390883292 ], [ 139.746061028612417, 35.689150783261091 ], [ 139.746149278269002, 35.689173726383807 ], [ 139.746313778246929, 35.689206300060306 ], [ 139.746851638533144, 35.689306747865174 ], [ 139.747599278933507, 35.689442582961888 ], [ 139.747663777839733, 35.689453889527286 ], [ 139.747778081424883, 35.689509302118523 ], [ 139.747874249651062, 35.689559669306924 ], [ 139.747937528790146, 35.689610913579124 ], [ 139.748025056999097, 35.689689225873082 ], [ 139.7480708329756, 35.68976145068445 ], [ 139.748097499266947, 35.689822030254497 ], [ 139.748101081713116, 35.689873248474704 ], [ 139.748093748235078, 35.689922643055326 ], [ 139.748073029548124, 35.689970109788398 ], [ 139.748033972207708, 35.69003716762095 ], [ 139.747971778958885, 35.690128332231957 ], [ 139.747882056656579, 35.690235883547182 ], [ 139.747590777751554, 35.69058116799166 ], [ 139.747509221939026, 35.6906943378536 ], [ 139.747564029646583, 35.69071022088594 ], [ 139.747493250922957, 35.690875051851975 ], [ 139.747479860755647, 35.690871248260855 ], [ 139.747312861742614, 35.691327748667717 ], [ 139.747289666333387, 35.691327748667717 ], [ 139.747239665797508, 35.691484190891686 ], [ 139.747233500023384, 35.691560531918107 ], [ 139.747300252523786, 35.691670549488769 ], [ 139.747334331627599, 35.691709696951754 ], [ 139.74737452940073, 35.69174783707097 ], [ 139.747432693947104, 35.691794305144263 ], [ 139.747566489014474, 35.691904287978936 ], [ 139.74764526564212, 35.69200809649103 ], [ 139.747701221219984, 35.692066800317505 ], [ 139.747753527413238, 35.692139494064769 ], [ 139.747795334188112, 35.692209634716612 ], [ 139.74781947169393, 35.692254999922163 ], [ 139.747835222061042, 35.692302527443218 ], [ 139.747836278200879, 35.692368786347956 ], [ 139.747839191262642, 35.693456804457377 ], [ 139.747840361445753, 35.693511331280817 ], [ 139.747838749964785, 35.693559918249633 ], [ 139.747827863791002, 35.693604805835292 ], [ 139.747709000954274, 35.694023140070946 ], [ 139.747697861901941, 35.694118143009064 ], [ 139.747685944380322, 35.694194032467585 ], [ 139.747681918157099, 35.694244312816011 ], [ 139.747677916725877, 35.694273048165392 ], [ 139.747678110103607, 35.694291284561189 ], [ 139.747670751833539, 35.694351751239267 ] ] ] } },
{ "type": "Feature", "properties": { "P12_001": 10016, "P12_002": "新宿御苑", "P12_003": "13", "P12_004": "13104", "P12_005": "庭園・公園", "P12_006": "新宿区", "P12_007": -1 }, "geometry": { "type": "Polygon", "coordinates": [ [ [ 139.712797678775758, 35.681526745372977 ], [ 139.712782387060912, 35.681506355345668 ], [ 139.712793721970172, 35.681498435539496 ], [ 139.712777473283552, 35.681408582212185 ], [ 139.71243544264459, 35.681146386260572 ], [ 139.711624917298195, 35.681267632240647 ], [ 139.710855695448799, 35.681376112743663 ], [ 139.710350944898607, 35.681434113166311 ], [ 139.710118970972644, 35.681624996126345 ], [ 139.710096501969474, 35.681636945307595 ], [ 139.709793193978754, 35.681704697859992 ], [ 139.709475638017011, 35.681840333224756 ], [ 139.709466556701926, 35.681848782754805 ], [ 139.707828667272537, 35.682663307031213 ], [ 139.707931028544067, 35.682820001091123 ], [ 139.707111833430048, 35.683236937203105 ], [ 139.706771387000856, 35.683212196492804 ], [ 139.706443167993484, 35.683397365382156 ], [ 139.7061845550474, 35.683566329931239 ], [ 139.705682970437522, 35.683948139271308 ], [ 139.705332721245611, 35.684233834121507 ], [ 139.704398334992277, 35.684972416835407 ], [ 139.704580221610343, 35.685145914431445 ], [ 139.704105047934036, 35.686818356922274 ], [ 139.705448467726058, 35.688035071882048 ], [ 139.706162289338721, 35.688411280043404 ], [ 139.706779211360782, 35.688493864864384 ], [ 139.707044964407174, 35.688493864864384 ], [ 139.707260887982613, 35.688901830406429 ], [ 139.707781636820101, 35.688695863341863 ], [ 139.708052333394278, 35.688612531697053 ], [ 139.708839197241559, 35.688368190045331 ], [ 139.709762362628908, 35.68808647246621 ], [ 139.709883082387535, 35.688060142584277 ], [ 139.711123471523621, 35.687832812884629 ], [ 139.711623501674154, 35.687728943584553 ], [ 139.71221803650667, 35.687594880023433 ], [ 139.712682031463402, 35.687499686037356 ], [ 139.713181709567323, 35.687416406496531 ], [ 139.713657998884287, 35.687363616472695 ], [ 139.713659471529979, 35.687347828964327 ], [ 139.713817473520777, 35.687294500532609 ], [ 139.714244555646388, 35.68732011832671 ], [ 139.714831833856095, 35.687406393846842 ], [ 139.714796777946901, 35.687196110835274 ], [ 139.714538018727922, 35.684882285620162 ], [ 139.714454734911953, 35.684168434932573 ], [ 139.714633197752704, 35.684025678689451 ], [ 139.714728371819092, 35.683930510755367 ], [ 139.714966303266266, 35.68383531676929 ], [ 139.715156661315831, 35.683490292844752 ], [ 139.715394620034203, 35.683490292844752 ], [ 139.715466011120583, 35.683335639524373 ], [ 139.715299443488618, 35.683169063074736 ], [ 139.715560416634503, 35.682617446837774 ], [ 139.715520694868076, 35.682584221861426 ], [ 139.715466806944278, 35.682540167939571 ], [ 139.715442223182208, 35.682522921519549 ], [ 139.715363582910612, 35.682514966977379 ], [ 139.715326082508739, 35.682478337873818 ], [ 139.715263554567713, 35.682413477092751 ], [ 139.715239414582697, 35.682385644879162 ], [ 139.714971826927211, 35.682192903543552 ], [ 139.714736828375408, 35.682030408572977 ], [ 139.714704499587867, 35.682029279653236 ], [ 139.714421054959558, 35.681827828267629 ], [ 139.714429722248013, 35.681817641937975 ], [ 139.714267470905838, 35.681704671807999 ], [ 139.714162888269755, 35.681630892560989 ], [ 139.71414451986584, 35.681632177792693 ], [ 139.714133489898387, 35.681622416978939 ], [ 139.714130509898183, 35.681623528530686 ], [ 139.714119333657806, 35.681615721616481 ], [ 139.714099916551675, 35.681611839869376 ], [ 139.714030860873095, 35.681599803848151 ], [ 139.714001083183859, 35.681600107788078 ], [ 139.713525723567471, 35.681778668154955 ], [ 139.713216249802628, 35.681958696117491 ], [ 139.713187362146726, 35.6819438899009 ], [ 139.713102444536958, 35.681850806126342 ], [ 139.713026541303833, 35.681769958104958 ], [ 139.712889929863593, 35.68162120990322 ], [ 139.712823499659379, 35.681545033872759 ], [ 139.712797678775758, 35.681526745372977 ] ] ] } },
{ "type": "Feature", "properties": { "P12_001": 10010, "P12_002": "浜離宮恩賜庭園", "P12_003": "13", "P12_004": "13102", "P12_005": "庭園・公園", "P12_006": "中央区浜離宮庭園1-1-1", "P12_007": -1 }, "geometry": { "type": "Polygon", "coordinates": [ [ [ 139.76524485925367, 35.658333332466619 ], [ 139.763052855893022, 35.657183484291437 ], [ 139.761264223574841, 35.658206997663711 ], [ 139.761043453160482, 35.658333332466619 ], [ 139.759730056498626, 35.659084915125526 ], [ 139.759876111217409, 35.65926663646767 ], [ 139.759893639171992, 35.659288441986646 ], [ 139.761627305113734, 35.661445425513875 ], [ 139.761668360690578, 35.661496444002125 ], [ 139.762051308071051, 35.661972830764412 ], [ 139.762187750925619, 35.662142585557312 ], [ 139.763081808008138, 35.663254832021153 ], [ 139.763195861193964, 35.663169720156759 ], [ 139.763200831992975, 35.663173610587862 ], [ 139.763206581261244, 35.663176137631275 ], [ 139.763215099797605, 35.663175885795333 ], [ 139.763337101303421, 35.663085554848138 ], [ 139.763339416877614, 35.663082749916789 ], [ 139.763341194465085, 35.66307813871385 ], [ 139.763339193749488, 35.663072190175221 ], [ 139.763333027975335, 35.663066528208525 ], [ 139.76436233293731, 35.662294720518275 ], [ 139.76426700020204, 35.662183330875934 ], [ 139.764238747221725, 35.662155663658304 ], [ 139.764144500376716, 35.662059887844357 ], [ 139.764040083847135, 35.662122838145862 ], [ 139.763925998431716, 35.661973942316152 ], [ 139.763615084250802, 35.661567965409652 ], [ 139.763339721819392, 35.66122113521353 ], [ 139.763529720384753, 35.661055383743708 ], [ 139.763522220800212, 35.661039170719441 ], [ 139.763547667324417, 35.661010053274147 ], [ 139.76359297225261, 35.660976116209959 ], [ 139.763670444820292, 35.660925227981686 ], [ 139.763754970716235, 35.660867661758942 ], [ 139.763829250072376, 35.660819943189928 ], [ 139.763887248512276, 35.660786084281732 ], [ 139.763976554308698, 35.660736750489093 ], [ 139.76400877896981, 35.660756055016641 ], [ 139.764184946069975, 35.660640141011342 ], [ 139.764214304774157, 35.66066755639303 ], [ 139.764222027486824, 35.660662971242083 ], [ 139.764246112929385, 35.66064846896542 ], [ 139.764251195292474, 35.660645420882126 ], [ 139.764233221081582, 35.660624666126907 ], [ 139.764834110107557, 35.660176945242021 ], [ 139.764923388632781, 35.660261527382538 ], [ 139.76429908354865, 35.660717194125596 ], [ 139.764276418688524, 35.660733502673835 ], [ 139.763829026944251, 35.661078552650373 ], [ 139.763628087662653, 35.661250417654792 ], [ 139.763891671407748, 35.661557744344009 ], [ 139.76407625043862, 35.661789059998732 ], [ 139.764175222641711, 35.661919632592664 ], [ 139.764215388185193, 35.661974107312119 ], [ 139.764237110948756, 35.6620036936933 ], [ 139.764318304797882, 35.662101249726831 ], [ 139.76434139112223, 35.662132555539621 ], [ 139.764427863191372, 35.662245551721597 ], [ 139.764789501834969, 35.661974445988037 ], [ 139.766666666438709, 35.660566943592201 ], [ 139.766670194342453, 35.660564277604813 ], [ 139.767067637614105, 35.660266251477452 ], [ 139.767142888817233, 35.660209779438453 ], [ 139.767067721906955, 35.660154392899216 ], [ 139.767024249108658, 35.660122279474606 ], [ 139.767067806199805, 35.660081308372042 ], [ 139.767070664719142, 35.660078503440687 ], [ 139.767133219931395, 35.660027693368392 ], [ 139.767180307405482, 35.659989501145191 ], [ 139.767305804585419, 35.660087639006584 ], [ 139.767678805409474, 35.659807970850999 ], [ 139.767406279184598, 35.659588422013563 ], [ 139.76726786288566, 35.659502997525237 ], [ 139.767068388812163, 35.659359025522392 ], [ 139.766921803544278, 35.659253219690761 ], [ 139.766851168614352, 35.659193942720414 ], [ 139.766670194342453, 35.659091949163901 ], [ 139.766666666438709, 35.659089977896357 ], [ 139.76628263812637, 35.658873468458218 ], [ 139.766240528888886, 35.658897497080687 ], [ 139.76623666629294, 35.658895438973161 ], [ 139.766231665743533, 35.658901135675848 ], [ 139.766173525989132, 35.658865548652045 ], [ 139.766180807403941, 35.658857811209828 ], [ 139.766215501349734, 35.658842492637355 ], [ 139.76524485925367, 35.658333332466619 ] ] ] } }
]
}
