{
"type": "FeatureCollection",
"crs": { "type": "name", "properties": { "name": "urn:ogc:def:crs:EPSG::4612" } },
"features": [
{ "type": "Feature", "properties": { "P12_001": 10011, "P12_002": "百舌鳥・古市古墳群（仁徳天皇陵、応神天皇陵）", "P12_003": "27", "P12_004": "27141、27222", "P12_005": "史跡", "P12_006": "堺市　および　羽曳野市", "P12_007": -1 }, "geometry": { "type": "Point", "coordinates": [ 135.487301821136327, 34.56361387179188 ] } },
{ "type": "Feature", "properties": { "P12_001": 10002, "P12_002": "四天王寺", "P12_003": "27", "P12_004": "27109", "P12_005": "神社・寺院・教会", "P12_006": "大阪市天王寺区四天王寺1-11-8", "P12_007": -1 }, "geometry": { "type": "Point", "coordinates": [ 135.516475760084234, 34.653806930063084 ] } },
{ "type": "Feature", "properties": { "P12_001": 10003, "P12_002": "住吉大社", "P12_003": "27", "P12_004": "27120", "P12_005": "神社・寺院・教会", "P12_006": "大阪市住吉区住吉2-9", "P12_007": -1 }, "geometry": { "type": "Point", "coordinates": [ 135.493041702173798, 34.613148887828494 ] } },
{ "type": "Feature", "properties": { "P12_001": 10010, "P12_002": "大阪城（大阪城公園）", "P12_003": "27", "P12_004": "27128", "P12_005": "城跡・城郭・宮殿", "P12_006": "大阪市中央区大阪城1-1", "P12_007": -1 }, "geometry": { "type": "Point", "coordinates": [ 135.525880380008573, 34.686303919826237 ] } },
{ "type": "Feature", "properties": { "P12_001": 10009, "P12_002": "道頓堀", "P12_003": "27", "P12_004": "27128", "P12_005": "集落・街", "P12_006": "大阪市中央区", "P12_007": -1 }, "geometry": { "type": "Point", "coordinates": [ 135.502715999973901, 34.668552000050752 ] } },
{ "type": "Feature", "properties": { "P12_001": 10005, "P12_002": "大阪市中央公会堂", "P12_003": "27", "P12_004": "27127", "P12_005": "建造物", "P12_006": "大阪市北区中之島1", "P12_007": -1 }, "geometry": { "type": "Point", "coordinates": [ 135.504023957154715, 34.693540981484745 ] } },
{ "type": "Feature", "properties": { "P12_001": 10014, "P12_002": "太陽の塔", "P12_003": "27", "P12_004": "27205", "P12_005": "建造物", "P12_006": "吹田市千里万博公園1-1", "P12_007": -1 }, "geometry": { "type": "Point", "coordinates": [ 135.532454229952691, 34.809545450218671 ] } },
{ "type": "Feature", "properties": { "P12_001": 10004, "P12_002": "天神祭", "P12_003": "27", "P12_004": "27127", "P12_005": "年中行事", "P12_006": "大阪市北区天神橋2-1-8", "P12_007": -1 }, "geometry": { "type": "Point", "coordinates": [ 135.512665000045729, 34.696026000033925 ] } },
{ "type": "Feature", "properties": { "P12_001": 10012, "P12_002": "岸和田地車祭", "P12_003": "27", "P12_004": "27202", "P12_005": "年中行事", "P12_006": "岸和田市", "P12_007": -1 }, "geometry": { "type": "Point", "coordinates": [ 135.378132510041581, 34.461213169858588 ] } },
{ "type": "Feature", "properties": { "P12_001": 10013, "P12_002": "国立民族学博物館", "P12_003": "27", "P12_004": "27205", "P12_005": "博物館・美術館", "P12_006": "吹田市千里万博公園10-1", "P12_007": -1 }, "geometry": { "type": "Point", "coordinates": [ 135.529868840070947, 34.812787599860108 ] } },
{ "type": "Feature", "properties": { "P12_001": 10001, "P12_002": "ユニバーサル・スタジオ・ジャパン", "P12_003": "27", "P12_004": "27104", "P12_005": "テーマ・公園テーマ施設", "P12_006": "大阪市此花区此花区桜島2-1-33", "P12_007": -1 }, "geometry": { "type": "Point", "coordinates": [ 135.432337999968922, 34.665441999784193 ] } },
{ "type": "Feature", "properties": { "P12_001": 10008, "P12_002": "大阪のたこ焼き", "P12_003": "27", "P12_004": "27128", "P12_005": "食", "P12_006": "大阪市中央区", "P12_007": -1 }, "geometry": { "type": "Point", "coordinates": [ 135.519716999947889, 34.686316999871643 ] } },
{ "type": "Feature", "properties": { "P12_001": 10007, "P12_002": "国立文楽劇場で上演される文楽", "P12_003": "27", "P12_004": "27128", "P12_005": "芸能・興行・イベント", "P12_006": "大阪市中央区日本橋1-12-10", "P12_007": -1 }, "geometry": { "type": "Point", "coordinates": [ 135.508653219556777, 34.667538909694862 ] } },
{ "type": "Feature", "properties": { "P12_001": 10006, "P12_002": "なんばグランド花月（ＮＧＫ）で上演されるお笑い", "P12_003": "27", "P12_004": "27128", "P12_005": "芸能・興行・イベント", "P12_006": "大阪市中央区難波千日前11", "P12_007": -1 }, "geometry": { "type": "Point", "coordinates": [ 135.503656000120458, 34.66498399999476 ] } },
{ "type": "Feature", "properties": { "P12_001": 10011, "P12_002": "百舌鳥・古市古墳群（仁徳天皇陵、応神天皇陵）", "P12_003": "27", "P12_004": "27141、27222", "P12_005": "史跡", "P12_006": "堺市　および　羽曳野市", "P12_007": -1 }, "geometry": { "type": "Point", "coordinates": [ 135.609212000039378, 34.562604000012001 ] } },
{ "type": "Feature", "properties": { "P12_001": 10002, "P12_002": "四天王寺", "P12_003": "27", "P12_004": "27109", "P12_005": "神社・寺院・教会", "P12_006": "大阪市天王寺区四天王寺1-11-8", "P12_007": -1 }, "geometry": { "type": "Polygon", "coordinates": [ [ [ 135.516962693929003, 34.652560832993764 ], [ 135.516574556220178, 34.652708500258399 ], [ 135.516467972223722, 34.652750000123106 ], [ 135.514745465589783, 34.653415251466051 ], [ 135.514736887787564, 34.653595365898234 ], [ 135.514765478004421, 34.653595365898234 ], [ 135.514765478004421, 34.653661121577173 ], [ 135.515205758474252, 34.653678275598189 ], [ 135.515188602869841, 34.653992761837657 ], [ 135.515424861044011, 34.654002138667444 ], [ 135.515409444032571, 34.654308611089562 ], [ 135.515335805985529, 34.654308305901189 ], [ 135.51534794398691, 34.654563028334159 ], [ 135.515336778055769, 34.655076860786451 ], [ 135.515314694186799, 34.655124082833574 ], [ 135.515304611279646, 34.655450861148921 ], [ 135.515272917043916, 34.655476527867371 ], [ 135.515268527972921, 34.655556639040846 ], [ 135.515260332730577, 34.655561111035354 ], [ 135.515256999694174, 34.655662527986806 ], [ 135.515262417001907, 34.655669306001485 ], [ 135.51535244398795, 34.655667416976193 ], [ 135.515483077918248, 34.65566811556765 ], [ 135.515483077918248, 34.655473703314669 ], [ 135.515717513249712, 34.655470845698055 ], [ 135.515714653990216, 34.655542319398748 ], [ 135.516209528310469, 34.655551361207394 ], [ 135.516200680305104, 34.655702423609689 ], [ 135.516699722240617, 34.655677249840181 ], [ 135.516681833285418, 34.655943138936479 ], [ 135.516688889337246, 34.656136999947101 ], [ 135.516693416969702, 34.656299222019292 ], [ 135.516923333324343, 34.656286444032169 ], [ 135.517115000300436, 34.656275139182029 ], [ 135.518293221822489, 34.656179500006402 ], [ 135.518292971974375, 34.656173527830667 ], [ 135.518315721732478, 34.65617247204267 ], [ 135.51830830580613, 34.656013055844504 ], [ 135.518295555775495, 34.655728556144297 ], [ 135.518283693684253, 34.655381332730869 ], [ 135.518272860780911, 34.655137222266418 ], [ 135.518264972171465, 34.654967722192914 ], [ 135.518254028314317, 34.654726306194348 ], [ 135.518250194202437, 34.654640278040191 ], [ 135.518248361324908, 34.654598721918134 ], [ 135.518246861308711, 34.654564388912171 ], [ 135.518246027990159, 34.654545166913486 ], [ 135.518244666701861, 34.654521721807058 ], [ 135.518224278076389, 34.654462582762548 ], [ 135.518209860742843, 34.654409777693594 ], [ 135.518215860760051, 34.65440755608158 ], [ 135.518081499819431, 34.654158667017853 ], [ 135.517924971830155, 34.653870472258824 ], [ 135.517677221925908, 34.653416027737798 ], [ 135.517558416748386, 34.65320730571321 ], [ 135.517477278049682, 34.653091582840965 ], [ 135.517400889057456, 34.652999332871865 ], [ 135.517376499794295, 34.652974443841558 ], [ 135.517356416993209, 34.652954527854689 ], [ 135.517334138990805, 34.652939583140771 ], [ 135.51731241670845, 34.652925527877237 ], [ 135.517285778193838, 34.652909193726302 ], [ 135.517272722291267, 34.652902360870669 ], [ 135.517244444247865, 34.652889193729642 ], [ 135.517219416703227, 34.652876027960744 ], [ 135.517205832711994, 34.652868305964567 ], [ 135.517196055819454, 34.652861055804223 ], [ 135.517188999791415, 34.652854722182767 ], [ 135.517182500220628, 34.652846582881871 ], [ 135.517173278287231, 34.652835722070854 ], [ 135.516962693929003, 34.652560832993764 ] ] ] } },
{ "type": "Feature", "properties": { "P12_001": 10003, "P12_002": "住吉大社", "P12_003": "27", "P12_004": "27120", "P12_005": "神社・寺院・教会", "P12_006": "大阪市住吉区住吉2-9", "P12_007": -1 }, "geometry": { "type": "Polygon", "coordinates": [ [ [ 135.491186055747619, 34.612070833159123 ], [ 135.491236167003393, 34.61228130606645 ], [ 135.491309889014815, 34.612584832967073 ], [ 135.491324610817344, 34.612639666974367 ], [ 135.491330888932367, 34.612663027716906 ], [ 135.491443110764948, 34.612942972076745 ], [ 135.491570055779221, 34.613274388679962 ], [ 135.491591499678378, 34.61333291703788 ], [ 135.491685500288895, 34.613598582919536 ], [ 135.491698917017175, 34.613635777747035 ], [ 135.491760111048194, 34.613619944246672 ], [ 135.491825666970612, 34.613602194278407 ], [ 135.491885750179733, 34.613584416911792 ], [ 135.491934944176336, 34.61356208278842 ], [ 135.491973221923445, 34.613544222120204 ], [ 135.492019527792621, 34.613548917063781 ], [ 135.492041166752614, 34.613578305841045 ], [ 135.492041111204372, 34.613587305821838 ], [ 135.491997222016067, 34.613629944067952 ], [ 135.491942417196555, 34.613679306195984 ], [ 135.491898638962027, 34.613706167199084 ], [ 135.491863110757123, 34.613717306109969 ], [ 135.49181672170829, 34.613728361011056 ], [ 135.491767667224309, 34.613725916892591 ], [ 135.491732249996971, 34.613723499818377 ], [ 135.491767667224309, 34.613725916892591 ], [ 135.49181672170829, 34.613728361011056 ], [ 135.491863110757123, 34.613717306109969 ], [ 135.491898638962027, 34.613706167199084 ], [ 135.492020583042518, 34.613823889088373 ], [ 135.492248360956779, 34.613965278280702 ], [ 135.492454396067245, 34.613901323013991 ], [ 135.492534445702034, 34.614104308072562 ], [ 135.492941000288226, 34.613987721731895 ], [ 135.493491305986311, 34.613849832844387 ], [ 135.493621832957757, 34.614231110809818 ], [ 135.493673333275922, 34.614217166644586 ], [ 135.493785777800753, 34.614190861133011 ], [ 135.493944417050756, 34.614152000229289 ], [ 135.494009111262216, 34.614136444076337 ], [ 135.49404197170162, 34.614112333132525 ], [ 135.494044805969139, 34.614095360852403 ], [ 135.494059916965966, 34.613986417057127 ], [ 135.494077721980545, 34.61384216710556 ], [ 135.494103500306096, 34.613620139000673 ], [ 135.494113305733663, 34.613517860705379 ], [ 135.494125082933152, 34.613379611080347 ], [ 135.494300111288595, 34.613285667194049 ], [ 135.494423166785424, 34.613225333156691 ], [ 135.494442306051354, 34.613214139006494 ], [ 135.494464250265025, 34.613191693784813 ], [ 135.494472555700213, 34.613171443794833 ], [ 135.494467389001528, 34.613124083206792 ], [ 135.494446277987521, 34.613006806064824 ], [ 135.494430777772635, 34.612869278180419 ], [ 135.494420417243219, 34.612776806014701 ], [ 135.494415443917063, 34.612700166995253 ], [ 135.494549361042573, 34.612575250096405 ], [ 135.494543222273677, 34.612564999927713 ], [ 135.494540499744659, 34.612566332753282 ], [ 135.494529750020945, 34.612542832805893 ], [ 135.494751138723728, 34.612443694077903 ], [ 135.494788388995062, 34.61241452780709 ], [ 135.494735888975242, 34.612349860980068 ], [ 135.494644416760309, 34.612239499951073 ], [ 135.494513472035749, 34.612077583023002 ], [ 135.494408499770202, 34.611945999960241 ], [ 135.494333472042484, 34.611819028096839 ], [ 135.494289944274357, 34.611534860629263 ], [ 135.494277138695509, 34.611501971901276 ], [ 135.494261861315579, 34.611462749905925 ], [ 135.494237333300759, 34.61139986096164 ], [ 135.494182167061069, 34.611326167065315 ], [ 135.49411397178929, 34.611059860974144 ], [ 135.494016389197839, 34.61104255615156 ], [ 135.493546520664268, 34.611045213348604 ], [ 135.493537942862048, 34.611248199823571 ], [ 135.493300648247356, 34.611271071822088 ], [ 135.493194870128235, 34.611251058812321 ], [ 135.492966148369646, 34.611205315434958 ], [ 135.49290897288202, 34.611156713068844 ], [ 135.492705984553879, 34.611148136058333 ], [ 135.492701472044985, 34.611051388732434 ], [ 135.49225327794997, 34.611059444023532 ], [ 135.491980332762552, 34.61106613904645 ], [ 135.491906943778957, 34.611067471872019 ], [ 135.491914638706731, 34.611076055920229 ], [ 135.491922582721713, 34.611116666644392 ], [ 135.49193583306689, 34.611177555819182 ], [ 135.491914049814653, 34.611239622813059 ], [ 135.491179295366464, 34.611528379039029 ], [ 135.491106221980488, 34.611592889089074 ], [ 135.491102832777614, 34.611705139054841 ], [ 135.491174082702599, 34.612016778212102 ], [ 135.491186055747619, 34.612070833159123 ] ] ] } },
{ "type": "Feature", "properties": { "P12_001": 10010, "P12_002": "大阪城（大阪城公園）", "P12_003": "27", "P12_004": "27128", "P12_005": "城跡・城郭・宮殿", "P12_006": "大阪市中央区大阪城1-1", "P12_007": -1 }, "geometry": { "type": "Polygon", "coordinates": [ [ [ 135.522495972023791, 34.690778249972631 ], [ 135.522491193615792, 34.690807222153374 ], [ 135.522507361265468, 34.690809278180225 ], [ 135.522613694034618, 34.690820972228536 ], [ 135.522723083287957, 34.690778583267544 ], [ 135.522848500060121, 34.690794833010322 ], [ 135.522987527836705, 34.690820167496149 ], [ 135.523134666891195, 34.690854555697165 ], [ 135.523265444019898, 34.69088886059658 ], [ 135.523360777669012, 34.690920805697168 ], [ 135.523371582655585, 34.690936610736891 ], [ 135.523502416878159, 34.690964167498663 ], [ 135.523870166722418, 34.691067028329734 ], [ 135.524172555847798, 34.69115386055234 ], [ 135.524237861303817, 34.691183417437713 ], [ 135.524561971784152, 34.691290610748602 ], [ 135.524760778158196, 34.691354471426841 ], [ 135.524847943720829, 34.691381860832955 ], [ 135.525414721846715, 34.691519305725599 ], [ 135.525463832663661, 34.691519416469809 ], [ 135.525515721866981, 34.691512833253391 ], [ 135.525551250071885, 34.691499471668202 ], [ 135.526668889283059, 34.691213083296802 ], [ 135.526723556135607, 34.691197499745499 ], [ 135.526756360717627, 34.691186360790354 ], [ 135.52743213904526, 34.690866694138698 ], [ 135.527475917113321, 34.690844333325174 ], [ 135.52756694380102, 34.69081161053645 ], [ 135.527828693737519, 34.690708222320396 ], [ 135.527872388649683, 34.690699360526416 ], [ 135.527946138887017, 34.690686138854275 ], [ 135.528030806301246, 34.6906751939892 ], [ 135.52811269392609, 34.690668749623534 ], [ 135.528213639159048, 34.690671388894359 ], [ 135.528366389060267, 34.690680999871567 ], [ 135.528633666782696, 34.690702305649552 ], [ 135.528996389131777, 34.69073077828628 ], [ 135.529140943790679, 34.690742583078801 ], [ 135.529181861053615, 34.690747249871578 ], [ 135.529220055930182, 34.690745139048026 ], [ 135.529252832738109, 34.690738528034906 ], [ 135.529291167127298, 34.690718389143235 ], [ 135.529313193735931, 34.690682417415132 ], [ 135.529438471922873, 34.690685222315381 ], [ 135.529457805940496, 34.690685222315381 ], [ 135.529465888992519, 34.690701028019035 ], [ 135.529482193990901, 34.690714610782805 ], [ 135.529509417069761, 34.690725972244401 ], [ 135.529539361013121, 34.690732861003283 ], [ 135.529572139033775, 34.690728472310376 ], [ 135.531794972203556, 34.689970527932971 ], [ 135.531926888998328, 34.689923556189001 ], [ 135.532136611146285, 34.689850193817108 ], [ 135.53218033288141, 34.689839083012771 ], [ 135.532229527638947, 34.689825749578382 ], [ 135.532267778087544, 34.689816888846707 ], [ 135.534337755633743, 34.689628922331522 ], [ 135.534322833063356, 34.68957127784693 ], [ 135.534307860937133, 34.689517111093402 ], [ 135.534304305993146, 34.689506277680735 ], [ 135.534269806024952, 34.689509389097225 ], [ 135.534256611085368, 34.689460527664025 ], [ 135.534063222019029, 34.688711666923112 ], [ 135.53404201591195, 34.688634054753322 ], [ 135.534013778007846, 34.688186666700936 ], [ 135.534008555927414, 34.688129138935956 ], [ 135.533986829459934, 34.687853180349563 ], [ 135.533856000016982, 34.686452332827997 ], [ 135.533852027938138, 34.686406360924515 ], [ 135.533830832959723, 34.686158361001333 ], [ 135.533703555987728, 34.68455488876036 ], [ 135.533698416944276, 34.684490167048125 ], [ 135.533651443949452, 34.683893471990928 ], [ 135.533607610927618, 34.683333332968104 ], [ 135.533598582961247, 34.683218056259577 ], [ 135.533582138925823, 34.683002166668047 ], [ 135.533544417041469, 34.682513416937766 ], [ 135.533531944014811, 34.682357999924506 ], [ 135.533528971923005, 34.682320805805205 ], [ 135.533509222030801, 34.682075138902178 ], [ 135.533481721924176, 34.681722110624413 ], [ 135.533449667029231, 34.681699556074918 ], [ 135.533399250044198, 34.681664111023601 ], [ 135.533360528006369, 34.681636888973138 ], [ 135.532406083023744, 34.681643167045443 ], [ 135.532359749998733, 34.681643499986258 ], [ 135.532057778008209, 34.681645527862308 ], [ 135.531810000020698, 34.681648167133133 ], [ 135.531469749973951, 34.681651277841432 ], [ 135.531351083072508, 34.681651889236207 ], [ 135.531167306061263, 34.681655027741215 ], [ 135.530887638943682, 34.681656056086602 ], [ 135.530536249955162, 34.681659332778423 ], [ 135.530316083028083, 34.681661861305045 ], [ 135.529875861031314, 34.681664527974213 ], [ 135.529855250022678, 34.681664693957742 ], [ 135.529750110922208, 34.681665944145649 ], [ 135.529498000053962, 34.681668638965625 ], [ 135.529469528043535, 34.681668888914679 ], [ 135.52924499998602, 34.681676332811001 ], [ 135.52920275001739, 34.681685694193249 ], [ 135.529103249989561, 34.681708361257442 ], [ 135.529015500005329, 34.681728389050811 ], [ 135.52882669397701, 34.681769722268065 ], [ 135.528576832954712, 34.681824693753974 ], [ 135.528383694045658, 34.68186827806192 ], [ 135.528179527933361, 34.681912610933423 ], [ 135.528019111044927, 34.681945916966122 ], [ 135.527995083035506, 34.68195088894727 ], [ 135.527878082961394, 34.681973416762354 ], [ 135.52769411105578, 34.682002056046542 ], [ 135.527541833076725, 34.682021693933542 ], [ 135.527380499975408, 34.682038361025299 ], [ 135.527272471986578, 34.682049221880575 ], [ 135.527255444005164, 34.682050610919234 ], [ 135.527184305961327, 34.682056499793369 ], [ 135.52720125000215, 34.682208832832742 ], [ 135.527207193995537, 34.682244360831561 ], [ 135.527142805988916, 34.682224694085555 ], [ 135.527120971944299, 34.682226889007417 ], [ 135.527039082940263, 34.682233332974718 ], [ 135.526834277951963, 34.682266332845273 ], [ 135.52675233306681, 34.682281777855664 ], [ 135.526700444006138, 34.682290610790638 ], [ 135.526634916951679, 34.68229936077811 ], [ 135.526138193988317, 34.68232672207769 ], [ 135.526135583031305, 34.682308694053823 ], [ 135.526056444045082, 34.68231288901076 ], [ 135.526029138999263, 34.682315028029379 ], [ 135.526015805950038, 34.682260889072559 ], [ 135.525917582936955, 34.682262778053591 ], [ 135.525911444025411, 34.682171416870929 ], [ 135.525754778069171, 34.682185249893593 ], [ 135.523450027978555, 34.682392278089509 ], [ 135.523362582938887, 34.682409917269304 ], [ 135.523286528044537, 34.682430833140927 ], [ 135.523229999922052, 34.682452250017214 ], [ 135.523204916971878, 34.682462193935244 ], [ 135.523151083009822, 34.682487778016025 ], [ 135.522872693953303, 34.682645916937773 ], [ 135.522560000013215, 34.682823027864885 ], [ 135.522491111054393, 34.68286258280105 ], [ 135.522416222078363, 34.682904582917971 ], [ 135.522387944058721, 34.682921472206338 ], [ 135.522326416999903, 34.682958750025591 ], [ 135.52207077803439, 34.683099305980633 ], [ 135.521878055927289, 34.683209889161979 ], [ 135.521824417026096, 34.683240777810624 ], [ 135.521762000006646, 34.683277944177483 ], [ 135.521711056003028, 34.683311082854523 ], [ 135.521679833047443, 34.683332167144094 ], [ 135.521593027977588, 34.683437278092079 ], [ 135.521584694007373, 34.6834593330533 ], [ 135.521565166926365, 34.683535444023832 ], [ 135.521511138973551, 34.683731306176092 ], [ 135.521458167031568, 34.683928083096752 ], [ 135.521454832925087, 34.683933917129934 ], [ 135.521448806061159, 34.683941111032929 ], [ 135.521433999985106, 34.683954583052497 ], [ 135.5214268329795, 34.683964028090443 ], [ 135.5214229720209, 34.683972110779884 ], [ 135.52133824998586, 34.684285527864141 ], [ 135.521322638959873, 34.684344055867967 ], [ 135.52123063896542, 34.684682666772538 ], [ 135.521216721946416, 34.68473038911614 ], [ 135.521206749993041, 34.684760555979899 ], [ 135.521056778050195, 34.685216583275555 ], [ 135.52102958305457, 34.685299861060571 ], [ 135.520976110964511, 34.685460694094104 ], [ 135.520904694061926, 34.685676221930073 ], [ 135.5208668610573, 34.685790082821271 ], [ 135.520763221996816, 34.686107916749243 ], [ 135.520716332942584, 34.686256499844575 ], [ 135.520604916987367, 34.686609972161463 ], [ 135.520601472069785, 34.686680360861061 ], [ 135.520459166971506, 34.687103250143608 ], [ 135.5204483059849, 34.68713552822927 ], [ 135.520423027950073, 34.687210638916696 ], [ 135.52038286099247, 34.687286583239768 ], [ 135.520229472072629, 34.687749333000951 ], [ 135.520217693945767, 34.688071222282652 ], [ 135.520233583045808, 34.688096972302695 ], [ 135.520238056057423, 34.688100860743397 ], [ 135.520244971954611, 34.688106472225861 ], [ 135.520375306029109, 34.688211721670505 ], [ 135.521619721755087, 34.689116888520957 ], [ 135.522380193868059, 34.689196222006288 ], [ 135.522617000200512, 34.689217638528483 ], [ 135.522619332940792, 34.689219916751945 ], [ 135.522626611042853, 34.689237778128351 ], [ 135.522632582976797, 34.689253556079557 ], [ 135.52264419398341, 34.689270528005586 ], [ 135.522655500021642, 34.689279943874695 ], [ 135.522666832930412, 34.689288639021214 ], [ 135.522688972062269, 34.689302000252304 ], [ 135.522711667033093, 34.68931147202467 ], [ 135.522738556014076, 34.689320528218552 ], [ 135.522728666931243, 34.689544472038882 ], [ 135.522673944078662, 34.68996877780269 ], [ 135.522621221984821, 34.690103527875358 ], [ 135.522534888979777, 34.690769388886849 ], [ 135.522516556043001, 34.690768222354642 ], [ 135.522515194017558, 34.690779417213037 ], [ 135.522495972023791, 34.690778249972631 ] ] ] } }
]
}
