{
"type": "FeatureCollection",
"crs": { "type": "name", "properties": { "name": "urn:ogc:def:crs:EPSG::4612" } },
"features": [
{ "type": "Feature", "properties": { "P12_001": 10009, "P12_002": "飯豊山", "P12_003": "06", "P12_004": "06401", "P12_005": "山岳", "P12_006": "小国町", "P12_007": -1 }, "geometry": { "type": "Point", "coordinates": [ 139.705996601640351, 37.856202569670039 ] } },
{ "type": "Feature", "properties": { "P12_001": 10010, "P12_002": "鳥海山", "P12_003": "06", "P12_004": "06461", "P12_005": "山岳", "P12_006": "遊佐町", "P12_007": -1 }, "geometry": { "type": "Point", "coordinates": [ 140.050833000209707, 39.09916699965531 ] } },
{ "type": "Feature", "properties": { "P12_001": 10005, "P12_002": "月山", "P12_003": "06", "P12_004": "06203", "P12_005": "山岳", "P12_006": "鶴岡市", "P12_007": -1 }, "geometry": { "type": "Point", "coordinates": [ 140.026996999950342, 38.549430000347996 ] } },
{ "type": "Feature", "properties": { "P12_001": 10006, "P12_002": "最上川", "P12_003": "06", "P12_004": "06204、06367、06428", "P12_005": "河川・峡谷", "P12_006": "酒田市　および　庄内町　および　戸沢村", "P12_007": -1 }, "geometry": { "type": "Point", "coordinates": [ 139.933125158707526, 38.874500470423278 ] } },
{ "type": "Feature", "properties": { "P12_001": 10007, "P12_002": "蔵王の樹氷", "P12_003": "06", "P12_004": "06207", "P12_005": "自然現象", "P12_006": "上山市", "P12_007": -1 }, "geometry": { "type": "Point", "coordinates": [ 140.436596080937562, 38.139400966732573 ] } },
{ "type": "Feature", "properties": { "P12_001": 10003, "P12_002": "立石寺（山寺）", "P12_003": "06", "P12_004": "06201", "P12_005": "神社・寺院・教会", "P12_006": "山形市山寺4456-1", "P12_007": -1 }, "geometry": { "type": "Point", "coordinates": [ 140.434832455189792, 38.31185966497015 ] } },
{ "type": "Feature", "properties": { "P12_001": 10004, "P12_002": "出羽三山神社", "P12_003": "06", "P12_004": "06203", "P12_005": "神社・寺院・教会", "P12_006": "鶴岡市羽黒町手向字手向7", "P12_007": -1 }, "geometry": { "type": "Point", "coordinates": [ 139.981882000012206, 38.702572999521777 ] } },
{ "type": "Feature", "properties": { "P12_001": 10002, "P12_002": "花笠まつり", "P12_003": "06", "P12_004": "06201", "P12_005": "年中行事", "P12_006": "山形市", "P12_007": -1 }, "geometry": { "type": "Point", "coordinates": [ 140.338241002989236, 38.251523383998453 ] } },
{ "type": "Feature", "properties": { "P12_001": 10008, "P12_002": "銀山温泉の旅館街と共同浴場群", "P12_003": "06", "P12_004": "06212", "P12_005": "温泉", "P12_006": "尾花沢市", "P12_007": -1 }, "geometry": { "type": "Point", "coordinates": [ 140.529466201386469, 38.57119323788617 ] } },
{ "type": "Feature", "properties": { "P12_001": 10001, "P12_002": "蔵王温泉の酸性泉と源泉浴場群", "P12_003": "06", "P12_004": "06201", "P12_005": "温泉", "P12_006": "山形市", "P12_007": -1 }, "geometry": { "type": "Point", "coordinates": [ 140.395670000241239, 38.167088000096896 ] } },
{ "type": "Feature", "properties": { "P12_001": 10006, "P12_002": "最上川", "P12_003": "06", "P12_004": "06204、06367、06428", "P12_005": "河川・峡谷", "P12_006": "酒田市　および　庄内町　および　戸沢村", "P12_007": -1 }, "geometry": { "type": "LineString", "coordinates": [ [ 140.193675547514573, 38.722736228608127 ], [ 140.193548547892476, 38.722815629508005 ], [ 140.19335896639322, 38.722968818858725 ], [ 140.193168391751215, 38.723135789814592 ], [ 140.192911304315203, 38.723439635306981 ], [ 140.192674710717085, 38.723719204129601 ], [ 140.192490722057755, 38.723940673232001 ], [ 140.192269655041059, 38.724214127384613 ], [ 140.192051568995311, 38.72448309878672 ], [ 140.191849569933481, 38.724720758840739 ], [ 140.191638782619094, 38.724958439206624 ], [ 140.191436006013276, 38.725173204992991 ], [ 140.191170410718769, 38.725437967257477 ], [ 140.190898445040375, 38.725702624776417 ], [ 140.190577263836104, 38.726029968316801 ], [ 140.190343175271806, 38.726264946805443 ], [ 140.190096194750538, 38.726493306610848 ], [ 140.189823818701683, 38.726739763497669 ], [ 140.189558546998171, 38.726965022954694 ], [ 140.189300963183655, 38.727178993989284 ], [ 140.18902908312765, 38.727406452903423 ], [ 140.188780893479219, 38.727611753357444 ], [ 140.188745391422572, 38.727641138662143 ], [ 140.188475412029618, 38.727851485620675 ], [ 140.188238343265738, 38.728030269921476 ], [ 140.187994450936287, 38.728194644143905 ], [ 140.187737881862944, 38.728368506001921 ], [ 140.187491397720208, 38.728515684233344 ], [ 140.187263528350712, 38.728651154064515 ], [ 140.187052935036604, 38.728769742937828 ], [ 140.186836662103104, 38.728876728355552 ], [ 140.186634188646877, 38.728965114670018 ], [ 140.186342895060903, 38.729067994899104 ], [ 140.186076133450428, 38.729148464163622 ], [ 140.185783263563707, 38.729223342286659 ], [ 140.185516696339249, 38.729275242305796 ], [ 140.185205621664039, 38.729321216236706 ], [ 140.184884765207812, 38.729348800953701 ], [ 140.184476297749001, 38.729370289520325 ], [ 140.184165245057926, 38.729387674093125 ], [ 140.183882265330141, 38.729396260638303 ], [ 140.183600193122686, 38.72939236533901 ], [ 140.183531996421436, 38.729391066972291 ], [ 140.183258929222376, 38.729385851998721 ], [ 140.182926863945113, 38.729369660847972 ], [ 140.182579013676445, 38.729336150241892 ], [ 140.182135864901852, 38.729289652583297 ], [ 140.181671013162259, 38.729233542430848 ], [ 140.181381037081337, 38.729194647983874 ], [ 140.181095661083333, 38.729151732184512 ], [ 140.180843691321485, 38.729113947522464 ], [ 140.180571638863626, 38.729065544132354 ], [ 140.180451506775341, 38.729041604998116 ], [ 140.180312759528135, 38.729013936644002 ], [ 140.180069881939886, 38.728962035430051 ], [ 140.179901507027125, 38.728914156962432 ], [ 140.179543549458032, 38.728793954689252 ], [ 140.179134305226626, 38.728653562216159 ], [ 140.178711261132236, 38.728507179931327 ], [ 140.178233927420422, 38.728334784112548 ], [ 140.177791578173952, 38.728170892396641 ], [ 140.177327547175196, 38.727997491538467 ], [ 140.176876602905082, 38.727828404961734 ], [ 140.176460253171285, 38.727674713190879 ], [ 140.176021315707601, 38.727517732290721 ], [ 140.175630858651289, 38.727383938188993 ], [ 140.175214810910006, 38.727247943634467 ], [ 140.174808978847039, 38.72711385580714 ], [ 140.174388720566242, 38.726970469125156 ], [ 140.173974185101741, 38.726836255244741 ], [ 140.173655811309516, 38.726734967107973 ], [ 140.173382549724465, 38.726649365312191 ], [ 140.173140297719698, 38.726576876622019 ], [ 140.172898629644294, 38.72651289064077 ], [ 140.172532380201147, 38.726428084990722 ], [ 140.172162719360898, 38.726341080879237 ], [ 140.171946943191614, 38.726287672404901 ], [ 140.171587798479493, 38.726208396562434 ], [ 140.171236428050122, 38.726134399417056 ], [ 140.171015555033733, 38.726096383558115 ], [ 140.170588084801096, 38.726027392691776 ], [ 140.170061557933252, 38.72594729959517 ], [ 140.169573600101103, 38.725871417826689 ], [ 140.169217629588871, 38.725821401235841 ], [ 140.168878179957858, 38.725787513067907 ], [ 140.168362623171163, 38.725746419163812 ], [ 140.167920856696981, 38.725715003070178 ], [ 140.167465701501669, 38.725692800999269 ], [ 140.167139834206438, 38.725685302732323 ], [ 140.166901556315366, 38.72567801435472 ], [ 140.166737154359254, 38.725679396557702 ], [ 140.166664573945269, 38.725680003922498 ], [ 140.166447307869021, 38.725699294226821 ], [ 140.166198923448889, 38.725734292179681 ], [ 140.166040524703163, 38.725767280452033 ], [ 140.165853340631173, 38.725822281018694 ], [ 140.165528877234806, 38.725961856038495 ], [ 140.165337977844757, 38.726063857679556 ], [ 140.165180875777025, 38.72615733271536 ], [ 140.165005093369359, 38.726276026533348 ], [ 140.164877899361272, 38.72638250973008 ], [ 140.164734099235233, 38.72651058623898 ], [ 140.164615391487217, 38.726631374569408 ], [ 140.164505689518961, 38.726775746178049 ], [ 140.164423693726121, 38.726884343800833 ], [ 140.164334895580481, 38.727011729307812 ], [ 140.164270780213769, 38.727144518569283 ], [ 140.16420487333329, 38.727295593294819 ], [ 140.164145573262545, 38.727495949998499 ], [ 140.164101260969176, 38.727676346504353 ], [ 140.164079558004119, 38.727802622226406 ], [ 140.164072949651654, 38.728005094750081 ], [ 140.164081825069388, 38.728340565229765 ], [ 140.16409469581356, 38.728756107498498 ], [ 140.164104650767825, 38.729121361953155 ], [ 140.164118536253198, 38.729560426166209 ], [ 140.164127800828624, 38.72997177941005 ], [ 140.16413086742196, 38.730645988191171 ], [ 140.164129009955786, 38.731119234098628 ], [ 140.164124691038353, 38.731650788619973 ], [ 140.164114541312415, 38.732137627351648 ], [ 140.164102728892004, 38.732588461298853 ], [ 140.16409409144282, 38.732871130668997 ], [ 140.164086273963164, 38.733248784525827 ], [ 140.164082861794697, 38.733533066101025 ], [ 140.164076923379639, 38.734035989843967 ], [ 140.164065499345526, 38.734400763186052 ], [ 140.164070379822505, 38.734627824624738 ], [ 140.164066752055277, 38.735117679072005 ], [ 140.164064139414933, 38.735469025669282 ], [ 140.16406411781648, 38.735760806507109 ], [ 140.164056883109112, 38.736156744832321 ], [ 140.164044357940014, 38.736464610681409 ], [ 140.164037944359222, 38.736729581839555 ], [ 140.164019826350199, 38.737000061497731 ], [ 140.163978126311491, 38.737318127491008 ], [ 140.163949017008605, 38.737484008774693 ], [ 140.163881899458175, 38.737759473603489 ], [ 140.163764099230491, 38.738172230357861 ], [ 140.163670680174874, 38.738441892761891 ], [ 140.163569962002271, 38.738705356858787 ], [ 140.163423764448964, 38.73900922226477 ], [ 140.163281151465981, 38.739309589846911 ], [ 140.163133766383936, 38.739561344348736 ], [ 140.162999770023021, 38.739779420372834 ], [ 140.162833359797304, 38.740019697472164 ], [ 140.162696362024093, 38.740169075359844 ], [ 140.162548350201462, 38.740300649891715 ], [ 140.162436359569512, 38.740410630713157 ], [ 140.162331969661437, 38.740489634137568 ], [ 140.162235074027734, 38.740555609487458 ], [ 140.162103473937066, 38.740630717612575 ], [ 140.161937690451907, 38.740717595471843 ], [ 140.161733791498364, 38.740783089709154 ], [ 140.161515402303053, 38.740849777368517 ], [ 140.161274424992172, 38.740914056876228 ], [ 140.161064954411472, 38.740954354634596 ], [ 140.160877553583674, 38.740982860355587 ], [ 140.160671279958365, 38.740995133704672 ], [ 140.160361306803793, 38.740993332718688 ], [ 140.160117219316987, 38.740973937469697 ], [ 140.159843958117619, 38.740940238082693 ], [ 140.159618960569787, 38.740905532660612 ], [ 140.159309397785677, 38.740844227448193 ], [ 140.158872144614918, 38.740742939311424 ], [ 140.158623976179257, 38.740682430244739 ], [ 140.158254617717233, 38.740596158555455 ], [ 140.158009342315978, 38.740542057884383 ], [ 140.157721676497204, 38.740491057760835 ], [ 140.157303815643701, 38.740421249441219 ], [ 140.156837863154806, 38.740357557185568 ], [ 140.156483620132406, 38.740310954781442 ], [ 140.155972858200272, 38.740263641262658 ], [ 140.155586309690932, 38.740229459369125 ], [ 140.155038166637524, 38.740184344112642 ], [ 140.154397338489929, 38.740138245124321 ], [ 140.153849173838069, 38.740097046474688 ], [ 140.153176039432168, 38.74005653982266 ], [ 140.152503617389243, 38.74001783415661 ], [ 140.151904985658859, 38.739989013601601 ], [ 140.151427738726511, 38.739959628296901 ], [ 140.150736291539914, 38.739926514967138 ], [ 140.150190243535548, 38.739902009689253 ], [ 140.149688702210568, 38.739881609600005 ], [ 140.149147555895951, 38.739868896359489 ], [ 140.149079056816504, 38.739866759431074 ], [ 140.148574016929274, 38.739851093202816 ], [ 140.148088477737161, 38.739844391081604 ], [ 140.147578125789778, 38.739841982730816 ], [ 140.14704937505357, 38.739838463599426 ], [ 140.146391032882008, 38.739842150204197 ], [ 140.145688292023323, 38.739844348466498 ], [ 140.144776987718558, 38.739850444616863 ], [ 140.144219731664521, 38.739853438825762 ], [ 140.143750993362062, 38.739855910700932 ], [ 140.14327044186777, 38.739863010297604 ], [ 140.142768684944031, 38.739862507877476 ], [ 140.142109046865812, 38.739865692062118 ], [ 140.141599300060534, 38.739868498884036 ], [ 140.141210937281926, 38.739871284597541 ], [ 140.140695078888371, 38.739883787749569 ], [ 140.140304513839823, 38.739890469957189 ], [ 140.139964458681021, 38.7398959772624 ], [ 140.139660683508509, 38.739907560804383 ], [ 140.139427912449293, 38.739923855505857 ], [ 140.139104140203131, 38.739954644321088 ], [ 140.138893158117043, 38.739984740939583 ], [ 140.138564095023469, 38.740032139489443 ], [ 140.137681576816334, 38.740159797414464 ], [ 140.13717431306074, 38.74023827731034 ], [ 140.13698162138553, 38.740271976697343 ], [ 140.136605266184716, 38.740337764461124 ], [ 140.136424300921874, 38.740368322278592 ], [ 140.135980525406723, 38.740443241622785 ], [ 140.135422470595955, 38.740546310632801 ], [ 140.134931813343997, 38.740639703027171 ], [ 140.134493156274402, 38.740722183167009 ], [ 140.134089698497547, 38.740803259796323 ], [ 140.133918710558731, 38.740841169515775 ], [ 140.133696930793405, 38.740903940568288 ], [ 140.133261469907836, 38.741023031861729 ], [ 140.132828017291871, 38.741147904272388 ], [ 140.132480642188966, 38.741240395775492 ], [ 140.132171986153793, 38.741342878529125 ], [ 140.131756025191976, 38.741477657358374 ], [ 140.131259170729351, 38.741636313987968 ], [ 140.130733529397702, 38.741804980985151 ], [ 140.130504731680816, 38.741895085445023 ], [ 140.13039315026225, 38.741970172262597 ], [ 140.130158262941194, 38.742169544238756 ], [ 140.129927176174903, 38.742358108905059 ], [ 140.129437922050442, 38.742729751841729 ], [ 140.12889336395304, 38.743135806474882 ], [ 140.128495391795269, 38.743428759427204 ], [ 140.128191227850778, 38.743654417554495 ], [ 140.128055136440821, 38.743755705691264 ], [ 140.12782774262277, 38.743892097920387 ], [ 140.127540379182221, 38.744037767696611 ], [ 140.127081099455467, 38.744261520092387 ], [ 140.126634646890352, 38.744476098292644 ], [ 140.126209788526666, 38.744679659293702 ], [ 140.125937909242026, 38.74480934920247 ], [ 140.125501648828333, 38.745012701508998 ], [ 140.125101280014633, 38.745205685003135 ], [ 140.124748310914754, 38.745375044197061 ], [ 140.124376857789343, 38.745552320241792 ], [ 140.123995189756982, 38.745732297964643 ], [ 140.123669517233452, 38.745887770608739 ], [ 140.123331751124027, 38.746033837860416 ], [ 140.12303657097516, 38.74615693059264 ], [ 140.122702908184408, 38.746275707052064 ], [ 140.122413622868009, 38.746368472168037 ], [ 140.122255548870299, 38.746412476643904 ], [ 140.12194158038929, 38.746494663058144 ], [ 140.121613619202066, 38.7465816470569 ], [ 140.121496919723654, 38.746608832904485 ], [ 140.121181051350931, 38.746679227281348 ], [ 140.120928585596261, 38.746729201456226 ], [ 140.120595312348883, 38.746783993328357 ], [ 140.120368738500332, 38.746816080510307 ], [ 140.119967678150743, 38.746857174414401 ], [ 140.119589940263836, 38.746884485319391 ], [ 140.11920427729072, 38.746906477500964 ], [ 140.118839906140806, 38.746924050655558 ], [ 140.118375961921544, 38.746942062705891 ], [ 140.117892409400582, 38.74695994969882 ], [ 140.117218670623942, 38.746976538125892 ], [ 140.116817027116383, 38.746989230058851 ], [ 140.116398560735064, 38.747005839793474 ], [ 140.116007714906743, 38.747032418276255 ], [ 140.115624168581149, 38.747063604566947 ], [ 140.115211209417367, 38.747108300044736 ], [ 140.114739749710935, 38.747155488705253 ], [ 140.114279908038952, 38.747206070244928 ], [ 140.113843259624645, 38.747278161658784 ], [ 140.113233506624027, 38.747396038222625 ], [ 140.11264267000351, 38.747519612266565 ], [ 140.111952130337244, 38.747669597319906 ], [ 140.111417699981644, 38.747789652033312 ], [ 140.110906052127604, 38.747910335618208 ], [ 140.110454891873076, 38.748025928888673 ], [ 140.110167421211656, 38.748098900085381 ], [ 140.109934044624623, 38.748173484681956 ], [ 140.109553175349021, 38.748306063854947 ], [ 140.109271103141566, 38.74842035895783 ], [ 140.108978622412508, 38.748548310409312 ], [ 140.108828559123396, 38.748631502858629 ], [ 140.108408970394379, 38.748882943522112 ], [ 140.108090316208063, 38.749081205912482 ], [ 140.107730847519292, 38.749322153900998 ], [ 140.107719035098853, 38.74933007075181 ], [ 140.107355053877995, 38.749581219083652 ], [ 140.107046181858408, 38.749799064109986 ], [ 140.106624822056972, 38.750081419641795 ], [ 140.10622855579058, 38.750354077648673 ], [ 140.105810090180626, 38.750639910095039 ], [ 140.105391624570672, 38.750923856723489 ], [ 140.10491865335888, 38.75124659384992 ], [ 140.104418385956393, 38.751586232046947 ], [ 140.104089020870305, 38.751807784786465 ], [ 140.103755250473, 38.752043140637824 ], [ 140.103497861044474, 38.752240711628005 ], [ 140.10323978008006, 38.752444963830115 ], [ 140.102960018520434, 38.752688236333157 ], [ 140.10272441845072, 38.752892196004481 ], [ 140.102408960448457, 38.753210240491072 ], [ 140.102161072406858, 38.753501287911007 ], [ 140.101967970746898, 38.753797843830981 ], [ 140.101778885626146, 38.754115386096579 ], [ 140.101601592098774, 38.754421744685281 ], [ 140.101423607035514, 38.754661204530464 ], [ 140.101212624949397, 38.754900665570467 ], [ 140.100918955920264, 38.755176926345861 ], [ 140.100428709038738, 38.755557051082178 ], [ 140.100055290069236, 38.755827007211813 ], [ 140.099954636306279, 38.755899789826721 ], [ 140.099581066147692, 38.756151440379554 ], [ 140.098964639999252, 38.756519774074178 ], [ 140.098582756368131, 38.756703835877254 ], [ 140.098250885862541, 38.756841692751649 ], [ 140.097807845465866, 38.756985960411299 ], [ 140.097394583923858, 38.757096338708195 ], [ 140.09670054569537, 38.757242197464485 ], [ 140.096061509447253, 38.757350167609729 ], [ 140.095516843357615, 38.757416625267012 ], [ 140.094749317966148, 38.757468001757601 ], [ 140.094050291268445, 38.757497470898564 ], [ 140.093391150340153, 38.757512551069567 ], [ 140.092855402865155, 38.757490832500864 ], [ 140.092160868258105, 38.757448230340707 ], [ 140.091281653841548, 38.757377499822276 ], [ 140.090797690950154, 38.757323211565094 ], [ 140.090659310876504, 38.757307691701797 ], [ 140.090097671109731, 38.757230070281217 ], [ 140.089651498552996, 38.75716367634746 ], [ 140.089156543982028, 38.757081279844741 ], [ 140.088766194532269, 38.756999469598405 ], [ 140.088419229414114, 38.756908569191935 ], [ 140.088144240339233, 38.756799175423424 ], [ 140.087862578502182, 38.756658782950339 ], [ 140.087539129847016, 38.756453608748544 ], [ 140.087237449723574, 38.756210421077441 ], [ 140.087012473774195, 38.755980950093154 ], [ 140.086739406189452, 38.755596113002532 ], [ 140.086467310534687, 38.755178580966884 ], [ 140.086435048244653, 38.755129067990978 ], [ 140.085998809429412, 38.754460450351331 ], [ 140.085768910963253, 38.754120643486111 ], [ 140.085620143195086, 38.753900829004742 ], [ 140.085338696956825, 38.753496366463906 ], [ 140.084931741389084, 38.752891631055654 ], [ 140.084825256817624, 38.752735969829764 ], [ 140.084575598474999, 38.752386381603365 ], [ 140.084430524040755, 38.752183114327906 ], [ 140.08415156123786, 38.751839558329216 ], [ 140.083981393268573, 38.75164106494109 ], [ 140.083723831438192, 38.751361893593923 ], [ 140.08340336298258, 38.751043031654049 ], [ 140.083085615545258, 38.75076714824138 ], [ 140.0827736564909, 38.750532463478336 ], [ 140.08255289185243, 38.750392280894594 ], [ 140.082308437577723, 38.750255197862693 ], [ 140.082147059018098, 38.750171879161158 ], [ 140.081938970737809, 38.750081104807776 ], [ 140.081673915018712, 38.749989702976869 ], [ 140.081448636691135, 38.749918092874722 ], [ 140.081224568262087, 38.749863197252736 ], [ 140.081049671004934, 38.749829496670912 ], [ 140.080834715576515, 38.749793597826788 ], [ 140.080596524464909, 38.749780193584357 ], [ 140.080373859549042, 38.749773783794787 ], [ 140.08025456902871, 38.749782266789254 ], [ 140.079853119907142, 38.749822752133731 ], [ 140.079567139152687, 38.749867826169059 ], [ 140.079180979415355, 38.749957720739587 ], [ 140.078789917216909, 38.750078990182594 ], [ 140.07828876466391, 38.750267219902149 ], [ 140.077885588438193, 38.750443281217279 ], [ 140.077712591458436, 38.750532526007042 ], [ 140.076975277661887, 38.750912881741122 ], [ 140.076570696765941, 38.751140445599937 ], [ 140.076047734027043, 38.751446970666336 ], [ 140.075256712613992, 38.751914289091616 ], [ 140.074338670751757, 38.752442765567814 ], [ 140.07368561981329, 38.752833970032036 ], [ 140.073590342905817, 38.752891169856674 ], [ 140.073047383093297, 38.753210596745376 ], [ 140.072585143994019, 38.753470227872548 ], [ 140.072336155203175, 38.7536164000689 ], [ 140.072056587643829, 38.753802347689891 ], [ 140.071724911909911, 38.754043294682724 ], [ 140.071332360190212, 38.754340814221791 ], [ 140.070951793678518, 38.754652156786307 ], [ 140.070569131732043, 38.75496588738973 ], [ 140.070149478593351, 38.755308919660742 ], [ 140.06975172203434, 38.755643050353413 ], [ 140.069230788392133, 38.75604736652928 ], [ 140.068872702003745, 38.756333197780833 ], [ 140.068493258225459, 38.756626946878882 ], [ 140.067853725598809, 38.757081048846977 ], [ 140.067174782754222, 38.757562756441345 ], [ 140.066544837908282, 38.758007265430912 ], [ 140.066036083860041, 38.758371095266625 ], [ 140.065638630064939, 38.758654225835748 ], [ 140.065255752519704, 38.758928369795456 ], [ 140.064901099898236, 38.759194430625797 ], [ 140.064667011333938, 38.759363202368512 ], [ 140.064096172172754, 38.759786830355395 ], [ 140.063546711614237, 38.760208949687936 ], [ 140.063011848904097, 38.76061988454704 ], [ 140.06260208592434, 38.760935038574594 ], [ 140.062088343406913, 38.761327270182306 ], [ 140.061536400184423, 38.761755693164929 ], [ 140.061017345606842, 38.762189729791395 ], [ 140.060424889874383, 38.762699544436479 ], [ 140.059936046120356, 38.763117872418725 ], [ 140.059538786325533, 38.763460108544002 ], [ 140.059108529893592, 38.763809360628834 ], [ 140.058862154128775, 38.764008210271264 ], [ 140.058487180457007, 38.764298775184677 ], [ 140.058036732179716, 38.764635712699267 ], [ 140.057745957342064, 38.764851170881506 ], [ 140.057314491397278, 38.765158617947584 ], [ 140.057097312100495, 38.765303995392159 ], [ 140.056870932252252, 38.765458462001185 ], [ 140.056714153775516, 38.765555959584198 ], [ 140.056478488524789, 38.765692539200288 ], [ 140.05618240085559, 38.765864600271456 ], [ 140.055830036897817, 38.766061961571424 ], [ 140.055530451437761, 38.766221330510497 ], [ 140.055285457587672, 38.766341866535619 ], [ 140.055275177885392, 38.766346914035807 ], [ 140.055077001748145, 38.766439301789056 ], [ 140.054897116407489, 38.766518074016581 ], [ 140.054679547953043, 38.766605476599203 ], [ 140.054497654342782, 38.766667766738273 ], [ 140.054266480411343, 38.766731836157504 ], [ 140.054169109611877, 38.766752906140262 ], [ 140.053963699152945, 38.766797330394816 ], [ 140.053647722788014, 38.766850822506271 ], [ 140.053281473344867, 38.766911792771936 ], [ 140.052983096626321, 38.766967379395844 ], [ 140.052505330945621, 38.767060269569221 ], [ 140.052079479824869, 38.767136654952644 ], [ 140.051681529265551, 38.767209332423747 ], [ 140.050973583953208, 38.767329094805504 ], [ 140.050628605506233, 38.767392681917343 ], [ 140.050322130913912, 38.767460375611776 ], [ 140.049784979925761, 38.767600055775397 ], [ 140.049345437319971, 38.767725221712517 ], [ 140.048634080224844, 38.767939087802432 ], [ 140.048199115717807, 38.768081364699491 ], [ 140.047552176367617, 38.768246638618372 ], [ 140.047218794356638, 38.768338000223814 ], [ 140.046741849802487, 38.768430198200448 ], [ 140.046124797299171, 38.768549561911939 ], [ 140.045561429656857, 38.768675335213857 ], [ 140.045034579198074, 38.768798321806592 ], [ 140.044425020583446, 38.768929896338463 ], [ 140.04383828689592, 38.769088553167201 ], [ 140.043154528369683, 38.769319027597795 ], [ 140.04248018483662, 38.769564583394214 ], [ 140.041453758125527, 38.769967412621568 ], [ 140.040966793436127, 38.770150972004515 ], [ 140.04049874551248, 38.77035865950176 ], [ 140.040070864523699, 38.770587815452899 ], [ 140.039571115869563, 38.770882779479685 ], [ 140.038767980043531, 38.771283995307172 ], [ 140.038079124670219, 38.771616952491392 ], [ 140.037264284415983, 38.772027176036708 ], [ 140.036838412082489, 38.77225924255962 ], [ 140.036350259478638, 38.772542310600038 ], [ 140.035956368655434, 38.772819763801792 ], [ 140.035618387332931, 38.773106727141503 ], [ 140.035114729746113, 38.773573354564867 ], [ 140.034826848328578, 38.77384860950432 ], [ 140.034558358842588, 38.7741089730537 ], [ 140.034334376807323, 38.774348537843551 ], [ 140.034189885145395, 38.774528326984608 ], [ 140.034118189881923, 38.774658141950788 ], [ 140.034052390222257, 38.774777380604867 ], [ 140.033865486930068, 38.775134738321441 ], [ 140.033579483805795, 38.775711743046017 ], [ 140.033505305492611, 38.775861435568579 ], [ 140.033332503284527, 38.776161593261378 ], [ 140.033020823852894, 38.776674717148516 ], [ 140.032573356546578, 38.777280312426015 ], [ 140.032189961024386, 38.77782305161994 ], [ 140.03173690010675, 38.778474451961024 ], [ 140.031614413788077, 38.778646826671391 ], [ 140.031182041094326, 38.779138943104485 ], [ 140.030952358226898, 38.779386509577087 ], [ 140.030443495800768, 38.779938925187523 ], [ 140.030378884055551, 38.780009844486884 ], [ 140.030358131036365, 38.780052717870277 ], [ 140.030031033401201, 38.780411730008737 ], [ 140.029687069695399, 38.780798264335488 ], [ 140.029176890921235, 38.781484266547942 ], [ 140.0288890095037, 38.781886403379424 ], [ 140.028575127802156, 38.782361031489856 ], [ 140.028358055726244, 38.782690679432037 ], [ 140.028271352629673, 38.782969558447554 ], [ 140.028232827176538, 38.783346416357794 ], [ 140.028232244404251, 38.783352092530336 ], [ 140.028237513267527, 38.783482661027136 ], [ 140.028245848724168, 38.783689343684131 ], [ 140.028331407874589, 38.784543530387232 ], [ 140.028383797214616, 38.785227353056165 ], [ 140.028398394677282, 38.785601425452036 ], [ 140.028398978220935, 38.785616316842116 ], [ 140.028353585619698, 38.786023041368772 ], [ 140.028246280693054, 38.786593386188962 ], [ 140.028103171331537, 38.787066212317733 ], [ 140.027942461937954, 38.787551249067747 ], [ 140.027789159653622, 38.787893422863455 ], [ 140.027377496782179, 38.788440434918527 ], [ 140.026964300035502, 38.788941871513828 ], [ 140.026707126591418, 38.789204329376517 ], [ 140.026209364608434, 38.789635371794084 ], [ 140.025913276939264, 38.789906731235106 ], [ 140.025380812042073, 38.790313078399045 ], [ 140.024893738974754, 38.790649910968959 ], [ 140.024284180360155, 38.791016358845667 ], [ 140.023706322476016, 38.791310108142852 ], [ 140.023177873732379, 38.791534174177826 ], [ 140.022449111376886, 38.791790412226689 ], [ 140.02176148672919, 38.792019567182145 ], [ 140.021255021730326, 38.792177030389695 ], [ 140.020620477572891, 38.792351896888832 ], [ 140.019910631597469, 38.792560045585056 ], [ 140.019407277160241, 38.79268952560448 ], [ 140.018253375275634, 38.793015445720741 ], [ 140.01770940033623, 38.793135709327814 ], [ 140.017004866806673, 38.793264289451649 ], [ 140.015818379426719, 38.793421416716768 ], [ 140.014854361805277, 38.793503686768133 ], [ 140.013778655544399, 38.793553431140069 ], [ 140.012921230100943, 38.793547420020772 ], [ 140.011915944795362, 38.793492585732672 ], [ 140.010314187218142, 38.793360446451103 ], [ 140.009441365169607, 38.793284438430405 ], [ 140.008087603240483, 38.79313489326848 ], [ 140.006567344691859, 38.792977871147173 ], [ 140.006100700281394, 38.792923665332289 ], [ 140.005162467345201, 38.79287245651421 ], [ 140.004648120457063, 38.792881525565925 ], [ 140.003965289892534, 38.792889400000767 ], [ 140.002755781656788, 38.792922178383776 ], [ 140.001950767151811, 38.79295464292845 ], [ 140.001009143645604, 38.793024304883104 ], [ 140.000528786923013, 38.793090783847937 ], [ 140.000060027022101, 38.793211467233697 ], [ 139.999692546853311, 38.793355126333729 ], [ 139.99937387106857, 38.793505613807206 ], [ 139.999023688553649, 38.793732068080224 ], [ 139.99823014127972, 38.794343464388547 ], [ 139.997799171327756, 38.794702916617574 ], [ 139.997351401643215, 38.795097661321606 ], [ 139.997217189683568, 38.795206741251775 ], [ 139.996867913146218, 38.79564228633344 ], [ 139.996642722369472, 38.796138025647778 ], [ 139.996624625573219, 38.796197613710468 ], [ 139.996497129572589, 38.796616654002179 ], [ 139.996323290639197, 38.797568651927492 ], [ 139.996185471739409, 38.798369848939267 ], [ 139.996003362144705, 38.799383928109989 ], [ 139.995803631305165, 38.800285429526689 ], [ 139.995650545005276, 38.800760957532709 ], [ 139.995444530175632, 38.801230202001378 ], [ 139.995103633063167, 38.801911616319522 ], [ 139.99491413757201, 38.802256575828736 ], [ 139.994195761753957, 38.80318984959338 ], [ 139.993669084468394, 38.803905445805057 ], [ 139.99318909491933, 38.80451476771367 ], [ 139.992842108202751, 38.805065886152192 ], [ 139.99283446312495, 38.805081636017569 ], [ 139.992671508264579, 38.805416939023871 ], [ 139.992442710547664, 38.805891985718176 ], [ 139.992140101691149, 38.806532097636833 ], [ 139.991684211377361, 38.807328204533313 ], [ 139.991083139408488, 38.808250378457316 ], [ 139.990568446945218, 38.808915685660097 ], [ 139.99030775334046, 38.80919215652397 ], [ 139.989921766390665, 38.809518012916705 ], [ 139.989368094906979, 38.809955045146019 ], [ 139.988987009646934, 38.810186211972486 ], [ 139.988324371313439, 38.810545455307839 ], [ 139.987303429064383, 38.811081554909251 ], [ 139.986892046587002, 38.811319026381476 ], [ 139.9866626660978, 38.811527593462436 ], [ 139.985837482117319, 38.81251035909456 ], [ 139.985523492423567, 38.812824802206592 ], [ 139.985278800565993, 38.813039170517506 ], [ 139.985230125772631, 38.813075635505285 ], [ 139.984354949493706, 38.813731057397888 ], [ 139.983966068738113, 38.813979922436353 ], [ 139.983223398527457, 38.814385955761956 ], [ 139.982724427802964, 38.814660603336613 ], [ 139.981178514159751, 38.815469340832159 ], [ 139.981030265139935, 38.815556261306533 ], [ 139.980187179134873, 38.816050639526303 ], [ 139.979901867546516, 38.816217924320512 ], [ 139.978311360444451, 38.816964099458083 ], [ 139.977618898902364, 38.81727573554906 ], [ 139.977113124668023, 38.817491193532163 ], [ 139.976521252479245, 38.817713647362083 ], [ 139.976359765541702, 38.817782639622372 ], [ 139.976236372474062, 38.817831524125062 ], [ 139.976070868997311, 38.817902714448515 ], [ 139.975813890324901, 38.818007794134722 ], [ 139.975614893061106, 38.818088076012259 ], [ 139.975368819288832, 38.81818817052784 ], [ 139.975098322304603, 38.818294736166884 ], [ 139.9748287528964, 38.818379625653186 ], [ 139.974662256662583, 38.818434709856959 ], [ 139.974397481337604, 38.818516980107461 ], [ 139.974221979709711, 38.818571290667876 ], [ 139.974000395101712, 38.818638753165409 ], [ 139.973707028065093, 38.818727537951013 ], [ 139.97328944760568, 38.818851614415074 ], [ 139.972826560938785, 38.818983000166021 ], [ 139.972634388397609, 38.819034586545953 ], [ 139.972342706425309, 38.819118469997186 ], [ 139.972295607546982, 38.819133256641727 ], [ 139.971982524987851, 38.819216847562181 ], [ 139.971791733975721, 38.819268412634564 ], [ 139.971669744806945, 38.819301317269797 ], [ 139.971469862392638, 38.819360401717539 ], [ 139.971319173134361, 38.81940899388858 ], [ 139.971151575379906, 38.819464183037027 ], [ 139.970941780822528, 38.819535876975429 ], [ 139.970765091665896, 38.819602753415715 ], [ 139.970529275611767, 38.819690909528966 ], [ 139.970466628553567, 38.819714346442211 ], [ 139.97034373186446, 38.819763921946816 ], [ 139.970159829984595, 38.819842611732035 ], [ 139.96992384075719, 38.819943607338018 ], [ 139.969743675022443, 38.820024787916324 ], [ 139.969573765848793, 38.82010186430167 ], [ 139.969338900126189, 38.82024835153117 ], [ 139.969173980193119, 38.820349829444545 ], [ 139.969052789781074, 38.820445818771489 ], [ 139.968862603139684, 38.820593499622177 ], [ 139.968728304786282, 38.820707082216451 ], [ 139.968527623615216, 38.820883248476257 ], [ 139.968413127178081, 38.820996140068608 ], [ 139.968229419298524, 38.821181710326883 ], [ 139.968048044436614, 38.821360598377538 ], [ 139.967801042316893, 38.82162244907456 ], [ 139.967774738883293, 38.821649048864899 ], [ 139.967590145853194, 38.821835623963423 ], [ 139.967420648207053, 38.822005296796547 ], [ 139.967275854552582, 38.822141478937183 ], [ 139.967198954449799, 38.822219267632001 ], [ 139.967090073222408, 38.822319550928512 ], [ 139.966930465735174, 38.822474122482213 ], [ 139.966730583320867, 38.822668907958018 ], [ 139.96661077482355, 38.822785884825407 ], [ 139.966478397960287, 38.82291136340605 ], [ 139.966270979231751, 38.823097541029121 ], [ 139.966186197625348, 38.823174449941092 ], [ 139.965974394798366, 38.823364816589056 ], [ 139.965881903704485, 38.823444196181377 ], [ 139.965785504449315, 38.823538678447072 ], [ 139.965580827951811, 38.823730762045635 ], [ 139.965501617972535, 38.823814456915073 ], [ 139.965291823800868, 38.824031925773504 ], [ 139.965113320760622, 38.824239382073856 ], [ 139.964943346791642, 38.824445352421378 ], [ 139.964792031178462, 38.824625246507104 ], [ 139.964729838458965, 38.824702322892449 ], [ 139.964593531835959, 38.824880708722112 ], [ 139.964481842425158, 38.825034777656548 ], [ 139.964402330453396, 38.825157178192036 ], [ 139.964257342412935, 38.825384344774527 ], [ 139.964215750752146, 38.82544583856874 ], [ 139.964061951317916, 38.825701698259202 ], [ 139.963822356307446, 38.826104548594977 ], [ 139.963338349833492, 38.826907734975393 ], [ 139.963037058096347, 38.82739758942266 ], [ 139.962666942917423, 38.828024295904065 ], [ 139.962425339637349, 38.828462145387519 ], [ 139.962242949648555, 38.828750510843811 ], [ 139.962032053184856, 38.829028677549857 ], [ 139.961785267435289, 38.829371542347488 ], [ 139.961493585077307, 38.829718993645471 ], [ 139.96108159745782, 38.830240536803551 ], [ 139.960648015636878, 38.830706870501317 ], [ 139.960071540053178, 38.831371990117987 ], [ 139.959809032950488, 38.831684735993889 ], [ 139.959433151758361, 38.832126584526499 ], [ 139.959133976668738, 38.832568936674051 ], [ 139.958883173608598, 38.832966675786118 ], [ 139.958589698579743, 38.833464028500323 ], [ 139.958368610350306, 38.833792190489667 ], [ 139.958147910507165, 38.834085247390981 ], [ 139.957795546549391, 38.834432301213504 ], [ 139.957265673079775, 38.834932858225088 ], [ 139.956839605588925, 38.835299389738914 ], [ 139.956342664346806, 38.835720253319842 ], [ 139.956177678847041, 38.835893926396928 ], [ 139.955855008121517, 38.836231198858272 ], [ 139.95575070499288, 38.836340278788448 ], [ 139.955371434002132, 38.836792117575904 ], [ 139.955250459188846, 38.836933264774437 ], [ 139.954950268972368, 38.837283564115488 ], [ 139.954626281127446, 38.837660715552197 ], [ 139.954317905486391, 38.838062978635904 ], [ 139.953883028144475, 38.838624295824673 ], [ 139.953508248473014, 38.839089456213124 ], [ 139.952935077065575, 38.839775374589316 ], [ 139.95254559155353, 38.840277103715394 ], [ 139.951970735467455, 38.841057020655938 ], [ 139.951665448789555, 38.841474365105476 ], [ 139.951057984838314, 38.842303962694437 ], [ 139.950765287739159, 38.842716426918017 ], [ 139.950112128422774, 38.843630704103937 ], [ 139.949695736263465, 38.844237136748319 ], [ 139.949274765234009, 38.844863989395556 ], [ 139.94917834360902, 38.845007544745727 ], [ 139.948800346540764, 38.845614061027234 ], [ 139.948490244181215, 38.846156297801024 ], [ 139.948454698927691, 38.846221917095747 ], [ 139.947859414184762, 38.847320465974079 ], [ 139.947151685242574, 38.848489116698495 ], [ 139.946443761143001, 38.849672659012128 ], [ 139.946341746678058, 38.84983893896608 ], [ 139.945775593993517, 38.850761635223812 ], [ 139.945430205176109, 38.851303474721284 ], [ 139.945010206076631, 38.851939795090502 ], [ 139.944599212371259, 38.852621104463971 ], [ 139.944268530165772, 38.85318615087261 ], [ 139.944259330385677, 38.853199743696834 ], [ 139.944207632195855, 38.853300634557279 ], [ 139.944153752948864, 38.853433716150406 ], [ 139.944001141814738, 38.853794991469506 ], [ 139.943867361438265, 38.854183745366115 ], [ 139.943713756775736, 38.85462130112397 ], [ 139.943623469108815, 38.854879486324641 ], [ 139.943478567076454, 38.855319932740677 ], [ 139.943382275813491, 38.855632489835649 ], [ 139.943308961052395, 38.855931767745602 ], [ 139.943247567089657, 38.856247320443423 ], [ 139.943156155917961, 38.856728985621828 ], [ 139.943106746391834, 38.857047450086242 ], [ 139.943042134260907, 38.857483015081506 ], [ 139.943009634387977, 38.857717072367009 ], [ 139.942970137390574, 38.858269257975365 ], [ 139.942969510650016, 38.858278138445279 ], [ 139.942974736702098, 38.858370818530176 ], [ 139.942975190655091, 38.858379029106594 ], [ 139.942957806221813, 38.858826008975647 ], [ 139.942957288244827, 38.858839371996929 ], [ 139.942987261871195, 38.859226534796896 ], [ 139.943053450302813, 38.859652193572707 ], [ 139.943162504703452, 38.860268931106816 ], [ 139.943270651583731, 38.860953758615999 ], [ 139.943324120845972, 38.861417306799396 ], [ 139.943341914492635, 38.861815360745474 ], [ 139.943362300338293, 38.862266153272387 ], [ 139.943359557721578, 38.862890870385151 ], [ 139.943354655646175, 38.863296925018304 ], [ 139.943338221930105, 38.863907169125731 ], [ 139.943307902728634, 38.864520115110402 ], [ 139.943225000186828, 38.865165337057952 ], [ 139.943159870078972, 38.865633493049252 ], [ 139.943109251039942, 38.866093437070177 ], [ 139.943108365889429, 38.866134133498818 ], [ 139.943025765725849, 38.866416697924294 ], [ 139.942850652869936, 38.866861353278821 ], [ 139.942651461605834, 38.867227403879205 ], [ 139.942302466619651, 38.867857545655745 ], [ 139.942022963855635, 38.868331481370305 ], [ 139.941804661439789, 38.86868833786157 ], [ 139.941510776040502, 38.869071688003679 ], [ 139.941317286379928, 38.869287167294338 ], [ 139.940865110227151, 38.869699505464837 ], [ 139.940520326937531, 38.869995160294401 ], [ 139.940134944358476, 38.870299528319649 ], [ 139.939831773556733, 38.870502209537861 ], [ 139.939515300041904, 38.870698587105984 ], [ 139.939169501625429, 38.870909834955775 ], [ 139.938557847961732, 38.871281791531651 ], [ 139.938068486230719, 38.871585343298435 ], [ 139.937617519976499, 38.871889208903553 ], [ 139.937289126434678, 38.872103660851586 ], [ 139.936974143598178, 38.872327245773988 ], [ 139.936632468941752, 38.872532419975776 ], [ 139.936310186988237, 38.87271078449789 ], [ 139.935935904466675, 38.872906868539552 ], [ 139.935571231709929, 38.873090826592772 ], [ 139.935241650253715, 38.873250906845634 ], [ 139.93483018138258, 38.873479769270304 ], [ 139.934540788073974, 38.873649232214085 ], [ 139.934179808265469, 38.873854406415873 ], [ 139.933737134270984, 38.87411617327664 ], [ 139.933238163160809, 38.874413629092196 ], [ 139.932589387557215, 38.874812374239333 ], [ 139.932007318747878, 38.875162904777284 ], [ 139.930637166685244, 38.875992879728962 ], [ 139.930383664205266, 38.876137502448096 ], [ 139.929990399736937, 38.876361820788389 ], [ 139.928392572305114, 38.877184381309377 ], [ 139.927240916658661, 38.877786792203104 ], [ 139.926001197213679, 38.878431888097573 ], [ 139.92554321300787, 38.878647241136001 ], [ 139.924963541240146, 38.878802316304643 ], [ 139.924489166515173, 38.878926392569568 ], [ 139.923769516774627, 38.879071350235456 ], [ 139.922552687823412, 38.87928550985184 ], [ 139.922178427285957, 38.879341788672484 ], [ 139.921681852446028, 38.879379069719583 ], [ 139.920957495016069, 38.879428121695653 ], [ 139.919865182251584, 38.879487982176386 ], [ 139.918423982493096, 38.879575426179301 ], [ 139.91821220203596, 38.879564305031103 ], [ 139.917772745438242, 38.879520698030689 ], [ 139.917593162861465, 38.879496695172932 ], [ 139.917179685335043, 38.879413000303487 ], [ 139.91602790009793, 38.879167968035617 ], [ 139.91513836316787, 38.879022843095491 ], [ 139.914397809604708, 38.878896546065889 ], [ 139.913815762779507, 38.878814023510081 ], [ 139.912793849757549, 38.878720589695426 ], [ 139.911809813849686, 38.878655054236965 ], [ 139.91110707260529, 38.878606943377633 ], [ 139.910857781821903, 38.878617437048291 ], [ 139.909983469095039, 38.878660792938213 ], [ 139.909189317064659, 38.878709761078021 ], [ 139.908536784103177, 38.878742225622688 ], [ 139.90701192624303, 38.878782774690691 ], [ 139.905171285632605, 38.878891204840095 ], [ 139.904141295949643, 38.878950353011362 ], [ 139.903208288679849, 38.878974523541636 ], [ 139.901993683982681, 38.879018465289668 ], [ 139.899799794263942, 38.879215365390657 ], [ 139.898473803691246, 38.87939230648864 ], [ 139.897686496824889, 38.879552261684097 ], [ 139.896551491264631, 38.879811200614533 ], [ 139.894861540298194, 38.880280088828897 ], [ 139.89339580894989, 38.880649008580768 ], [ 139.891569874179993, 38.881036317745696 ], [ 139.890930643931569, 38.881132976966143 ], [ 139.890278197749524, 38.881197445254784 ], [ 139.889489271771225, 38.881212420281983 ], [ 139.888251819777167, 38.881180982880799 ], [ 139.887436094758101, 38.8811422559072 ], [ 139.886341319770992, 38.880951157036165 ], [ 139.88504975133273, 38.880592143503748 ], [ 139.883762393819694, 38.880190131729663 ], [ 139.883284347359222, 38.879969856049314 ], [ 139.8823854818298, 38.879536825457919 ], [ 139.882207539577706, 38.87945109860474 ], [ 139.881962804523255, 38.879333179624929 ], [ 139.881448954784986, 38.879123083976033 ], [ 139.880103808706593, 38.878700294550853 ], [ 139.879074532157972, 38.878409204714949 ], [ 139.877557879392441, 38.878077797207077 ], [ 139.875927076921954, 38.877769680048353 ], [ 139.875236342483987, 38.877659071749378 ], [ 139.873630417178418, 38.877431862950047 ], [ 139.872763900332814, 38.877344042779235 ], [ 139.871616909178897, 38.877209493952066 ], [ 139.871286378548206, 38.877162347707525 ], [ 139.870677639903079, 38.877108833292837 ], [ 139.869892838070513, 38.877076138546947 ], [ 139.869224390526966, 38.877048302719459 ], [ 139.868532273788617, 38.87704679565821 ], [ 139.86740527970835, 38.87711006913085 ], [ 139.866249607908372, 38.877176421843458 ], [ 139.865853838406196, 38.877251110189889 ], [ 139.864362581553934, 38.877518344528674 ], [ 139.862974030316849, 38.877864559789508 ], [ 139.861882927450893, 38.878151920604672 ], [ 139.860046713750108, 38.87880191763437 ], [ 139.857886814582628, 38.879577771802239 ], [ 139.856801304170915, 38.879971218139552 ], [ 139.854694204713923, 38.880723885508992 ], [ 139.853524603845983, 38.881116933375168 ], [ 139.852874359548196, 38.881388481597121 ], [ 139.851444907414816, 38.882027671316962 ], [ 139.850381791504049, 38.882465813132065 ], [ 139.849273887362784, 38.882996027866405 ], [ 139.8484189025435, 38.883494993781348 ], [ 139.848067294145579, 38.883700209403429 ], [ 139.846595300019885, 38.884703564901407 ], [ 139.845864529780499, 38.885210656560837 ], [ 139.845578181081123, 38.885409358643493 ], [ 139.844725550106574, 38.886145731112322 ], [ 139.844125579658339, 38.886811333235521 ], [ 139.842949845603698, 38.888077459239717 ], [ 139.842714267132436, 38.888317130169057 ], [ 139.841536222429966, 38.889450760836517 ], [ 139.840807265688483, 38.89018855792429 ], [ 139.840383789239525, 38.890604979975876 ], [ 139.839285970414579, 38.891552120376737 ], [ 139.838748300678049, 38.892033344468899 ], [ 139.838069033085446, 38.89267525737354 ], [ 139.836810613244808, 38.893990541493281 ], [ 139.836258021297624, 38.894613352675393 ], [ 139.835885056281143, 38.89511617266848 ], [ 139.835402777682702, 38.895795282783972 ], [ 139.834951379459568, 38.896348116978274 ], [ 139.834100238391954, 38.897251671686277 ], [ 139.832815903889696, 38.898546388243396 ], [ 139.830841980052725, 38.90068496530634 ], [ 139.830662591476283, 38.900918624120706 ], [ 139.82856257438047, 38.903481165112964 ], [ 139.826182062149286, 38.906399680424002 ], [ 139.824001043174746, 38.909094528370339 ], [ 139.822299905757063, 38.911209753351969 ], [ 139.821038354142047, 38.91236631831341 ], [ 139.819395349707747, 38.913729838549024 ], [ 139.819064667502261, 38.914007209109343 ], [ 139.818527797293854, 38.91447592985034 ], [ 139.818032604754364, 38.914914574085572 ], [ 139.817598828161721, 38.915314973853732 ], [ 139.817547648334539, 38.915362225042948 ], [ 139.817090570877724, 38.915792177589189 ], [ 139.816667375979904, 38.916175926401571 ], [ 139.81633429596144, 38.916439933940609 ], [ 139.816299399046926, 38.916467580987167 ], [ 139.81578362627576, 38.916891731307778 ], [ 139.81539405436996, 38.917213902489699 ], [ 139.815014265016544, 38.917521664389795 ], [ 139.814607179858172, 38.917827414618017 ], [ 139.814279412671254, 38.918075588455423 ], [ 139.813842635051969, 38.918398240749923 ], [ 139.813438270526149, 38.918664510274787 ], [ 139.812779107613693, 38.919098065788674 ], [ 139.812385821932594, 38.919347538191936 ], [ 139.812105131254185, 38.919531495050336 ], [ 139.812059134667862, 38.919561592664515 ], [ 139.811739357362484, 38.919765970919713 ], [ 139.811348683936046, 38.920003734922723 ], [ 139.81099621237172, 38.920213118262147 ], [ 139.810644927950477, 38.92041098297792 ], [ 139.810242853245398, 38.920640557712069 ], [ 139.809730190650185, 38.920933720752863 ], [ 139.809418899990533, 38.921110305596542 ], [ 139.808977047122596, 38.921349368165409 ], [ 139.808600453953204, 38.92155414369693 ], [ 139.808256382255195, 38.921741222410404 ], [ 139.807989491439741, 38.921872209491077 ] ] } },
{ "type": "Feature", "properties": { "P12_001": 10003, "P12_002": "立石寺（山寺）", "P12_003": "06", "P12_004": "06201", "P12_005": "神社・寺院・教会", "P12_006": "山形市山寺4456-1", "P12_007": -1 }, "geometry": { "type": "Polygon", "coordinates": [ [ [ 140.434532528186622, 38.311892748853687 ], [ 140.434689083179222, 38.311930944072998 ], [ 140.434697443879088, 38.311909721971837 ], [ 140.434728388368853, 38.311917194172842 ], [ 140.434717028347279, 38.31194599931618 ], [ 140.434782110153122, 38.311961805911785 ], [ 140.434792082641536, 38.311936332244905 ], [ 140.43482886077075, 38.311945305859425 ], [ 140.43482180635209, 38.311963389756691 ], [ 140.434989889120288, 38.312004416268245 ], [ 140.43499661128098, 38.311987306697091 ], [ 140.43502127837067, 38.311993333012786 ], [ 140.435075943927501, 38.311848916661724 ], [ 140.435004333215574, 38.311831389552985 ], [ 140.435012444409494, 38.311810694539219 ], [ 140.434933527772927, 38.311791415924866 ], [ 140.434926582856889, 38.311809417390741 ], [ 140.434729472394764, 38.311761249910312 ], [ 140.434717417106583, 38.311792194395714 ], [ 140.434608138744181, 38.311765527303102 ], [ 140.434570083084424, 38.311862332747033 ], [ 140.43454666702462, 38.311856583641863 ], [ 140.434532528186622, 38.311892748853687 ] ] ] } },
{ "type": "Feature", "properties": { "P12_001": 10004, "P12_002": "出羽三山神社", "P12_003": "06", "P12_004": "06203", "P12_005": "神社・寺院・教会", "P12_006": "鶴岡市羽黒町手向字手向7", "P12_007": -1 }, "geometry": { "type": "Polygon", "coordinates": [ [ [ 139.982699003414439, 38.702606616338457 ], [ 139.982696895114032, 38.702577154326711 ], [ 139.982690577713015, 38.702547806599739 ], [ 139.982680076961998, 38.702518686581413 ], [ 139.982665431861875, 38.702489906189015 ], [ 139.982646699914085, 38.702461577339847 ], [ 139.982623953870302, 38.70243381001417 ], [ 139.982597281482668, 38.702406711394303 ], [ 139.982566785003627, 38.702380386295104 ], [ 139.982532583936035, 38.702354936303031 ], [ 139.982494809782992, 38.702330459345717 ], [ 139.982453608048019, 38.702307050768084 ], [ 139.982409139484957, 38.702284802686677 ], [ 139.982361575597906, 38.702263797532879 ], [ 139.982311100391229, 38.702244120320785 ], [ 139.982257909119653, 38.702225845518448 ], [ 139.982202207288054, 38.702209042213269 ], [ 139.982144210651569, 38.702193778201298 ], [ 139.982084143465613, 38.702180112023882 ], [ 139.982022238235714, 38.70216809468949 ], [ 139.981958735217603, 38.70215777440864 ], [ 139.981893878667137, 38.70214918992194 ], [ 139.981827920090353, 38.70214237588069 ], [ 139.981761115243302, 38.702137357681529 ], [ 139.981693721132189, 38.702134155986087 ], [ 139.981626000513273, 38.702132780694761 ], [ 139.981558213642757, 38.70213323955565 ], [ 139.981490623526952, 38.702135528694711 ], [ 139.981423492172098, 38.702139641009495 ], [ 139.981357078334412, 38.702145559927636 ], [ 139.981291638770017, 38.702153263496122 ], [ 139.981227427985004, 38.702162719215892 ], [ 139.98116469298526, 38.70217389351177 ], [ 139.981103677776616, 38.702186742262498 ], [ 139.981044617114719, 38.702201213813957 ], [ 139.98098774075504, 38.702217255220653 ], [ 139.980933267702795, 38.702234802345373 ], [ 139.980881408963057, 38.702253788468191 ], [ 139.980832366040659, 38.702274139121059 ], [ 139.980786327440057, 38.702295776177102 ], [ 139.980743471415536, 38.70231861634403 ], [ 139.980703964471076, 38.702342569872776 ], [ 139.980667959860369, 38.702367545722943 ], [ 139.980635595336651, 38.702393446182107 ], [ 139.980606996902992, 38.702420170955179 ], [ 139.980582275562, 38.702447616518647 ], [ 139.980561526065969, 38.702475678703344 ], [ 139.980544830166821, 38.702504246883336 ], [ 139.980532250616108, 38.702533211078361 ], [ 139.980523837664975, 38.702562458510222 ], [ 139.980519622814228, 38.702591878122533 ], [ 139.980519622814228, 38.702621353263034 ], [ 139.980523837664975, 38.702650772875344 ], [ 139.980532250616108, 38.702680020307206 ], [ 139.980544830166821, 38.702708984717454 ], [ 139.980561526065969, 38.702737552897446 ], [ 139.980582275562, 38.702765615082143 ], [ 139.980606996902992, 38.702793060430388 ], [ 139.980635595336651, 38.702819785418676 ], [ 139.980667959860369, 38.702845685877847 ], [ 139.980703964471076, 38.702870661728014 ], [ 139.980743471415536, 38.702894615041536 ], [ 139.980786327440057, 38.702917455208464 ], [ 139.980832366040659, 38.702939092479731 ], [ 139.980881408963057, 38.702959442917376 ], [ 139.980933267702795, 38.702978429040186 ], [ 139.98098774075504, 38.70299597638013 ], [ 139.981044617114719, 38.703012017571602 ], [ 139.981103677776616, 38.703026489123062 ], [ 139.98116469298526, 38.70303933808902 ], [ 139.981227427985004, 38.703050512169668 ], [ 139.981291638770017, 38.703059968104668 ], [ 139.981357078334412, 38.70306767145793 ], [ 139.981423492172098, 38.703073590591295 ], [ 139.981490623526952, 38.703077702906079 ], [ 139.981558213642757, 38.703079992045133 ], [ 139.981626000513273, 38.703080450690805 ], [ 139.981693721132189, 38.703079075614703 ], [ 139.981761115243302, 38.703075873704037 ], [ 139.981827920090353, 38.703070855720092 ], [ 139.981893878667137, 38.703064041463627 ], [ 139.981958735217603, 38.70305545719215 ], [ 139.982022238235714, 38.703045136696069 ], [ 139.982084143465613, 38.703033119361677 ], [ 139.982144210651569, 38.703019453399492 ], [ 139.982202207288054, 38.703004189172297 ], [ 139.982257909119653, 38.702987386082341 ], [ 139.982311100391229, 38.702969111064775 ], [ 139.982361575597906, 38.702949434067911 ], [ 139.982409139484957, 38.702928428914113 ], [ 139.982453608048019, 38.702906180832706 ], [ 139.982494809782992, 38.702882772255073 ], [ 139.982532583936035, 38.702858295297759 ], [ 139.982566785003627, 38.702832845305686 ], [ 139.982597281482668, 38.702806520206487 ], [ 139.982623953870302, 38.702779421586619 ], [ 139.982646699914085, 38.702751654045713 ], [ 139.982665431861875, 38.702723325411768 ], [ 139.982680076961998, 38.702694545019376 ], [ 139.982690577713015, 38.702665425001044 ], [ 139.982696895114032, 38.702636077274072 ], [ 139.982699003414439, 38.702606616338457 ] ] ] } }
]
}
