{
"type": "FeatureCollection",
"crs": { "type": "name", "properties": { "name": "urn:ogc:def:crs:EPSG::4612" } },
"features": [
{ "type": "Feature", "properties": { "P12_001": 10001, "P12_002": "瀬戸内海の多島景観", "P12_003": "37", "P12_004": "37201", "P12_005": "海岸・岬", "P12_006": "高松市", "P12_007": -1 }, "geometry": { "type": "Point", "coordinates": [ 134.043298999917482, 34.340120000135173 ] } },
{ "type": "Feature", "properties": { "P12_001": 10002, "P12_002": "お遍路さんのお接待", "P12_003": "37", "P12_004": "37201", "P12_005": "郷土景観", "P12_006": "高松市", "P12_007": -1 }, "geometry": { "type": "Point", "coordinates": [ 134.043298999917482, 34.340120000135173 ] } },
{ "type": "Feature", "properties": { "P12_001": 10003, "P12_002": "栗林公園", "P12_003": "37", "P12_004": "37201", "P12_005": "庭園・公園", "P12_006": "高松市栗林町1-20-16", "P12_007": -1 }, "geometry": { "type": "Point", "coordinates": [ 134.044427000101251, 34.330480999893162 ] } },
{ "type": "Feature", "properties": { "P12_001": 10004, "P12_002": "香川の讃岐うどん", "P12_003": "37", "P12_004": "37201", "P12_005": "食", "P12_006": "高松市", "P12_007": -1 }, "geometry": { "type": "Point", "coordinates": [ 134.04657400000437, 34.342787999896977 ] } },
{ "type": "Feature", "properties": { "P12_001": 10005, "P12_002": "瀬戸大橋", "P12_003": "37", "P12_004": "37203", "P12_005": "建造物", "P12_006": "坂出市", "P12_007": -1 }, "geometry": { "type": "Point", "coordinates": [ 133.82857776472062, 34.353843956972092 ] } },
{ "type": "Feature", "properties": { "P12_001": 10006, "P12_002": "ベネッセアートサイト", "P12_003": "37", "P12_004": "37364", "P12_005": "博物館・美術館", "P12_006": "直島町", "P12_007": -1 }, "geometry": { "type": "Point", "coordinates": [ 133.990525787791256, 34.444857177726163 ] } },
{ "type": "Feature", "properties": { "P12_001": 10007, "P12_002": "金刀比羅宮", "P12_003": "37", "P12_004": "37403", "P12_005": "神社・寺院・教会", "P12_006": "琴平町892-1", "P12_007": -1 }, "geometry": { "type": "Point", "coordinates": [ 133.809388856462192, 34.184014314794076 ] } },
{ "type": "Feature", "properties": { "P12_001": 10008, "P12_002": "旧金毘羅大芝居（金丸座）で上演される歌舞伎", "P12_003": "37", "P12_004": "37403", "P12_005": "芸能・興行・イベント", "P12_006": "琴平町字川西乙1241", "P12_007": -1 }, "geometry": { "type": "Point", "coordinates": [ 133.818041000113425, 34.184623000233152 ] } },
{ "type": "Feature", "properties": { "P12_001": 10007, "P12_002": "金刀比羅宮", "P12_003": "37", "P12_004": "37403", "P12_005": "神社・寺院・教会", "P12_006": "琴平町892-1", "P12_007": -1 }, "geometry": { "type": "Polygon", "coordinates": [ [ [ 133.809396694455387, 34.1841827783661 ], [ 133.809410693995602, 34.184084917048395 ], [ 133.809511222513038, 34.184098999843485 ], [ 133.809547889205334, 34.183924750134651 ], [ 133.809412110914735, 34.18390897198352 ], [ 133.809366972088526, 34.183903749954439 ], [ 133.809361333319004, 34.183934778146316 ], [ 133.809249361165513, 34.183920749973097 ], [ 133.809235499763048, 34.184054361009167 ], [ 133.809318778356214, 34.184068471857344 ], [ 133.809304833075942, 34.184175833076338 ], [ 133.809396694455387, 34.1841827783661 ] ] ] } },
{ "type": "Feature", "properties": { "P12_001": 10003, "P12_002": "栗林公園", "P12_003": "37", "P12_004": "37201", "P12_005": "庭園・公園", "P12_006": "高松市栗林町1-20-16", "P12_007": -1 }, "geometry": { "type": "Polygon", "coordinates": [ [ [ 134.046032555906919, 34.332058417391053 ], [ 134.046048221867238, 34.331980167106543 ], [ 134.046052805766521, 34.331946971851266 ], [ 134.046091167075161, 34.331644056166915 ], [ 134.046103332913503, 34.33161219410092 ], [ 134.046131444067981, 34.331538667272476 ], [ 134.046166083002078, 34.331299694059183 ], [ 134.046176916746873, 34.331194694048726 ], [ 134.046175805958086, 34.330853389133104 ], [ 134.046178666807862, 34.330727610695362 ], [ 134.046117277956824, 34.33012427827731 ], [ 134.046105971984645, 34.330091777818183 ], [ 134.046061833057877, 34.329971721912102 ], [ 134.046014277886968, 34.329909167103771 ], [ 134.045979944135439, 34.329826306317663 ], [ 134.045953611001238, 34.329772221758645 ], [ 134.045928972009506, 34.329716610904214 ], [ 134.045916555959337, 34.329688556042072 ], [ 134.045914028014494, 34.329682943793152 ], [ 134.04586486115727, 34.329574555742333 ], [ 134.045806416796893, 34.329442638874866 ], [ 134.045768722008916, 34.329361778021109 ], [ 134.045672027940043, 34.329149694205455 ], [ 134.045663221953447, 34.329130972261964 ], [ 134.045623638492799, 34.329042278067732 ], [ 134.045514361092046, 34.328798527963933 ], [ 134.045401277675865, 34.328553166811766 ], [ 134.045371750550032, 34.328493082900991 ], [ 134.045223555972342, 34.328195944073329 ], [ 134.045180972339438, 34.328110667011529 ], [ 134.044991582851765, 34.327745749862153 ], [ 134.044982556034284, 34.327728305892357 ], [ 134.044937471941893, 34.327645666710751 ], [ 134.04491941712223, 34.327612749908276 ], [ 134.044688805950045, 34.327190027827001 ], [ 134.044557610847875, 34.326949888703915 ], [ 134.044331750145858, 34.326536556092748 ], [ 134.044118583428144, 34.326562916934719 ], [ 134.043317666330125, 34.326691971942637 ], [ 134.042842556282579, 34.326778472059395 ], [ 134.042804027455247, 34.326785472119468 ], [ 134.042033638804156, 34.326915917164968 ], [ 134.041366306141498, 34.327019777834423 ], [ 134.041331058500816, 34.327601939972638 ], [ 134.041367541562295, 34.327826446553445 ], [ 134.041418056151286, 34.328034116239067 ], [ 134.041527502492414, 34.328325974111344 ], [ 134.041681851190646, 34.32866273502156 ], [ 134.042201722140334, 34.329633806224273 ], [ 134.042222888969349, 34.329680083269459 ], [ 134.042661263611109, 34.330674879808818 ], [ 134.042742647608037, 34.331008833926646 ], [ 134.042742647608037, 34.331803028375646 ], [ 134.042753872071813, 34.331895636939471 ], [ 134.042779130669516, 34.331965795171762 ], [ 134.042836527504903, 34.332185666908615 ], [ 134.042835499646145, 34.332193082718312 ], [ 134.042834944014828, 34.332225527664995 ], [ 134.042828083567201, 34.332259000037212 ], [ 134.042834971500213, 34.332279805775428 ], [ 134.042841472505302, 34.332294917035057 ], [ 134.042853805862336, 34.33230063897301 ], [ 134.042871888641258, 34.332309222028364 ], [ 134.042897222586816, 34.332311361187109 ], [ 134.042931055677798, 34.332314277965395 ], [ 134.04309758253541, 34.332323639233991 ], [ 134.043111833235201, 34.332324111089783 ], [ 134.043120749874163, 34.332324416853524 ], [ 134.04319325040413, 34.332326888938518 ], [ 134.043244333419381, 34.332328666969509 ], [ 134.043517360705806, 34.332330332936607 ], [ 134.043919694421731, 34.332332694145137 ], [ 134.043969360991724, 34.33233205604887 ], [ 134.044211555596377, 34.33232902809727 ], [ 134.044240499605479, 34.332328666969509 ], [ 134.04425252801687, 34.332328500135311 ], [ 134.044411860574172, 34.332328167060638 ], [ 134.044606722023474, 34.332327472264488 ], [ 134.045021222288568, 34.332328611011775 ], [ 134.045170639492142, 34.33232902809727 ], [ 134.045192916636069, 34.332327111136735 ], [ 134.045324666421777, 34.332316167318133 ], [ 134.045398944024242, 34.332307528156619 ], [ 134.045423250111071, 34.332303360715585 ], [ 134.045493306100099, 34.332280166754757 ], [ 134.045577472044783, 34.332251193710817 ], [ 134.045656166975618, 34.332221750146942 ], [ 134.045708472142877, 34.332192556092217 ], [ 134.045766667002255, 34.332152083066212 ], [ 134.045826110788227, 34.33210097213378 ], [ 134.045857444130547, 34.332072528090798 ], [ 134.04587708291416, 34.332067860889318 ], [ 134.045887943907388, 34.332067166686883 ], [ 134.046032555906919, 34.332058417391053 ] ] ] } }
]
}
