{
"type": "FeatureCollection",
"crs": { "type": "name", "properties": { "name": "urn:ogc:def:crs:EPSG::4612" } },
"features": [
{ "type": "Feature", "properties": { "P12_001": 10004, "P12_002": "三方五湖", "P12_003": "18", "P12_004": "18442、18501", "P12_005": "湖沼", "P12_006": "美浜町　および　若狭町", "P12_007": -1 }, "geometry": { "type": "Point", "coordinates": [ 135.881991179902627, 35.587531899896099 ] } },
{ "type": "Feature", "properties": { "P12_001": 10001, "P12_002": "一乗谷朝倉氏遺跡", "P12_003": "18", "P12_004": "18201", "P12_005": "史跡", "P12_006": "福井市城戸ノ内町", "P12_007": -1 }, "geometry": { "type": "Point", "coordinates": [ 136.298668960288239, 36.00733225045763 ] } },
{ "type": "Feature", "properties": { "P12_001": 10003, "P12_002": "永平寺", "P12_003": "18", "P12_004": "18322", "P12_005": "神社・寺院・教会", "P12_006": "永平寺町志比10-5", "P12_007": -1 }, "geometry": { "type": "Point", "coordinates": [ 136.355419, 36.055661999758279 ] } },
{ "type": "Feature", "properties": { "P12_001": 10002, "P12_002": "丸岡城", "P12_003": "18", "P12_004": "18210", "P12_005": "城跡・城郭・宮殿", "P12_006": "坂井市丸岡町霞町1-1-59", "P12_007": -1 }, "geometry": { "type": "Point", "coordinates": [ 136.272129747927124, 36.152356937739377 ] } },
{ "type": "Feature", "properties": { "P12_001": 10003, "P12_002": "永平寺", "P12_003": "18", "P12_004": "18322", "P12_005": "神社・寺院・教会", "P12_006": "永平寺町志比10-5", "P12_007": -1 }, "geometry": { "type": "Polygon", "coordinates": [ [ [ 136.357747231018408, 36.057198991416442 ], [ 136.357794301788488, 36.057248127910221 ], [ 136.357828999283953, 36.057296028318163 ], [ 136.357857028095367, 36.05733372179791 ], [ 136.357871305368349, 36.057347193824825 ], [ 136.357876666873864, 36.057352305914158 ], [ 136.357890889845635, 36.057358749859212 ], [ 136.357897666638507, 36.057358917010376 ], [ 136.357895083381123, 36.057353333209747 ], [ 136.357879082784734, 36.057325277987331 ], [ 136.357878417347877, 36.057324278054566 ], [ 136.357861111547493, 36.057280000246585 ], [ 136.357857222098829, 36.057251166968214 ], [ 136.357856806447643, 36.057230417024961 ], [ 136.357856777816068, 36.057228639036246 ], [ 136.357854250834521, 36.057207443554837 ], [ 136.357848694338259, 36.057179805912909 ], [ 136.357842332702944, 36.057153417443381 ], [ 136.35784211105522, 36.057152499599091 ], [ 136.357829917468308, 36.057126777949691 ], [ 136.357795083232475, 36.057082083156061 ], [ 136.357779221844652, 36.057061749603605 ], [ 136.357767778601954, 36.057038277654215 ], [ 136.357763527309686, 36.057028638802038 ], [ 136.357759693643203, 36.056988527876271 ], [ 136.357759444844845, 36.05698583323295 ], [ 136.357776361157391, 36.05691988882711 ], [ 136.357779721415909, 36.056882305988346 ], [ 136.357783111786944, 36.056846138878306 ], [ 136.357763472021162, 36.056793582626369 ], [ 136.357749861172294, 36.056757194234358 ], [ 136.357734527987304, 36.056629610903549 ], [ 136.357723639604387, 36.056601611001625 ], [ 136.357688806355839, 36.056511332717434 ], [ 136.357671638776736, 36.056467222060618 ], [ 136.357636582399522, 36.056377638554217 ], [ 136.357634332354223, 36.056371778151124 ], [ 136.357605472240436, 36.05629463878121 ], [ 136.357584805194193, 36.056239528269138 ], [ 136.357573306169314, 36.056177555636687 ], [ 136.357532917411817, 36.055959917088188 ], [ 136.357526416567879, 36.055925055660722 ], [ 136.357622172828997, 36.055186603827401 ], [ 136.357577321004442, 36.055103304253016 ], [ 136.357500432938082, 36.055074469784962 ], [ 136.357218489130332, 36.054533023741151 ], [ 136.35715121484904, 36.054420889698712 ], [ 136.356581949931353, 36.054481704169895 ], [ 136.356577721840495, 36.054434722201087 ], [ 136.356583222554605, 36.054414388648638 ], [ 136.356442444160564, 36.054408417009718 ], [ 136.356379999726386, 36.054415166704587 ], [ 136.356327583247548, 36.054435806006857 ], [ 136.356292750492656, 36.054466000288294 ], [ 136.356222111016336, 36.054580222233177 ], [ 136.356199944269008, 36.054627943593076 ], [ 136.35603933309298, 36.054759777679109 ], [ 136.356014778079043, 36.05477436087461 ], [ 136.355982916588459, 36.054794278036262 ], [ 136.355957278511909, 36.054809833206861 ], [ 136.355952444221941, 36.054812667043677 ], [ 136.355931943534898, 36.054824027969232 ], [ 136.355909332504808, 36.054836028352092 ], [ 136.355875499879744, 36.054850556227102 ], [ 136.355849443683752, 36.054868055942741 ], [ 136.355812693601962, 36.054878611449517 ], [ 136.355729138826121, 36.054902000120755 ], [ 136.355654027890751, 36.054920305850011 ], [ 136.355610694525922, 36.054930389050654 ], [ 136.355558944471198, 36.05494158341989 ], [ 136.355515777959198, 36.054948750100401 ], [ 136.355471443477228, 36.054955555710606 ], [ 136.355443555849007, 36.054959278244361 ], [ 136.355402777603615, 36.054966111217389 ], [ 136.355250861041043, 36.054991556264333 ], [ 136.35509730606239, 36.054997888973553 ], [ 136.355060500692076, 36.054996860488281 ], [ 136.355027083718227, 36.05499461078827 ], [ 136.354900888164963, 36.054986166977692 ], [ 136.354851082094115, 36.054983166584556 ], [ 136.354642027807984, 36.054970138906114 ], [ 136.35464366721132, 36.054984999893762 ], [ 136.35455650041672, 36.054993888647658 ], [ 136.354480943717647, 36.055004138999465 ], [ 136.354481471920479, 36.055057777867475 ], [ 136.354492000434362, 36.055221778142808 ], [ 136.35450447145115, 36.055325305982258 ], [ 136.354510693384242, 36.055376306122284 ], [ 136.35449041631955, 36.055413749767553 ], [ 136.354474222213298, 36.055461582958124 ], [ 136.354505611776887, 36.055652388688628 ], [ 136.354499749219173, 36.055658972422016 ], [ 136.354444528328884, 36.055746194397742 ], [ 136.354424500062521, 36.055784667123127 ], [ 136.354421860529328, 36.055817666688874 ], [ 136.354427471820458, 36.055853249662107 ], [ 136.354429750497331, 36.055867556255151 ], [ 136.354452222318827, 36.055977721958797 ], [ 136.354471666600205, 36.056027778081393 ], [ 136.354482028261231, 36.056036221891972 ], [ 136.354495917033631, 36.056040055661555 ], [ 136.354558806244199, 36.056031943773931 ], [ 136.354749388240862, 36.05600705550097 ], [ 136.355051471879307, 36.055970194207973 ], [ 136.355272693095372, 36.055944555836732 ], [ 136.355417443377206, 36.055922139140591 ], [ 136.355555971232292, 36.0559008330182 ], [ 136.355599999652839, 36.055890222190925 ], [ 136.355642556016505, 36.055874056115542 ], [ 136.355738083718819, 36.055837721854331 ], [ 136.355754028533084, 36.055829749755041 ], [ 136.355754333113566, 36.055825416911347 ], [ 136.355795994000687, 36.056035617530469 ], [ 136.355834441736221, 36.056269495915018 ], [ 136.355927355575034, 36.056452114807549 ], [ 136.356196475408012, 36.056525803487425 ], [ 136.356234915738838, 36.056653955489097 ], [ 136.356423945707775, 36.056756477447337 ], [ 136.356914131257867, 36.056859001190112 ], [ 136.357126555181821, 36.056919305879994 ], [ 136.357145860254604, 36.056944750332093 ], [ 136.35722188937433, 36.056965638873997 ], [ 136.357306582501309, 36.056989443936033 ], [ 136.357387777642117, 36.057023360751224 ], [ 136.357454194457688, 36.057058306051694 ], [ 136.35748366620075, 36.057073917137629 ], [ 136.357599388528627, 36.057108528135764 ], [ 136.357600055940054, 36.057108805927918 ], [ 136.357601722494024, 36.057109417427547 ], [ 136.357620750136903, 36.057118638699237 ], [ 136.357689528068477, 36.057157194107937 ], [ 136.357747231018408, 36.057198991416442 ] ] ] } },
{ "type": "Feature", "properties": { "P12_001": 10002, "P12_002": "丸岡城", "P12_003": "18", "P12_004": "18210", "P12_005": "城跡・城郭・宮殿", "P12_006": "坂井市丸岡町霞町1-1-59", "P12_007": -1 }, "geometry": { "type": "Polygon", "coordinates": [ [ [ 136.272452249988703, 36.151973916737973 ], [ 136.272428638335128, 36.151962166784443 ], [ 136.272402472549402, 36.151953833020002 ], [ 136.272317527662182, 36.151939139183511 ], [ 136.272291055321347, 36.151936611096509 ], [ 136.272240472249308, 36.151932306210483 ], [ 136.272193888709324, 36.151928361205073 ], [ 136.27217163902921, 36.151929889359309 ], [ 136.271976082546672, 36.151955443857553 ], [ 136.271921582875393, 36.151960500031549 ], [ 136.271906500956959, 36.151962778284073 ], [ 136.271894389315548, 36.151969056267646 ], [ 136.271883055662613, 36.151976694064608 ], [ 136.271877749939279, 36.151980277999705 ], [ 136.271859527929109, 36.151993556107477 ], [ 136.271820667504244, 36.152029638749674 ], [ 136.271731417517202, 36.152126471619901 ], [ 136.271679221698776, 36.152180444195395 ], [ 136.271646443998435, 36.152217194252557 ], [ 136.271616583261164, 36.152246361238412 ], [ 136.271577556477098, 36.15228038928943 ], [ 136.271542027679232, 36.152310499697869 ], [ 136.271547667601908, 36.15231077808486 ], [ 136.271556333090132, 36.152311221838481 ], [ 136.271585389675636, 36.152312722035049 ], [ 136.271594667286735, 36.152313193746345 ], [ 136.271613861288841, 36.152314193679111 ], [ 136.271571667262435, 36.152382361016976 ], [ 136.271577925725438, 36.152472843927505 ], [ 136.271601154308541, 36.1525378806014 ], [ 136.271661546156395, 36.15259982170712 ], [ 136.271723486576462, 36.152650922375784 ], [ 136.271793171832144, 36.15269737909734 ], [ 136.271810202670906, 36.152657116486353 ], [ 136.271938730214941, 36.152689635418149 ], [ 136.272140037197204, 36.152771706639669 ], [ 136.272359927045954, 36.152906428098483 ], [ 136.272498583249416, 36.153031889025897 ], [ 136.272513361574624, 36.153040693906782 ], [ 136.272566833471814, 36.15308130628604 ], [ 136.272799706249828, 36.153219227410723 ], [ 136.272911305633784, 36.153319193919145 ], [ 136.273009972440548, 36.153294556075508 ], [ 136.273057693838041, 36.153280278034977 ], [ 136.27309241700317, 36.1532689438774 ], [ 136.273127167318933, 36.153255832920799 ], [ 136.273165000463337, 36.15324188858775 ], [ 136.273424694097315, 36.153215721995032 ], [ 136.273460556107239, 36.153206749962983 ], [ 136.273677528005635, 36.153157722325659 ], [ 136.27390897216776, 36.153104555763782 ], [ 136.274063443849826, 36.153068110861589 ], [ 136.274057971273635, 36.153052443860318 ], [ 136.274123083378896, 36.153037611425177 ], [ 136.274145667258352, 36.153005277489868 ], [ 136.274093749857144, 36.152895306300209 ], [ 136.274102110764858, 36.152855556444756 ], [ 136.274007527903848, 36.152646749545127 ], [ 136.273991971096535, 36.152612528169804 ], [ 136.273990972447649, 36.152609944167466 ], [ 136.27395133354068, 36.152505556183598 ], [ 136.273895944810249, 36.152357721983648 ], [ 136.273885610793485, 36.152332943756832 ], [ 136.273845443683683, 36.152221444412938 ], [ 136.273809499728287, 36.152127332954009 ], [ 136.27380444477788, 36.152111138920958 ], [ 136.273766833774857, 36.152009528263719 ], [ 136.273711555621446, 36.151862221690401 ], [ 136.273174528847392, 36.151924805822489 ], [ 136.273134528096818, 36.151951111013858 ], [ 136.273020667313659, 36.152024056138728 ], [ 136.273004638579323, 36.152034611050667 ], [ 136.27295927879149, 36.152062278434798 ], [ 136.272925417534879, 36.152072193889431 ], [ 136.272736444335408, 36.152127166992535 ], [ 136.272671332723803, 36.152147361351489 ], [ 136.272662221471876, 36.152142999955281 ], [ 136.272649610752865, 36.152133860772068 ], [ 136.272627583707759, 36.152114611025382 ], [ 136.272543556511238, 36.152045694184075 ], [ 136.272452249988703, 36.151973916737973 ] ] ] } },
{ "type": "Feature", "properties": { "P12_001": 10004, "P12_002": "三方五湖", "P12_003": "18", "P12_004": "18442、18501", "P12_005": "湖沼", "P12_006": "美浜町　および　若狭町", "P12_007": -1 }, "geometry": { "type": "MultiPolygon", "coordinates": [ [ [ [ 135.878215555611234, 35.576208052712502 ], [ 135.878303603072993, 35.576320834540056 ], [ 135.87831860255227, 35.576406652683936 ], [ 135.878193601132324, 35.576631658375376 ], [ 135.878168608253048, 35.576925835501356 ], [ 135.878208618876556, 35.577517228216472 ], [ 135.878253885365012, 35.57773415116764 ], [ 135.878168608253048, 35.578008330233182 ], [ 135.878088605764589, 35.578073613172492 ], [ 135.877262226027483, 35.578355837503139 ], [ 135.876945843889189, 35.578493043030491 ], [ 135.87648554672063, 35.578722225121652 ], [ 135.876350283850115, 35.578730558886093 ], [ 135.876230002193893, 35.578677227552433 ], [ 135.876004725169992, 35.578501395829939 ], [ 135.875609162959989, 35.578329451412984 ], [ 135.875459168660768, 35.578304162215169 ], [ 135.874814713330466, 35.578290844252855 ], [ 135.874001938518433, 35.57817667643878 ], [ 135.873105549692866, 35.578042223254613 ], [ 135.872866113377682, 35.578029732125458 ], [ 135.872711381543411, 35.57804387811062 ], [ 135.872456659927053, 35.578109160455092 ], [ 135.872180002096741, 35.578159720410561 ], [ 135.872148340533386, 35.578194998228824 ], [ 135.871991946587968, 35.578291671680859 ], [ 135.871851105994324, 35.578396947766819 ], [ 135.871675547172032, 35.57858417313129 ], [ 135.871476389037326, 35.578798882073087 ], [ 135.871285276369605, 35.579015285725447 ], [ 135.871118888530532, 35.57917389255023 ], [ 135.871003344903045, 35.579253051415527 ], [ 135.870876395056399, 35.579366661265937 ], [ 135.870677505465949, 35.579554714058403 ], [ 135.870625838837668, 35.579624173397441 ], [ 135.870514174292225, 35.579802507628642 ], [ 135.870455821702194, 35.579913326471001 ], [ 135.870402492469111, 35.580124995165114 ], [ 135.870392231018542, 35.580238046457005 ], [ 135.870366397457559, 35.580630839795525 ], [ 135.870345838026481, 35.580791390570496 ], [ 135.8703216670703, 35.580913603054832 ], [ 135.870247778406139, 35.581199176357195 ], [ 135.870192786568282, 35.581359727132167 ], [ 135.870125548323244, 35.581504168936782 ], [ 135.870001941951131, 35.581697784710343 ], [ 135.869888347243972, 35.58183889657824 ], [ 135.869785264266653, 35.581923040831107 ], [ 135.869605002958281, 35.582012784945384 ], [ 135.869470831048716, 35.582090558419011 ], [ 135.869391936305277, 35.582158054772847 ], [ 135.86931472243154, 35.582251955657 ], [ 135.869139449924802, 35.5825711138516 ], [ 135.869074160106436, 35.582658067552678 ], [ 135.869046664434336, 35.582704162014238 ], [ 135.869024173854228, 35.582773062794757 ], [ 135.869012213762602, 35.582834727298021 ], [ 135.869000003391704, 35.583033346304461 ], [ 135.868986112644706, 35.583121666957048 ], [ 135.868949999368198, 35.583222785678295 ], [ 135.868874448099263, 35.583365823056226 ], [ 135.868848883082535, 35.583421944803092 ], [ 135.868824712126326, 35.583511669287525 ], [ 135.868795268027554, 35.583577221691165 ], [ 135.868748893300449, 35.583675549999207 ], [ 135.868712780023941, 35.583717506131059 ], [ 135.868591122078499, 35.583845281001636 ], [ 135.868423894051404, 35.583970822827837 ], [ 135.86823694678128, 35.58417000098764 ], [ 135.8680441710151, 35.584420565341233 ], [ 135.867891388101157, 35.584629443027296 ], [ 135.867808614275646, 35.584787222424076 ], [ 135.867745005327038, 35.584917768672852 ], [ 135.867721102915084, 35.584990557353755 ], [ 135.867681664429028, 35.585115541811128 ], [ 135.867646946200352, 35.585174992305021 ], [ 135.867583337251716, 35.585233885430085 ], [ 135.86747555277563, 35.585302786210605 ], [ 135.867255835703503, 35.585424729230603 ], [ 135.867129726044908, 35.585464453507768 ], [ 135.866846668074771, 35.585580834141524 ], [ 135.866749717186707, 35.585642498644781 ], [ 135.866681656524946, 35.585686110227485 ], [ 135.866581934793487, 35.585765289317479 ], [ 135.866451392180323, 35.585915273878484 ], [ 135.866319168203802, 35.586034714389776 ], [ 135.866177773244033, 35.586143320412454 ], [ 135.86606278398267, 35.58626249205426 ], [ 135.865982226634458, 35.586377506331345 ], [ 135.86592721751893, 35.586461669619219 ], [ 135.86591861768585, 35.586497217496657 ], [ 135.865829443720486, 35.58662110446685 ], [ 135.865698614791796, 35.586728324503007 ], [ 135.865519176393803, 35.586812776290216 ], [ 135.865029165594933, 35.586987491490525 ], [ 135.864808608334755, 35.587088899305954 ], [ 135.864587783023978, 35.587235554525087 ], [ 135.864463604020784, 35.587359441495281 ], [ 135.864366939448274, 35.587477785709083 ], [ 135.86427749743234, 35.587635564511018 ], [ 135.864250001266583, 35.587731391500043 ], [ 135.864263892013582, 35.587861109725964 ], [ 135.864305278926338, 35.588013057272171 ], [ 135.864387785194907, 35.588159712491304 ], [ 135.864573874012024, 35.588306117281121 ], [ 135.864760267409679, 35.588362509087162 ], [ 135.865056947582588, 35.588373883099287 ], [ 135.865132766902093, 35.588396381883896 ], [ 135.865409442503733, 35.588422787603903 ], [ 135.865592492426856, 35.588448057766712 ], [ 135.865777491270308, 35.58850583377474 ], [ 135.865790273778657, 35.588526389204006 ], [ 135.865790273778657, 35.588588611670936 ], [ 135.865846660170718, 35.588603604119115 ], [ 135.865971661097007, 35.588634455703172 ], [ 135.866113055563147, 35.588712787140473 ], [ 135.866167493528508, 35.588734150367884 ], [ 135.866271113100623, 35.58874000125347 ], [ 135.866388337104212, 35.588773604585874 ], [ 135.866519452348456, 35.588858326432259 ], [ 135.86659527166799, 35.588937215833226 ], [ 135.866636658580745, 35.58903860401881 ], [ 135.866640841749643, 35.589168341874583 ], [ 135.866752774345684, 35.589340825220205 ], [ 135.866896940642533, 35.589617776258784 ], [ 135.867038603159244, 35.590108897905353 ], [ 135.86714195468079, 35.590392777686844 ], [ 135.86770556733461, 35.590608044592315 ], [ 135.868023611584022, 35.59070639193537 ], [ 135.868120562472086, 35.590736107962236 ], [ 135.867983333403572, 35.590926952357599 ], [ 135.867962505921895, 35.590981110524424 ], [ 135.867991664198769, 35.591104728030281 ], [ 135.868041382400378, 35.591189449281828 ], [ 135.868197508295196, 35.591317224152405 ], [ 135.868276653317935, 35.59137665620613 ], [ 135.868547500423517, 35.591480276841239 ], [ 135.8689575082403, 35.591643349159931 ], [ 135.869044733285307, 35.591678896442531 ], [ 135.869111381621593, 35.591690829013167 ], [ 135.869321104800065, 35.591690829013167 ], [ 135.869431946928785, 35.591663346030685 ], [ 135.869590003972633, 35.591580279635146 ], [ 135.869741678154298, 35.591473348098333 ], [ 135.869820840948336, 35.591369438963881 ], [ 135.869849999225238, 35.591243896542835 ], [ 135.86987888994517, 35.59106082794824 ], [ 135.869937224763873, 35.590936383014373 ], [ 135.870047494755141, 35.590783607445324 ], [ 135.870243059136044, 35.590659162511457 ], [ 135.870338614976248, 35.590576115745776 ], [ 135.870469712449193, 35.590416661863131 ], [ 135.870577783240833, 35.590333057133776 ], [ 135.870817220049645, 35.590130568667114 ], [ 135.871027211772372, 35.589928889188293 ], [ 135.871079163728922, 35.589861932357962 ], [ 135.871266397314599, 35.589571932226548 ], [ 135.871374718385539, 35.589464712190392 ], [ 135.871694711555278, 35.589215282799159 ], [ 135.871919434706683, 35.589095822658017 ], [ 135.872148340533386, 35.58897195472283 ], [ 135.872230828536999, 35.589029154327029 ], [ 135.872628894033454, 35.588726394196968 ], [ 135.87338805329685, 35.588164446854705 ], [ 135.873723886133945, 35.587919444292517 ], [ 135.873795003954683, 35.587886111019287 ], [ 135.873866371561036, 35.58787833521852 ], [ 135.873998613308885, 35.587886399518624 ], [ 135.874626389277438, 35.588144431543789 ], [ 135.875189447565134, 35.588373055671283 ], [ 135.875316665956007, 35.588398056369755 ], [ 135.87549971587913, 35.588398056369755 ], [ 135.875728890250059, 35.588373055671283 ], [ 135.876298885272405, 35.588244722837032 ], [ 135.876514454718233, 35.588228613866669 ], [ 135.876956946021465, 35.588207789567917 ], [ 135.877191108206745, 35.588269992999841 ], [ 135.877465835381685, 35.588394726433044 ], [ 135.877638891411152, 35.588514994967184 ], [ 135.877797234770554, 35.588690827284523 ], [ 135.877832775415953, 35.588786384809211 ], [ 135.877858340432681, 35.588923339312394 ], [ 135.877843055131507, 35.589101943007933 ], [ 135.877797234770554, 35.589263898804433 ], [ 135.877664439150237, 35.58947749181889 ], [ 135.877521953723118, 35.589680826153725 ], [ 135.877455824210386, 35.589859718348592 ], [ 135.877414436803974, 35.590113343769403 ], [ 135.877344999852966, 35.590304437999251 ], [ 135.877256666075681, 35.590437235732558 ], [ 135.87692528445811, 35.590659162511457 ], [ 135.876777775674043, 35.5908002749742 ], [ 135.876747222842965, 35.590846118411591 ], [ 135.876696395909079, 35.590974721305017 ], [ 135.876645552191178, 35.591153325000548 ], [ 135.876523322108284, 35.591294725367788 ], [ 135.876171381553291, 35.591607493748143 ], [ 135.875930264862035, 35.591824454769331 ], [ 135.875453608708966, 35.592253064259936 ], [ 135.875377217745637, 35.592348602154772 ], [ 135.875356658314558, 35.59242306532154 ], [ 135.875366955307783, 35.592518602621531 ], [ 135.875397508632489, 35.592601669017071 ], [ 135.875805835579541, 35.593185287121102 ], [ 135.876136662830959, 35.593663051545647 ], [ 135.876309719354083, 35.593903896743115 ], [ 135.876386110317412, 35.594053323340447 ], [ 135.876426675307073, 35.594213065722428 ], [ 135.876492769277206, 35.594366957813669 ], [ 135.876625278581997, 35.5945455615092 ], [ 135.876778043724642, 35.594781941807611 ], [ 135.876874726562107, 35.595040820295786 ], [ 135.876904993571259, 35.595294175657422 ], [ 135.876839167651724, 35.59564722568377 ], [ 135.87672721777804, 35.595880007175978 ], [ 135.876716938062486, 35.595969174291575 ], [ 135.876711949754508, 35.596089731919903 ], [ 135.87675249697287, 35.596255825451273 ], [ 135.877241666596404, 35.597175556588439 ], [ 135.877440288136256, 35.597557784307831 ], [ 135.877690004166965, 35.59824916078184 ], [ 135.877741116429092, 35.59836138464572 ], [ 135.877837781001602, 35.59845694157557 ], [ 135.878133603708818, 35.598698614795893 ], [ 135.87826582768534, 35.598823348229097 ], [ 135.878496932711641, 35.599152225579815 ], [ 135.878933327961903, 35.599761940679812 ], [ 135.878974446330403, 35.599876396993231 ], [ 135.879023056293363, 35.600012236163913 ], [ 135.879046940934018, 35.600124171528456 ], [ 135.879053054758288, 35.600460823490259 ], [ 135.879023323850333, 35.600642507288022 ], [ 135.878987497383008, 35.600871958248675 ], [ 135.878993897522832, 35.60100862484736 ], [ 135.879053626895768, 35.601130567867365 ], [ 135.879125280817675, 35.601203606977592 ], [ 135.879651118083842, 35.601549998320202 ], [ 135.879848345069519, 35.601623055870597 ], [ 135.880800279605467, 35.601779160781511 ], [ 135.88105750401462, 35.601803603516316 ], [ 135.881218618711102, 35.601740264527201 ], [ 135.881487785440584, 35.601540278569239 ], [ 135.881595265829816, 35.601491393694481 ], [ 135.881684726604362, 35.601389158451042 ], [ 135.881798321311521, 35.601243061195575 ], [ 135.881959721336244, 35.601013879104414 ], [ 135.88207916231076, 35.600886932256685 ], [ 135.882234716561783, 35.600779712220529 ], [ 135.882493067474542, 35.600616678566695 ], [ 135.882929444459847, 35.600382492052965 ], [ 135.883090558662644, 35.600275003147317 ], [ 135.883144155946326, 35.600197210638683 ], [ 135.883150287541923, 35.60005082488388 ], [ 135.883078616342317, 35.599620001383911 ], [ 135.883019154526352, 35.599327499338635 ], [ 135.882995288150681, 35.599190832739943 ], [ 135.883036943114035, 35.598990847376832 ], [ 135.88307250202439, 35.598908049850785 ], [ 135.883078616342317, 35.598766380019214 ], [ 135.883019458613234, 35.598608331158104 ], [ 135.882953614922371, 35.598452495711513 ], [ 135.882953614922371, 35.598335267425057 ], [ 135.882977500056654, 35.598228047983746 ], [ 135.883061113576559, 35.598096385807629 ], [ 135.883246112420011, 35.597915838161903 ], [ 135.884066932205371, 35.597435282729315 ], [ 135.884413331073517, 35.597264724298881 ], [ 135.884771117402238, 35.597088603482206 ], [ 135.884772226134515, 35.596966678902369 ], [ 135.884703057234105, 35.596763614031872 ], [ 135.884703057234105, 35.596679161649817 ], [ 135.884730821450461, 35.596617228277069 ], [ 135.88486166815045, 35.596515820461633 ], [ 135.884937773785509, 35.596487490421289 ], [ 135.885041107042099, 35.59646499163668 ], [ 135.885141383139711, 35.596462220258481 ], [ 135.88520193492937, 35.596427500403891 ], [ 135.885291663260858, 35.596391394562779 ], [ 135.885388041517814, 35.59638471624919 ], [ 135.886287773817912, 35.59647026492874 ], [ 135.886432493987257, 35.596503060462993 ], [ 135.88654471191154, 35.596601119306705 ], [ 135.886585008356946, 35.596699447614746 ], [ 135.886595002250601, 35.596840001518977 ], [ 135.886562768549794, 35.597187508788927 ], [ 135.886611109968527, 35.597311934687788 ], [ 135.886715551463737, 35.597502220524632 ], [ 135.886836118941858, 35.597613616960516 ], [ 135.886964445077723, 35.597692506361483 ], [ 135.887093057529114, 35.59773167208013 ], [ 135.887213606742279, 35.59773167208013 ], [ 135.887430552970983, 35.597600548832681 ], [ 135.887495002107642, 35.597594178648279 ], [ 135.887591398629553, 35.597600548832681 ], [ 135.887816389831585, 35.597666101236321 ], [ 135.887945002282976, 35.597823611168771 ], [ 135.887945002282976, 35.597969996923574 ], [ 135.887948345263851, 35.597969438365055 ], [ 135.888058883305689, 35.597951115980173 ], [ 135.888115555519647, 35.597941396824055 ], [ 135.888115555519647, 35.597933871452611 ], [ 135.888115555519647, 35.597727496275247 ], [ 135.887969173239185, 35.597534458095211 ], [ 135.88789973579452, 35.597324174792774 ], [ 135.887892781288542, 35.597123323336795 ], [ 135.887962504061448, 35.59634499256687 ], [ 135.887997223277409, 35.596259712756812 ], [ 135.888081391657124, 35.596155553787881 ], [ 135.888144159924025, 35.596104454903745 ], [ 135.888165005177001, 35.596053337579448 ], [ 135.888158068935979, 35.595877216762773 ], [ 135.888165005177001, 35.595519162313856 ], [ 135.888231957600141, 35.59525527999795 ], [ 135.888298051570274, 35.594920821225976 ], [ 135.888291114835596, 35.594540557086631 ], [ 135.888338061700154, 35.593676677637156 ], [ 135.888403333253535, 35.593440278303738 ], [ 135.888459719645567, 35.593201395496621 ], [ 135.88852556333643, 35.593016653011013 ], [ 135.888749999678652, 35.592604440395263 ], [ 135.888881115416524, 35.592436383283854 ], [ 135.88901249821771, 35.592328894378213 ], [ 135.889265003850454, 35.592138050577688 ], [ 135.88941499716239, 35.5920616619009 ], [ 135.889517776546455, 35.592023343240108 ], [ 135.889641937284722, 35.592015548999171 ], [ 135.88988500240265, 35.592023343240108 ], [ 135.890118896537331, 35.591946955753002 ], [ 135.890512224498735, 35.591885830178406 ], [ 135.890778066018669, 35.591777494214909 ], [ 135.891097773366511, 35.591630838995769 ], [ 135.891111664113538, 35.59160834021116 ], [ 135.891208043357778, 35.591540844452169 ], [ 135.891394436261777, 35.591450541779373 ], [ 135.891691116928314, 35.591349172628796 ], [ 135.891946392910825, 35.591321112052789 ], [ 135.892270551478163, 35.591287508720384 ], [ 135.893050002122067, 35.591287508720384 ], [ 135.893470557704973, 35.591287508720384 ], [ 135.893843325741642, 35.591270552692158 ], [ 135.894560830041712, 35.591214161480963 ], [ 135.894643603867223, 35.591174726297979 ], [ 135.894795278542546, 35.591022509287448 ], [ 135.894946935446541, 35.590938056905387 ], [ 135.895050554525028, 35.590926663858255 ], [ 135.895224719286801, 35.590723328928583 ], [ 135.895402495080049, 35.590515278670516 ], [ 135.895395558839027, 35.590408328098697 ], [ 135.895360822345395, 35.590256111088159 ], [ 135.895360822345395, 35.590047771735911 ], [ 135.895388603839393, 35.589985568898832 ], [ 135.89547139592986, 35.589884161083397 ], [ 135.895478332170882, 35.589811103533009 ], [ 135.895450568448183, 35.58978277289782 ], [ 135.895167778528617, 35.589596932925026 ], [ 135.895078068462084, 35.589557786241386 ], [ 135.894926376015462, 35.589557497742049 ], [ 135.894843602189951, 35.589574434140417 ], [ 135.894705567982356, 35.589574434140417 ], [ 135.894031113199844, 35.589366384477195 ], [ 135.893801938828915, 35.589270288618685 ], [ 135.893353333701384, 35.589050556219298 ], [ 135.893180831050756, 35.588960272581517 ], [ 135.893132775947578, 35.588920837398533 ], [ 135.893091389034822, 35.588903881370314 ], [ 135.892912236458699, 35.588751933824113 ], [ 135.892794994190155, 35.588582760785357 ], [ 135.89255332362643, 35.588154439199243 ], [ 135.892415557963062, 35.587788340674912 ], [ 135.892394729987728, 35.587641665825927 ], [ 135.892394729987728, 35.587275567301596 ], [ 135.892443053635162, 35.586909179683076 ], [ 135.89245000814114, 35.586723050616101 ], [ 135.892405278247509, 35.58649804492466 ], [ 135.89245610419411, 35.586245266561704 ], [ 135.892554431865051, 35.586018335955082 ], [ 135.892793885951534, 35.585724449112973 ], [ 135.893136941345176, 35.585412219661279 ], [ 135.893447226936843, 35.585231672610405 ], [ 135.89360444379264, 35.585151666092401 ], [ 135.894050832442872, 35.585043888687416 ], [ 135.894571949945288, 35.584942499906994 ], [ 135.894831391819054, 35.584852235899056 ], [ 135.895171390053719, 35.584651114383902 ], [ 135.895682782206762, 35.584382227645428 ], [ 135.896065276086489, 35.584264152895962 ], [ 135.896405273827526, 35.584222504298459 ], [ 135.896694446115617, 35.584243328597211 ], [ 135.896928054428372, 35.584305840158329 ], [ 135.897153331452301, 35.58440999912726 ], [ 135.897459451646341, 35.584666953295091 ], [ 135.897574172857105, 35.584656387675963 ], [ 135.897616668502167, 35.584670264196795 ], [ 135.897714441806954, 35.584809432114504 ], [ 135.897918605033652, 35.585361101742144 ], [ 135.897970843799385, 35.585523615502318 ], [ 135.898034721292248, 35.585770273515358 ], [ 135.898085833060748, 35.585794446785833 ], [ 135.898536387602235, 35.585811941742712 ], [ 135.898578882753611, 35.585843043161255 ], [ 135.898719151209804, 35.585988870952384 ], [ 135.898974176913015, 35.586117492285972 ], [ 135.899084446904283, 35.586120821627844 ], [ 135.899664435820256, 35.585849452010507 ], [ 135.900518883366942, 35.585443321674667 ], [ 135.900561396783303, 35.585373611906306 ], [ 135.900582778137448, 35.585290276641281 ], [ 135.900545002256166, 35.585031397558261 ], [ 135.90052805435019, 35.58477471285476 ], [ 135.900476942088062, 35.58460804113502 ], [ 135.900353603766519, 35.584389174828509 ], [ 135.900005274243, 35.583913604188631 ], [ 135.900000822529819, 35.583865008408054 ], [ 135.900015553958525, 35.583813332525239 ], [ 135.900030839259728, 35.583758885264231 ], [ 135.90003943859918, 35.583672239097503 ], [ 135.899971378431047, 35.583439439165133 ], [ 135.899763067084393, 35.583022780685333 ], [ 135.899609729804297, 35.582621115248557 ], [ 135.899507772836955, 35.582287772998768 ], [ 135.899478042916257, 35.582090000455338 ], [ 135.899482226085183, 35.581966382949481 ], [ 135.899537503744938, 35.581695551665966 ], [ 135.899656373075629, 35.581452493053973 ], [ 135.899851954734203, 35.581174714587384 ], [ 135.900073048589206, 35.580917779454552 ], [ 135.900166656496395, 35.580756112157388 ], [ 135.900200838623874, 35.580624161481936 ], [ 135.900209169912728, 35.580485281468725 ], [ 135.900128613058143, 35.580162216933573 ], [ 135.90014556096412, 35.580117219364347 ], [ 135.900226385869303, 35.580068604548757 ], [ 135.900642775560954, 35.57985000711173 ], [ 135.900788890284474, 35.579761109460463 ], [ 135.900822768818756, 35.579695287592486 ], [ 135.900826934216383, 35.579044173729464 ], [ 135.900971117790874, 35.578196942179012 ], [ 135.901005282147054, 35.577934175790453 ], [ 135.901060560300465, 35.577677221622615 ], [ 135.901098890054243, 35.577541651916263 ], [ 135.90112860269727, 35.57750695109668 ], [ 135.901273054816016, 35.577476119142474 ], [ 135.901358331434352, 35.576755006416903 ], [ 135.901438888288936, 35.576348607211571 ], [ 135.901460287908037, 35.575811949067123 ], [ 135.901451671290943, 35.575711388309543 ], [ 135.901349714323572, 35.575506398523864 ], [ 135.901298048188949, 35.57545805198292 ], [ 135.901260558129536, 35.575423062663994 ], [ 135.900792787631502, 35.575231949399139 ], [ 135.900583886376097, 35.575109447820623 ], [ 135.900401104997201, 35.575078346402087 ], [ 135.900213889182851, 35.575033041298511 ], [ 135.899848343702729, 35.574870007049839 ], [ 135.899746387229015, 35.574772776228976 ], [ 135.899591941216642, 35.574545268028828 ], [ 135.899515281709085, 35.574468880541723 ], [ 135.899204996117419, 35.574330001123357 ], [ 135.899090274906655, 35.574215544809938 ], [ 135.899026665958047, 35.574066118212606 ], [ 135.89892027554248, 35.573680561746187 ], [ 135.898775001500667, 35.573352223324136 ], [ 135.898668896906997, 35.57316472790049 ], [ 135.898375541943665, 35.572959718484952 ], [ 135.897852779607746, 35.572643601727719 ], [ 135.897770541883432, 35.572602762118059 ], [ 135.897524168833598, 35.572526374036109 ], [ 135.89705693493039, 35.572266109561411 ], [ 135.896899432252695, 35.572221112587037 ], [ 135.896542503389696, 35.572172496581757 ], [ 135.896242783335481, 35.572169166645047 ], [ 135.896026105651003, 35.572200557157771 ], [ 135.895771115984076, 35.57231861287223 ], [ 135.895571386205575, 35.572471387846441 ], [ 135.895486395409137, 35.572593042367096 ], [ 135.895346109181645, 35.572950557292508 ], [ 135.895311944331809, 35.573161398558625 ], [ 135.895273614578031, 35.57327610530136 ], [ 135.895158893367267, 35.573366388344304 ], [ 135.895026937935, 35.573380284494988 ], [ 135.89487361891986, 35.573358054579863 ], [ 135.894720835512231, 35.573363886430442 ], [ 135.894661106632981, 35.57335027937394 ], [ 135.894462502864428, 35.573268041001256 ], [ 135.89432888482736, 35.57326028483034 ], [ 135.894092505671182, 35.573247775261017 ], [ 135.893798327797441, 35.573209994934047 ], [ 135.893452232522492, 35.573231107732141 ], [ 135.893011118002136, 35.573337211246105 ], [ 135.892668044343537, 35.573443603854258 ], [ 135.89245583614354, 35.573571667224172 ], [ 135.892299173653868, 35.573719458000504 ], [ 135.892219171165436, 35.573872771903375 ], [ 135.892034994738708, 35.574675545408112 ], [ 135.891972494522378, 35.574783611907279 ], [ 135.891742765785295, 35.575024996033413 ], [ 135.891644170063785, 35.575080559221767 ], [ 135.891519168643839, 35.575126115349505 ], [ 135.891498341655819, 35.575165839031825 ], [ 135.891508888928286, 35.575211105470537 ], [ 135.891630564645027, 35.5753447312267 ], [ 135.891831939750659, 35.575790836269029 ], [ 135.891854447608409, 35.575920842994293 ], [ 135.891844167892884, 35.576207763618321 ], [ 135.891903057077741, 35.576583042964948 ], [ 135.891986653319975, 35.576789996330675 ], [ 135.892153881840727, 35.577050838398897 ], [ 135.892630268955884, 35.577491111590653 ], [ 135.892706946728424, 35.577590555826035 ], [ 135.892752212723224, 35.577726933330538 ], [ 135.89276694415193, 35.577879150935921 ], [ 135.892770001310879, 35.577910848982995 ], [ 135.892759453544755, 35.578303045692984 ], [ 135.892804719539555, 35.578726383081211 ], [ 135.892891945571876, 35.579018325973131 ], [ 135.893010277814085, 35.579259999788292 ], [ 135.893291941230046, 35.579535275746174 ], [ 135.893693045620523, 35.579832223655508 ], [ 135.893971383826937, 35.580016947700955 ], [ 135.894169719544891, 35.580227210778695 ], [ 135.894316101825353, 35.580441958385357 ], [ 135.89442749782657, 35.580706380224768 ], [ 135.894451937326977, 35.580837214972881 ], [ 135.894434452826175, 35.581004714120624 ], [ 135.894364997610239, 35.581421949599104 ], [ 135.894299726056829, 35.581589448151995 ], [ 135.894208335120567, 35.581669165575811 ], [ 135.894101390338875, 35.581689720410232 ], [ 135.893581667390634, 35.581628055906975 ], [ 135.893313895215329, 35.581633059734699 ], [ 135.893175271098954, 35.581656385947319 ], [ 135.893089154292596, 35.581713335122188 ], [ 135.892925287017675, 35.581931932559215 ], [ 135.892837221290961, 35.582073333521301 ], [ 135.892811942589788, 35.582189175226397 ], [ 135.892843336102544, 35.582590552163836 ], [ 135.892818324958313, 35.58270360345572 ], [ 135.892676107581792, 35.582913886758163 ], [ 135.892818056907714, 35.58325860302007 ], [ 135.892814713433211, 35.583328042729256 ], [ 135.892761116149529, 35.583366669519236 ], [ 135.89256610613478, 35.583410550566271 ], [ 135.892509165376595, 35.583397502068287 ], [ 135.892052783326363, 35.58273389707611 ], [ 135.891895548205611, 35.582360542644665 ], [ 135.891593897989679, 35.581657502469504 ], [ 135.891487507574112, 35.581381378858929 ], [ 135.891373054413947, 35.581097210578093 ], [ 135.89129693100756, 35.580815005282453 ], [ 135.89124195694103, 35.580726396130522 ], [ 135.891109161814342, 35.580620831545225 ], [ 135.890938053717889, 35.580518615336793 ], [ 135.890835542878051, 35.580406950031424 ], [ 135.890744438257343, 35.580192779423449 ], [ 135.890721661855338, 35.58003138218546 ], [ 135.890733068074468, 35.579931937355227 ], [ 135.890820275348176, 35.579618341546869 ], [ 135.890812784741001, 35.57951916677581 ], [ 135.890782213644968, 35.579399437170331 ], [ 135.89069110902426, 35.579185285597362 ], [ 135.890615003882829, 35.578844168141657 ], [ 135.890531389375639, 35.578594431216068 ], [ 135.890436386914246, 35.578374159888028 ], [ 135.8904288963071, 35.578318327235344 ], [ 135.890531389375639, 35.577983060665218 ], [ 135.890565840047373, 35.577810288225415 ], [ 135.890535286722638, 35.57758695701984 ], [ 135.890421387434969, 35.577279712360863 ], [ 135.890341671262092, 35.577180287160488 ], [ 135.889896104534927, 35.576784434539277 ], [ 135.889512502910236, 35.576542222390287 ], [ 135.888908325266726, 35.576312770239952 ], [ 135.888378322602961, 35.576146946172912 ], [ 135.887949722046727, 35.576088611606366 ], [ 135.887671651890912, 35.576050831279396 ], [ 135.887436112922785, 35.576056951629312 ], [ 135.887299455991695, 35.576084723705982 ], [ 135.887021940202033, 35.576298894313965 ], [ 135.886550004306372, 35.576474726631297 ], [ 135.886270271052155, 35.57652332241188 ], [ 135.886132773933042, 35.576497224821068 ], [ 135.885486941326207, 35.576227779524075 ], [ 135.884718896407776, 35.576073330064006 ], [ 135.88442110750259, 35.576084434611801 ], [ 135.884114164891798, 35.576136957552464 ], [ 135.883495274084595, 35.576361655709555 ], [ 135.88293611265027, 35.576264174459368 ], [ 135.882285846595238, 35.576095828848615 ], [ 135.881310832064088, 35.575926655809859 ], [ 135.880458618765999, 35.575724725901715 ], [ 135.880105551707402, 35.575705844958307 ], [ 135.87932667320095, 35.575739718944732 ], [ 135.878742232571824, 35.575747493555816 ], [ 135.878334156397699, 35.575784715919113 ], [ 135.878210567303256, 35.575740007444075 ], [ 135.878167142119963, 35.575676071826422 ], [ 135.87816471090602, 35.575672492055233 ], [ 135.878159991142269, 35.575597508994811 ], [ 135.878265559141113, 35.575268055240251 ], [ 135.87824723445226, 35.575193322609159 ], [ 135.878141666947073, 35.574972223258264 ], [ 135.878132495470169, 35.574852493652791 ], [ 135.878192779209229, 35.574372227314385 ], [ 135.878202772609228, 35.574026951899114 ], [ 135.878157506120772, 35.573932492456443 ], [ 135.877860557897264, 35.573628058435375 ], [ 135.877815273143852, 35.57354166269797 ], [ 135.877820260958202, 35.573451398095187 ], [ 135.877926383323143, 35.573230838267804 ], [ 135.878233325933934, 35.572770260670957 ], [ 135.87840443353673, 35.572651108064157 ], [ 135.878928053831999, 35.572412494721377 ], [ 135.879340832492204, 35.572330275978537 ], [ 135.879592497443241, 35.572190549502317 ], [ 135.87993111889503, 35.571933055810973 ], [ 135.880112237669124, 35.571805550999571 ], [ 135.880152498571931, 35.571727508061613 ], [ 135.880172772181112, 35.571558892986531 ], [ 135.880213068132889, 35.57147249784397 ], [ 135.880504993493076, 35.571085824855366 ], [ 135.880781651323389, 35.570938053114041 ], [ 135.881078617811852, 35.570859721081902 ], [ 135.881486373115081, 35.570793880773763 ], [ 135.881714725069287, 35.57070944802156 ], [ 135.881956396126697, 35.570577785845444 ], [ 135.882097218455357, 35.570540833541315 ], [ 135.882424452940285, 35.570668338947563 ], [ 135.882660832096491, 35.570705271621833 ], [ 135.88285721840046, 35.57070944802156 ], [ 135.882952774734321, 35.570771112524817 ], [ 135.883033331588905, 35.570960262804469 ], [ 135.883259735610068, 35.571186385018095 ], [ 135.883280008231964, 35.57139610976202 ], [ 135.883335554929602, 35.571596115349827 ], [ 135.883372221584949, 35.571728336084462 ], [ 135.883382233743561, 35.57186417406546 ], [ 135.883319714768618, 35.571911115584875 ], [ 135.88323638707061, 35.572020278976375 ], [ 135.883202777080584, 35.572350541718777 ], [ 135.883020567345511, 35.572982506363751 ], [ 135.8833416687539, 35.573331668489715 ], [ 135.883643605779042, 35.573615008747701 ], [ 135.883781389213709, 35.573517508462508 ], [ 135.883956662214104, 35.573596667922651 ], [ 135.883953068953957, 35.573733891890164 ], [ 135.884519434679873, 35.573919443958459 ], [ 135.885487495198703, 35.573966673382373 ], [ 135.886120831119058, 35.574103609445395 ], [ 135.886917212391268, 35.573386115750722 ], [ 135.887045556298432, 35.573305551269051 ], [ 135.887322214128744, 35.573345833509883 ], [ 135.888359443054327, 35.573817786308553 ], [ 135.888722218184654, 35.573908608280156 ], [ 135.889536941423358, 35.574017502802171 ], [ 135.890081943566429, 35.57383499217125 ], [ 135.890674446940181, 35.573597225886324 ], [ 135.891005542242226, 35.573286671515334 ], [ 135.891106104161736, 35.573045556258684 ], [ 135.89114445218047, 35.572953348300558 ], [ 135.891267772237029, 35.572440825356558 ], [ 135.891425561230278, 35.572295556123947 ], [ 135.891677494231914, 35.572126113620861 ], [ 135.891820837618383, 35.572098053044847 ], [ 135.892260271762638, 35.572057501339678 ], [ 135.892721677663474, 35.571931381325108 ], [ 135.8934922253747, 35.57159249691378 ], [ 135.89524722714458, 35.571224434809402 ], [ 135.89546944750316, 35.570974177990159 ], [ 135.895578340217895, 35.5709661142849 ], [ 135.895643325949379, 35.571010283236433 ], [ 135.895723614753365, 35.571127780987219 ], [ 135.895798325834278, 35.571143062529579 ], [ 135.895785561097199, 35.571057224755847 ], [ 135.89564915395178, 35.570880834474835 ], [ 135.89565389148683, 35.570770554561143 ], [ 135.895922218028289, 35.569829729660896 ], [ 135.896348887929122, 35.569072492059206 ], [ 135.89668250379529, 35.568286674582694 ], [ 135.897796106900159, 35.567756118347994 ], [ 135.898830279160421, 35.567558326769557 ], [ 135.898921652325356, 35.567606384216312 ], [ 135.899170563710641, 35.567520834941924 ], [ 135.899144158505862, 35.567483343709135 ], [ 135.899786951725048, 35.566904171469155 ], [ 135.899871942521486, 35.566946955623855 ], [ 135.899937499896765, 35.566893605255189 ], [ 135.89985222327843, 35.566808056575638 ], [ 135.900015822009124, 35.566674450449327 ], [ 135.90010749926094, 35.566717214974176 ], [ 135.900429441351008, 35.566446673379694 ], [ 135.900563327438675, 35.566477216239718 ], [ 135.901089164704842, 35.566122222263175 ], [ 135.901094438834747, 35.566043332862208 ], [ 135.901309167598868, 35.5658988910576 ], [ 135.901448614131965, 35.565995275415453 ], [ 135.901605562443535, 35.565830279371262 ], [ 135.901541381357475, 35.565782221924501 ], [ 135.901809458113291, 35.565471108994998 ], [ 135.902024169106113, 35.565479711628925 ], [ 135.902099166008895, 35.5650416708867 ], [ 135.902297787548775, 35.564888048259796 ], [ 135.902378344896988, 35.564451662968423 ], [ 135.901911664372619, 35.56425444838866 ], [ 135.901519999509645, 35.564311378528522 ], [ 135.901450276243111, 35.564110006584052 ], [ 135.901342223716426, 35.5638488950515 ], [ 135.901783338730411, 35.563135000757867 ], [ 135.901643605881759, 35.562714165878347 ], [ 135.901584716696902, 35.5626486134747 ], [ 135.901537502275403, 35.562612508228433 ], [ 135.900742497786098, 35.562876391139184 ], [ 135.900683608601213, 35.562823887828365 ], [ 135.900308051456165, 35.562902777229333 ], [ 135.899882776603164, 35.562445567639209 ], [ 135.899971664252945, 35.562280820834658 ], [ 135.90003445078483, 35.562195272155108 ], [ 135.900027496772481, 35.562115285266962 ], [ 135.899929722974065, 35.56199582512582 ], [ 135.899727222352141, 35.561881676941596 ], [ 135.899566662515468, 35.561876114555346 ], [ 135.899202779640149, 35.561882504369599 ], [ 135.898840541104647, 35.561563058270501 ], [ 135.898465287552796, 35.561380547044728 ], [ 135.898428334581894, 35.561340553898077 ], [ 135.898143882057553, 35.561034714260636 ], [ 135.897851384559914, 35.560859440501815 ], [ 135.897342227642781, 35.560711110796817 ], [ 135.897154994057075, 35.560661956457722 ], [ 135.89694750562083, 35.560601677346135 ], [ 135.896791665547909, 35.560546114157788 ], [ 135.896627226135536, 35.560487490497053 ], [ 135.896279450978142, 35.560848604823512 ], [ 135.896291947170937, 35.560935558524584 ], [ 135.896234452540256, 35.561109177427397 ], [ 135.896124165271345, 35.56119944203018 ], [ 135.896111668584894, 35.561363321552179 ], [ 135.896054442004811, 35.56144694650623 ], [ 135.895868602973309, 35.561464999426789 ], [ 135.895721397782467, 35.56155526343472 ], [ 135.895627218231454, 35.561578608682346 ], [ 135.895303882080839, 35.561521948006813 ], [ 135.895230279238604, 35.561471677740371 ], [ 135.894581943838944, 35.560820005318831 ], [ 135.894354163528533, 35.560505543417612 ], [ 135.893866387965573, 35.560164444996907 ], [ 135.893535829258383, 35.559981665496501 ], [ 135.893518899123706, 35.559912495251645 ], [ 135.893332774270306, 35.559808893651542 ], [ 135.893265285745997, 35.559843325006796 ], [ 135.892850826709719, 35.559598052385432 ], [ 135.892770555677032, 35.559425280540474 ], [ 135.892199719972979, 35.55938388177745 ], [ 135.8917458407156, 35.559715280671888 ], [ 135.891644438114383, 35.559673881908864 ], [ 135.891060838166936, 35.560081667695556 ], [ 135.890953625334646, 35.560355558856607 ], [ 135.89091139823384, 35.560517495023255 ], [ 135.890780551040194, 35.56061083853858 ], [ 135.890738323939388, 35.560693885899113 ], [ 135.890746672505912, 35.560759437707908 ], [ 135.890780551040194, 35.560845833445313 ], [ 135.890759455507919, 35.561105001027677 ], [ 135.890780551040194, 35.561210277113638 ], [ 135.890805830235024, 35.561331392705632 ], [ 135.890767786303144, 35.561428066157667 ], [ 135.890670835415079, 35.56154889265548 ], [ 135.890624174372448, 35.561749167707625 ], [ 135.890510007527809, 35.561963337720755 ], [ 135.890505824358911, 35.56201195313119 ], [ 135.890562228522242, 35.56212000059535 ], [ 135.890564445493169, 35.562178046662559 ], [ 135.890527777850536, 35.562235823860277 ], [ 135.890444718203128, 35.562325837438891 ], [ 135.890383326225418, 35.562379996200555 ], [ 135.890317500305883, 35.562397779061939 ], [ 135.890251388564451, 35.562388060500666 ], [ 135.8901975054589, 35.562351935624548 ], [ 135.890141118573212, 35.562281956986695 ], [ 135.889254991691843, 35.562096116419063 ], [ 135.888973614591436, 35.562011664631846 ], [ 135.888402779381039, 35.56172222305895 ], [ 135.887954155494924, 35.56148360971617 ], [ 135.887544719815594, 35.561341111861751 ], [ 135.887326111475772, 35.561194168143274 ], [ 135.887098063114763, 35.560970008914843 ], [ 135.886338886080068, 35.560171393369671 ], [ 135.886117774453737, 35.55944804878942 ], [ 135.885889994143355, 35.559113609647298 ], [ 135.885140274407433, 35.558810002459388 ], [ 135.884965555773164, 35.558871108998972 ], [ 135.884353046840829, 35.558649991207915 ], [ 135.884345824284253, 35.558475274817923 ], [ 135.883453600856285, 35.558533051420802 ], [ 135.883421671735988, 35.558594176995399 ], [ 135.883004995728783, 35.558774455176788 ], [ 135.88268444819289, 35.558951942350134 ], [ 135.882252218340255, 35.55929942999024 ], [ 135.881828891913898, 35.559632772834867 ], [ 135.881467780375658, 35.559917229615039 ], [ 135.8812327775087, 35.560088884937812 ], [ 135.881004711376391, 35.560211117051992 ], [ 135.880578882157238, 35.560361101612997 ], [ 135.880169178427309, 35.560483333727184 ], [ 135.880147779301836, 35.560544439671929 ], [ 135.878469168495315, 35.560314160093583 ], [ 135.878497504849094, 35.560154167877123 ], [ 135.878258890950661, 35.560116388144991 ], [ 135.878198320896075, 35.560311100216047 ], [ 135.877744727954223, 35.560243873921387 ], [ 135.877776675339476, 35.560084170204263 ], [ 135.87763084693151, 35.56006111345598 ], [ 135.877577213611573, 35.560252765649501 ], [ 135.87733861748444, 35.560209173101804 ], [ 135.877384992211546, 35.560000006916397 ], [ 135.877199725317496, 35.55997360119639 ], [ 135.877146396084413, 35.560142216271473 ], [ 135.876719172804741, 35.560066386153196 ], [ 135.876776113069269, 35.559848616739018 ], [ 135.876576669112666, 35.559801945278778 ], [ 135.876448611027399, 35.560197490960483 ], [ 135.875581398743662, 35.559999178893548 ], [ 135.875763054606239, 35.55944889525243 ], [ 135.875609716832486, 35.559402223792191 ], [ 135.875374714459184, 35.560047775863815 ], [ 135.874861659701367, 35.560141119379139 ], [ 135.874853060361914, 35.560042213477573 ], [ 135.874811941993386, 35.559567778394893 ], [ 135.874623045802934, 35.559576381028819 ], [ 135.874658891028844, 35.560178899111264 ], [ 135.874133053762677, 35.560301958653454 ], [ 135.873950271396495, 35.559839995070085 ], [ 135.873914981030367, 35.559802214743108 ], [ 135.873822499626783, 35.55978000505268 ], [ 135.873790284190932, 35.559875542352678 ], [ 135.87379582587775, 35.5599272372705 ], [ 135.873887503129566, 35.560246664334592 ], [ 135.873801957967004, 35.560345551201152 ], [ 135.873819728289703, 35.560467782720487 ], [ 135.872751105851393, 35.561120840533704 ], [ 135.872793887318323, 35.561707210980927 ], [ 135.873082218924708, 35.562030275516079 ], [ 135.873088601293233, 35.562064995965514 ], [ 135.873043334804777, 35.562103622160656 ], [ 135.87298028071595, 35.562124157960064 ], [ 135.872907500290438, 35.562485830250196 ], [ 135.872148340533386, 35.562653617302431 ], [ 135.872084713813479, 35.562706679171761 ], [ 135.8720111119585, 35.562716378698028 ], [ 135.872004711325019, 35.562748057710088 ], [ 135.872055555536576, 35.562875274616992 ], [ 135.872055555536576, 35.563053050289675 ], [ 135.872074452362881, 35.563097508930241 ], [ 135.872127781102307, 35.563159443492673 ], [ 135.872148340533386, 35.563183616168303 ], [ 135.872417775807122, 35.563981943214131 ], [ 135.872813606561351, 35.564203041970181 ], [ 135.873196118212377, 35.564606382487668 ], [ 135.873296107994463, 35.56527362435606 ], [ 135.872524166222689, 35.566327771202225 ], [ 135.872148340533386, 35.566393342046027 ], [ 135.871918325974406, 35.566378060503666 ], [ 135.871427493252469, 35.566508895251779 ], [ 135.87084611027592, 35.566779167976776 ], [ 135.870332501151978, 35.566726395796472 ], [ 135.870278063186618, 35.56670945880326 ], [ 135.870004176693357, 35.566791947605275 ], [ 135.869762774180202, 35.566809441967315 ], [ 135.869630836519235, 35.566779726535295 ], [ 135.86942944413596, 35.566944165210657 ], [ 135.869376382953476, 35.566952228915916 ], [ 135.869300277318416, 35.56694193216628 ], [ 135.869279432065412, 35.567580555494992 ], [ 135.869025550637105, 35.568038323643627 ], [ 135.868754434987295, 35.568418067889318 ], [ 135.868552220187269, 35.568643054545753 ], [ 135.868301663968538, 35.56891944702582 ], [ 135.86793695818281, 35.569365552663001 ], [ 135.867838613234227, 35.569572216934539 ], [ 135.86777693543462, 35.569868895379543 ], [ 135.86762944442188, 35.570632214071445 ], [ 135.86776138158919, 35.570651113455007 ], [ 135.86770971496091, 35.571251667957412 ], [ 135.867866931816707, 35.571283327934466 ], [ 135.868528872141468, 35.572033886032877 ], [ 135.869409724892932, 35.572036119077254 ], [ 135.869790824218455, 35.572165279339508 ], [ 135.869703062578623, 35.572373618096911 ], [ 135.86984472558899, 35.572404720110292 ], [ 135.869932773050721, 35.572245554132152 ], [ 135.870108332366698, 35.572178058373154 ], [ 135.870602776613765, 35.572178616931673 ], [ 135.871774178436169, 35.572190549502317 ], [ 135.871894441827408, 35.572169166645047 ], [ 135.872013346207098, 35.572162777425639 ], [ 135.872148340533386, 35.572156118147063 ], [ 135.872353326670464, 35.572179174895346 ], [ 135.872558884944993, 35.572266109561411 ], [ 135.872778887839019, 35.572509456672748 ], [ 135.872991668670124, 35.572978618463367 ], [ 135.872993617096824, 35.573068343542637 ], [ 135.873052506281681, 35.5739469465708 ], [ 135.873074442495636, 35.574045274878848 ], [ 135.873331112538665, 35.5744611053358 ], [ 135.873871395411641, 35.574771679336635 ], [ 135.874005281499308, 35.574824163612448 ], [ 135.874192496820029, 35.574854726102323 ], [ 135.874802788287809, 35.574864175794104 ], [ 135.875184173928886, 35.574936945440001 ], [ 135.875845542116195, 35.575185835307728 ], [ 135.876596674671248, 35.575473045025937 ], [ 135.877119722829065, 35.575701669153432 ], [ 135.877711940380919, 35.575982218998213 ], [ 135.878215555611234, 35.576208052712502 ] ] ], [ [ [ 135.907414443886267, 35.616168895171391 ], [ 135.907468345256802, 35.616038041388272 ], [ 135.907337212241231, 35.615987500467817 ], [ 135.907033613104971, 35.615874718640256 ], [ 135.906873339090197, 35.615794154753431 ], [ 135.906806118616487, 35.615762225312039 ], [ 135.906768611279432, 35.615725541877403 ], [ 135.906679991186593, 35.615612221716027 ], [ 135.906585275534411, 35.615480289480736 ], [ 135.906523042875023, 35.615398609071725 ], [ 135.906251945490141, 35.615054450773485 ], [ 135.906176661778176, 35.614861662427927 ], [ 135.906198347712831, 35.614782773621805 ], [ 135.906248333965038, 35.614757503458996 ], [ 135.906520557853497, 35.614590832334109 ], [ 135.906659718564697, 35.614455551721939 ], [ 135.906752771612105, 35.614293056996772 ], [ 135.906925005224849, 35.613768042923617 ], [ 135.906692774188599, 35.61363056852678 ], [ 135.906626394396568, 35.613554719373496 ], [ 135.906600006469461, 35.613403330385808 ], [ 135.906619725712488, 35.613278884262257 ], [ 135.906798896059911, 35.612834993229292 ], [ 135.906885281410524, 35.612671382576778 ], [ 135.907037778008942, 35.612476380816695 ], [ 135.907190275100987, 35.612335557448141 ], [ 135.907541661783483, 35.612059434432403 ], [ 135.907661389073553, 35.611923325797385 ], [ 135.907754156299035, 35.611771666750521 ], [ 135.907807217481519, 35.611588058632421 ], [ 135.907920544138108, 35.611023052007461 ], [ 135.907986674144496, 35.610844448311923 ], [ 135.908126101918981, 35.610720003378063 ], [ 135.908226128230979, 35.610646945232823 ], [ 135.908481385948505, 35.610534162810424 ], [ 135.90878500334972, 35.61043833701109 ], [ 135.908975847966872, 35.610259175351885 ], [ 135.9094091677932, 35.609807777982489 ], [ 135.909513895603965, 35.609667492947743 ], [ 135.909551385169721, 35.609588045583109 ], [ 135.909551385169721, 35.609368331623891 ], [ 135.909528608767715, 35.60912777492576 ], [ 135.909167497229447, 35.608156675440128 ], [ 135.909146955569696, 35.607921104129559 ], [ 135.909229443079624, 35.60755945087444 ], [ 135.909229443079624, 35.607424728225944 ], [ 135.909164440070498, 35.607040827210376 ], [ 135.90925416790833, 35.606697226280971 ], [ 135.909267772833431, 35.606522491450811 ], [ 135.909309178011142, 35.606376394790196 ], [ 135.909481394346216, 35.606122769369385 ], [ 135.90956416767807, 35.605874726559513 ], [ 135.909619445337825, 35.60581833534831 ], [ 135.90973666983507, 35.605711384776484 ], [ 135.909764452316381, 35.605643618958318 ], [ 135.909784993482504, 35.605531106595095 ], [ 135.909840271142258, 35.605480277770141 ], [ 135.909984991311575, 35.605446385343548 ], [ 135.910399164525955, 35.605446385343548 ], [ 135.910536947960622, 35.605497214763353 ], [ 135.910688890686544, 35.60558722834196 ], [ 135.910771664512055, 35.60558722834196 ], [ 135.910847502096544, 35.605570561407923 ], [ 135.910875015539943, 35.605604164740328 ], [ 135.910980833818058, 35.605649720273227 ], [ 135.911513607818904, 35.60533693285786 ], [ 135.911681103896598, 35.605501949126747 ], [ 135.911696943563925, 35.60522861592937 ], [ 135.911679441291795, 35.60513194307218 ], [ 135.911671664369095, 35.605089448011661 ], [ 135.911607501054334, 35.605000261266213 ], [ 135.911051379007688, 35.604696115744481 ], [ 135.910918601652298, 35.604603330192823 ], [ 135.910804720629585, 35.604510545236018 ], [ 135.9107477798714, 35.604407501599589 ], [ 135.91072250067657, 35.604329997590291 ], [ 135.910728883045124, 35.603909990733619 ], [ 135.910710004483775, 35.603311668680753 ], [ 135.910754162239925, 35.603175829510064 ], [ 135.910848878385764, 35.603021110585665 ], [ 135.910886957860271, 35.602897492484963 ], [ 135.910886957860271, 35.602815003682949 ], [ 135.910710004483775, 35.602221955516988 ], [ 135.91069110765747, 35.602123896673277 ], [ 135.910419992007633, 35.601426669313682 ], [ 135.910316944572969, 35.601152778152631 ], [ 135.910337504004048, 35.601055835831112 ], [ 135.910440837754265, 35.600992785936171 ], [ 135.910621384390907, 35.600900288883864 ], [ 135.911189448757909, 35.600646394593561 ], [ 135.91131332367425, 35.60057889883457 ], [ 135.911375270018084, 35.600515559845448 ], [ 135.911437215868261, 35.600448333550787 ], [ 135.911607501054334, 35.600359724398864 ], [ 135.911784991519312, 35.6002880516453 ], [ 135.912037764215341, 35.600191109323781 ], [ 135.912203062080721, 35.600178618194619 ], [ 135.912832214338522, 35.599887772195039 ], [ 135.912919725699084, 35.599781110122557 ], [ 135.912966118691145, 35.59967999140131 ], [ 135.912981672042918, 35.599578891715069 ], [ 135.912971392327364, 35.599490282563139 ], [ 135.91267195908236, 35.598961958777977 ], [ 135.912352233469562, 35.598414735014394 ], [ 135.912218061559997, 35.598134435004091 ], [ 135.912151394958784, 35.597929714087897 ], [ 135.912066386884675, 35.597598335418155 ], [ 135.912024159783897, 35.596706106298484 ], [ 135.912024159783897, 35.596003894146172 ], [ 135.911805837265945, 35.595972773097778 ], [ 135.911809448297419, 35.59591638248142 ], [ 135.911817779092615, 35.595789723538189 ], [ 135.911957225625713, 35.595111396157009 ], [ 135.911969435996639, 35.594908619785848 ], [ 135.911969435996639, 35.59471556197596 ], [ 135.911933054669532, 35.594522773630409 ], [ 135.911860274737649, 35.594379448347979 ], [ 135.911768615750788, 35.594228886788301 ], [ 135.911574713481031, 35.5939569389826 ], [ 135.911344162820882, 35.593198624118429 ], [ 135.911253344022072, 35.593015825583009 ], [ 135.911186677914486, 35.59294667437316 ], [ 135.911131936355901, 35.592907219560331 ], [ 135.911028871149909, 35.592887222689583 ], [ 135.910524433502871, 35.592823056272458 ], [ 135.910493898443093, 35.592798344668168 ], [ 135.910493898443093, 35.592724150965736 ], [ 135.910099998837893, 35.592689450146153 ], [ 135.909918342975317, 35.59286249205028 ], [ 135.909723601011166, 35.593016653011013 ], [ 135.90936611827567, 35.593333327731912 ], [ 135.909347775815519, 35.593644729160758 ], [ 135.909482216269311, 35.593824718842811 ], [ 135.909494159083266, 35.593874162276087 ], [ 135.909412493002748, 35.594606109490272 ], [ 135.909281396023488, 35.594600278234545 ], [ 135.909270276119884, 35.594603068647743 ], [ 135.909212495173676, 35.594617233073073 ], [ 135.909178044995571, 35.594611652246662 ], [ 135.90893444278916, 35.594600835603373 ], [ 135.908688892649707, 35.5944191720303 ], [ 135.908651117262082, 35.594423329395021 ], [ 135.908049442411425, 35.594489728261671 ], [ 135.907214445563511, 35.594581936814649 ], [ 135.907149996426881, 35.594606109490272 ], [ 135.907025835688614, 35.594713040432246 ], [ 135.906791101365883, 35.595039992867783 ], [ 135.906501392976622, 35.595535829842731 ], [ 135.906425555885789, 35.595620281629948 ], [ 135.906308331388544, 35.595671110454902 ], [ 135.906163343168629, 35.595704714382151 ], [ 135.905956658884151, 35.595704714382151 ], [ 135.905866948817618, 35.595665278604329 ], [ 135.905729164889294, 35.595530287086341 ], [ 135.905729164889294, 35.595462502233168 ], [ 135.905846389386539, 35.595265287653405 ], [ 135.905860280627167, 35.595186398252437 ], [ 135.905860280627167, 35.59496110287197 ], [ 135.905915272465023, 35.594842778288019 ], [ 135.906032228418013, 35.594729996460465 ], [ 135.906121956749502, 35.594622777019154 ], [ 135.906279995528394, 35.594341668615854 ], [ 135.905499436645869, 35.592842495179532 ], [ 135.905349728168545, 35.592870555755546 ], [ 135.905301387243469, 35.592859451207751 ], [ 135.904871374361733, 35.592818899502589 ], [ 135.904350275124273, 35.592715836236302 ], [ 135.904081394216661, 35.592648609941641 ], [ 135.903590846822965, 35.592191939280184 ], [ 135.903387774063589, 35.592003885892865 ], [ 135.903349444309811, 35.5919905483007 ], [ 135.902724171134054, 35.592142496441745 ], [ 135.902538046280654, 35.592196385144241 ], [ 135.902033322811718, 35.592465002418379 ], [ 135.901934172724026, 35.592560001384555 ], [ 135.901610568522841, 35.59286443540563 ], [ 135.901550284290124, 35.592918055238634 ], [ 135.901175549561799, 35.593057493215518 ], [ 135.901005550197652, 35.593124719510179 ], [ 135.900912497150244, 35.593178608212668 ], [ 135.900769725407599, 35.593299454340332 ], [ 135.900539442798021, 35.593541108525649 ], [ 135.900308337278062, 35.593874431145579 ], [ 135.900308337278062, 35.593892215196647 ], [ 135.900533042658196, 35.594008614865409 ], [ 135.90053860260997, 35.594026667785968 ], [ 135.900456383150612, 35.594393613368155 ], [ 135.900423344804381, 35.594420558016822 ], [ 135.900258887620708, 35.594411666288707 ], [ 135.900226385869303, 35.594679995063515 ], [ 135.900189718720299, 35.59498360165658 ], [ 135.900279160736233, 35.595006100441196 ], [ 135.900341392901964, 35.595039992867783 ], [ 135.900431103955782, 35.595146943439609 ], [ 135.900527786299619, 35.595293617693748 ], [ 135.900651947037858, 35.595524455235768 ], [ 135.900651947037858, 35.595609175892463 ], [ 135.900603605619125, 35.595648611670292 ], [ 135.90048611307131, 35.595671110454902 ], [ 135.900424167221132, 35.595727501666104 ], [ 135.900341392901964, 35.595856930797844 ], [ 135.900182764214321, 35.596009167438233 ], [ 135.900113613578867, 35.596133055003264 ], [ 135.900113613578867, 35.596290834400044 ], [ 135.9002033236454, 35.596386390735049 ], [ 135.90028611524221, 35.596442781946251 ], [ 135.900279160736233, 35.596437239189861 ], [ 135.900541391718349, 35.59645973797447 ], [ 135.900575824125127, 35.596470823487252 ], [ 135.900810558447859, 35.596470823487252 ], [ 135.901086393367791, 35.596397784377025 ], [ 135.901465848353496, 35.596397784377025 ], [ 135.901907517239977, 35.596493610771205 ], [ 135.902134992969849, 35.596572500172172 ], [ 135.902259153708115, 35.596634453174772 ], [ 135.902659453946825, 35.596927494148716 ], [ 135.902686931847597, 35.596938618326355 ], [ 135.902976389957587, 35.597192224117315 ], [ 135.903128332683508, 35.597350003514102 ], [ 135.903280007358831, 35.597530281100646 ], [ 135.90338360866599, 35.597699435104396 ], [ 135.903466382491501, 35.597896399849674 ], [ 135.903507769404257, 35.598155566837193 ], [ 135.903535283341313, 35.598279723866561 ], [ 135.90363194840748, 35.598454170197371 ], [ 135.903714721739334, 35.598561389638689 ], [ 135.903921656303083, 35.598764166604688 ], [ 135.904045835306306, 35.598871386640845 ], [ 135.904204445728993, 35.599023334187052 ], [ 135.904335543695566, 35.599203881832771 ], [ 135.904528622561315, 35.599558625379991 ], [ 135.90477694403782, 35.599907768470949 ], [ 135.904983879095226, 35.600150288154275 ], [ 135.905392223813578, 35.60060249451152 ], [ 135.905487494325541, 35.600708059096824 ], [ 135.905528899009596, 35.600786949092637 ], [ 135.90557722265703, 35.6009222297048 ], [ 135.905591113404029, 35.601243061195575 ], [ 135.905666932723562, 35.601519165771151 ], [ 135.905763615561028, 35.601750272777501 ], [ 135.905805002473784, 35.601936382214625 ], [ 135.905970835946704, 35.602321380717363 ], [ 135.906132772566224, 35.603018608671803 ], [ 135.906335273188148, 35.603470274910691 ], [ 135.906361678392926, 35.603615275273818 ], [ 135.906367774939554, 35.603748611935792 ], [ 135.906331375841148, 35.603837490552053 ], [ 135.906046941581764, 35.604192773027933 ], [ 135.905962773202077, 35.604291678929499 ], [ 135.905871936138311, 35.604508889785166 ], [ 135.905786660013632, 35.604688610002889 ], [ 135.905780563467005, 35.604994718509815 ], [ 135.905750278686526, 35.605098339144931 ], [ 135.905447787788887, 35.60558722834196 ], [ 135.905350264763371, 35.605742236360548 ], [ 135.905193065678873, 35.606097788300758 ], [ 135.905084172964166, 35.606270560145717 ], [ 135.90495722311752, 35.606443331990668 ], [ 135.904727226329868, 35.606665278399419 ], [ 135.90446667671111, 35.606854447714078 ], [ 135.903843620012651, 35.6072888896501 ], [ 135.903158617463987, 35.607784726625056 ], [ 135.903086105089045, 35.607863615431178 ], [ 135.902965002003413, 35.608051111449669 ], [ 135.902789728509362, 35.60842138637372 ], [ 135.902758603540832, 35.608497216491998 ], [ 135.902758603540832, 35.608566386736847 ], [ 135.903006674738066, 35.608986104499344 ], [ 135.903061112703426, 35.609104718772315 ], [ 135.9030549983855, 35.609183608173289 ], [ 135.902819155330491, 35.609509444086633 ], [ 135.902782505952786, 35.609580828340853 ], [ 135.902733324839659, 35.609775559446916 ], [ 135.90270389801853, 35.60989167121118 ], [ 135.902473882965893, 35.610424999418925 ], [ 135.902425542040817, 35.610594152827829 ], [ 135.902419445494189, 35.610702777885507 ], [ 135.902455844592623, 35.610924993163749 ], [ 135.902510282064327, 35.611161932020671 ], [ 135.902492225919701, 35.61126222271907 ], [ 135.902383332217681, 35.611573066184242 ], [ 135.902256114814122, 35.611810005041164 ], [ 135.902098898451953, 35.611938607339745 ], [ 135.901917224324421, 35.612057778981551 ], [ 135.901899168179796, 35.612082221716356 ], [ 135.901893053861869, 35.612136668382519 ], [ 135.901923339136005, 35.612225566033786 ], [ 135.902092497818472, 35.612452785139752 ], [ 135.902177220564312, 35.612447781312021 ], [ 135.902267788590194, 35.612531675135564 ], [ 135.902879171018952, 35.613199725396953 ], [ 135.903073895211776, 35.613274996956712 ], [ 135.903334176779936, 35.613378329092484 ], [ 135.903321948637711, 35.613442496104454 ], [ 135.904235553419852, 35.613837502262655 ], [ 135.904509994279238, 35.613962774624525 ], [ 135.904927492209538, 35.614698610333932 ], [ 135.905036385911558, 35.614792223313593 ], [ 135.905315277990468, 35.614922230038857 ], [ 135.905623614661778, 35.615070271244512 ], [ 135.90569028126302, 35.615021116310572 ], [ 135.905950276515597, 35.615080278899967 ], [ 135.905986675614031, 35.615159168895779 ], [ 135.906173337062256, 35.615463603511692 ], [ 135.906404727910456, 35.615786668046844 ], [ 135.9065574930531, 35.615931128886466 ], [ 135.906619725712488, 35.615981669212083 ], [ 135.906861110454344, 35.616083346491848 ], [ 135.906978334457932, 35.616128343466229 ], [ 135.907047503358314, 35.616145279864597 ], [ 135.907349154561558, 35.616260005642339 ], [ 135.90737332502411, 35.616269166834783 ], [ 135.907414443886267, 35.616168895171391 ] ] ], [ [ [ 135.891427778201205, 35.611913875510758 ], [ 135.891549721968545, 35.611822495575481 ], [ 135.891676117449038, 35.611728055167816 ], [ 135.891521671930292, 35.611523334251622 ], [ 135.891247213299607, 35.611160276569819 ], [ 135.891247213299607, 35.611114163073253 ], [ 135.89129555471834, 35.611087776388253 ], [ 135.891505564212366, 35.611061390298104 ], [ 135.891602497329131, 35.611021666020939 ], [ 135.891683322234314, 35.610922760714217 ], [ 135.892120003306445, 35.610175550992679 ], [ 135.892371113397701, 35.609863899729355 ], [ 135.892564997402502, 35.609685834367639 ], [ 135.892969176723255, 35.609541104063688 ], [ 135.893187213419282, 35.609442217791972 ], [ 135.893470003338848, 35.609270831338691 ], [ 135.893849725881495, 35.609105834699662 ], [ 135.894184719024167, 35.608803344033937 ], [ 135.89454250535286, 35.608505838160937 ], [ 135.894617216433744, 35.608393056333377 ], [ 135.894772788456095, 35.608167492083425 ], [ 135.894818894638945, 35.608063890483315 ], [ 135.894916954259287, 35.607688053173021 ], [ 135.895003321344944, 35.607488606143725 ], [ 135.895084164515083, 35.607385273413108 ], [ 135.895412506744975, 35.606933895673563 ], [ 135.895493063599559, 35.606806948230989 ], [ 135.895337492070894, 35.605902498636183 ], [ 135.895279996946556, 35.605599450006785 ], [ 135.895274168944184, 35.605383335448614 ], [ 135.89531444761829, 35.605228057965697 ], [ 135.895406678248946, 35.604842501499284 ], [ 135.895412506744975, 35.604725004343337 ], [ 135.895395272523473, 35.604631371733831 ], [ 135.895337492070894, 35.604523055400179 ], [ 135.895214439571276, 35.604333057467827 ], [ 135.895202211429051, 35.604314177119271 ], [ 135.895119455374839, 35.604308345863537 ], [ 135.894960843964867, 35.604195833500313 ], [ 135.894822774708302, 35.604195833500313 ], [ 135.894719441451713, 35.604122505295905 ], [ 135.894464165469202, 35.603818052239824 ], [ 135.894415824050469, 35.603784448312574 ], [ 135.893967504251208, 35.603615275273818 ], [ 135.893801938828915, 35.603530842521614 ], [ 135.893643059861972, 35.603406667052084 ], [ 135.893298341863527, 35.603040567932908 ], [ 135.892898059396146, 35.602787232201123 ], [ 135.8927397165304, 35.602668887392475 ], [ 135.892629447032789, 35.602533606780312 ], [ 135.892546386891752, 35.602370265592128 ], [ 135.892498331788573, 35.602201112183224 ], [ 135.892498331788573, 35.602048894577848 ], [ 135.892574168879406, 35.601891115181068 ], [ 135.892774167202134, 35.601682776423665 ], [ 135.893236109204167, 35.601231956647787 ], [ 135.893498339692627, 35.600939165508329 ], [ 135.893505275933649, 35.600831946067011 ], [ 135.893477494439651, 35.600781386706387 ], [ 135.893436107033239, 35.600674166670231 ], [ 135.893387783385833, 35.600618064553217 ], [ 135.893208613532067, 35.600471389704232 ], [ 135.892946668865477, 35.600353046085274 ], [ 135.89282250812721, 35.600313610307452 ], [ 135.89245000814114, 35.600167225147487 ], [ 135.891760017778125, 35.599986677501768 ], [ 135.891497787289666, 35.599953054539512 ], [ 135.891235824851776, 35.599953054539512 ], [ 135.891132223544616, 35.599992508757495 ], [ 135.891028890781655, 35.600054443319934 ], [ 135.890676931961707, 35.600381106661288 ], [ 135.890614717073646, 35.600420541844265 ], [ 135.89051833881669, 35.600443329128218 ], [ 135.890338882153713, 35.600420541844265 ], [ 135.890138883830957, 35.600341671478304 ], [ 135.889670005094274, 35.600088335151675 ], [ 135.889538890343687, 35.600043068712964 ], [ 135.889098329202199, 35.600043068712964 ], [ 135.889097506785447, 35.600043068712964 ], [ 135.888890554944027, 35.60000361449498 ], [ 135.888538613895378, 35.599986677501768 ], [ 135.888538613895378, 35.599940006041528 ], [ 135.888462508753946, 35.599938889519336 ], [ 135.88841166404876, 35.599938331555663 ], [ 135.888386671169485, 35.599958616925754 ], [ 135.888359175497357, 35.599964178717151 ], [ 135.888055558096141, 35.599930555754895 ], [ 135.887814173354286, 35.599891101536912 ], [ 135.887545274181747, 35.599879726929942 ], [ 135.887379458480154, 35.599891101536912 ], [ 135.887186397385733, 35.599936118141144 ], [ 135.887034722216754, 35.599958616925754 ], [ 135.887006958000399, 35.599969991532724 ], [ 135.886765555487244, 35.600183892081525 ], [ 135.886455001845007, 35.600504993631475 ], [ 135.886344714082441, 35.600668334819659 ], [ 135.88631723618164, 35.600781116647212 ], [ 135.88631723618164, 35.601068326365422 ], [ 135.886337777347762, 35.601136111218601 ], [ 135.886503325492441, 35.601451669417315 ], [ 135.886558603152196, 35.601603887022691 ], [ 135.886558603152196, 35.601722211606642 ], [ 135.886537775670519, 35.601812225780101 ], [ 135.886510279504762, 35.601857492218812 ], [ 135.886510279504762, 35.601919445816257 ], [ 135.886482766061363, 35.601986941575248 ], [ 135.886475847097984, 35.602133327330051 ], [ 135.886503325492441, 35.602375558514041 ], [ 135.886537775670519, 35.60247138490822 ], [ 135.886606944570929, 35.602612227311788 ], [ 135.886668890914763, 35.602679723070779 ], [ 135.886958617075322, 35.602944722503715 ], [ 135.887020831469755, 35.603080003115885 ], [ 135.887034722216754, 35.603169998254337 ], [ 135.887006958000399, 35.603271674939251 ], [ 135.886958617075322, 35.603344714049484 ], [ 135.886882779984489, 35.603395542874438 ], [ 135.886738041550188, 35.603468889519014 ], [ 135.886572494392823, 35.603530842521614 ], [ 135.886289454193985, 35.603570278299436 ], [ 135.886179166431418, 35.603609712887575 ], [ 135.886041382996751, 35.603682771627653 ], [ 135.885999996084024, 35.603728057696216 ], [ 135.885979436652946, 35.603756117677385 ], [ 135.885820825242945, 35.604026390402382 ], [ 135.885751656342535, 35.604218043190741 ], [ 135.88573805191109, 35.6043080573642 ], [ 135.885799998254925, 35.604482773159347 ], [ 135.885827493927025, 35.604539163775705 ], [ 135.885910267752536, 35.604623615562915 ], [ 135.886006664274447, 35.604663051340737 ], [ 135.88608250136528, 35.604725273212829 ], [ 135.886118042504336, 35.60480889816688 ], [ 135.886120277246562, 35.604916117608191 ], [ 135.886041114946181, 35.605074454968644 ], [ 135.88597221409637, 35.605175824119215 ], [ 135.885813889001923, 35.605356390799948 ], [ 135.885779438823846, 35.605412782011143 ], [ 135.885710287694735, 35.60558722834196 ], [ 135.885689728263657, 35.606054715646721 ], [ 135.885593063197518, 35.606347775655664 ], [ 135.885530848803086, 35.606584444453411 ], [ 135.885527773872809, 35.606632501900172 ], [ 135.885517226106685, 35.606798615061393 ], [ 135.885537785537764, 35.606866110820384 ], [ 135.885689441948102, 35.607181939078281 ], [ 135.885744434279616, 35.60736221725967 ], [ 135.885765261761293, 35.60749749787184 ], [ 135.885758342797914, 35.607638051776064 ], [ 135.885689441948102, 35.607778875144625 ], [ 135.885572217944514, 35.607919718143037 ], [ 135.885254996111854, 35.60819584175362 ], [ 135.884889431873148, 35.608629725725969 ], [ 135.884406394338868, 35.609159434902814 ], [ 135.884393325514935, 35.609212766236475 ], [ 135.884492779689481, 35.609680830539915 ], [ 135.884606106346041, 35.610035824516451 ], [ 135.884765825501034, 35.610274995228067 ], [ 135.884872215916573, 35.610405272012507 ], [ 135.885005548131744, 35.610503061391888 ], [ 135.885145262221783, 35.610557508652896 ], [ 135.885311668325784, 35.610589996057953 ], [ 135.886025275278826, 35.610721119305403 ], [ 135.887411656144678, 35.610993335980595 ], [ 135.887884450493345, 35.611101942003273 ], [ 135.888005554072635, 35.611146669513317 ], [ 135.888932495729279, 35.611647779780327 ], [ 135.889858043325376, 35.612191385107856 ], [ 135.889978056437343, 35.612218618255866 ], [ 135.890197773015842, 35.612245832368863 ], [ 135.890517498134983, 35.612229434899163 ], [ 135.890637225425053, 35.61219694689926 ], [ 135.89074388389119, 35.612115286120094 ], [ 135.890803881808353, 35.612028331824177 ], [ 135.890837223254124, 35.611685828976789 ], [ 135.890879433077259, 35.611458629500675 ], [ 135.89090971736411, 35.611389728125317 ], [ 135.890957236859748, 35.611327775122717 ], [ 135.89097472136055, 35.611320557880461 ], [ 135.891002771398803, 35.611320557880461 ], [ 135.891121943829063, 35.611412496374257 ], [ 135.891191112729473, 35.611564443920464 ], [ 135.891226117767332, 35.61168194167125 ], [ 135.891427778201205, 35.611913875510758 ] ] ] ] } }
]
}
