{
"type": "FeatureCollection",
"crs": { "type": "name", "properties": { "name": "urn:ogc:def:crs:EPSG::4612" } },
"features": [
{ "type": "Feature", "properties": { "P12_001": 10009, "P12_002": "男体山", "P12_003": "09", "P12_004": "09206", "P12_005": "山岳", "P12_006": "日光市", "P12_007": -1 }, "geometry": { "type": "Point", "coordinates": [ 139.490768290410131, 36.765121539955928 ] } },
{ "type": "Feature", "properties": { "P12_001": 10008, "P12_002": "戦場ヶ原", "P12_003": "09", "P12_004": "09206", "P12_005": "高原・湿原・原野", "P12_006": "日光市", "P12_007": -1 }, "geometry": { "type": "Point", "coordinates": [ 139.441154000100681, 36.776466999765603 ] } },
{ "type": "Feature", "properties": { "P12_001": 10007, "P12_002": "鬼怒沼湿原", "P12_003": "09", "P12_004": "09206", "P12_005": "高原・湿原・原野", "P12_006": "日光市", "P12_007": -1 }, "geometry": { "type": "Point", "coordinates": [ 139.364028040129625, 36.873604829877223 ] } },
{ "type": "Feature", "properties": { "P12_001": 10006, "P12_002": "中禅寺湖", "P12_003": "09", "P12_004": "09206", "P12_005": "湖沼", "P12_006": "日光市", "P12_007": -1 }, "geometry": { "type": "Point", "coordinates": [ 139.458475540317863, 36.743311199957951 ] } },
{ "type": "Feature", "properties": { "P12_001": 10005, "P12_002": "華厳滝", "P12_003": "09", "P12_004": "09206", "P12_005": "滝", "P12_006": "日光市中宮祠2479-2", "P12_007": -1 }, "geometry": { "type": "Point", "coordinates": [ 139.501944999408011, 36.737982999805062 ] } },
{ "type": "Feature", "properties": { "P12_001": 10004, "P12_002": "日光杉並木", "P12_003": "09", "P12_004": "09206", "P12_005": "植物", "P12_006": "日光市", "P12_007": -1 }, "geometry": { "type": "Point", "coordinates": [ 139.710068349569156, 36.719936710281701 ] } },
{ "type": "Feature", "properties": { "P12_001": 10003, "P12_002": "雲竜渓谷の氷瀑", "P12_003": "09", "P12_004": "09206", "P12_005": "自然現象", "P12_006": "日光市", "P12_007": -1 }, "geometry": { "type": "Point", "coordinates": [ 139.56289389282199, 36.797818061580536 ] } },
{ "type": "Feature", "properties": { "P12_001": 10002, "P12_002": "東照宮", "P12_003": "09", "P12_004": "09206", "P12_005": "神社・寺院・教会", "P12_006": "日光市山内2301", "P12_007": -1 }, "geometry": { "type": "Point", "coordinates": [ 139.598968031599327, 36.758023974003514 ] } },
{ "type": "Feature", "properties": { "P12_001": 10001, "P12_002": "輪王寺大猷院霊廟", "P12_003": "09", "P12_004": "09206", "P12_005": "神社・寺院・教会", "P12_006": "日光市山内2300", "P12_007": -1 }, "geometry": { "type": "Point", "coordinates": [ 139.59893799999756, 36.754929000189918 ] } },
{ "type": "Feature", "properties": { "P12_001": 10010, "P12_002": "那須湯本温泉の「鹿の湯」と高温源泉浴", "P12_003": "09", "P12_004": "09407", "P12_005": "温泉", "P12_006": "那須町湯本", "P12_007": -1 }, "geometry": { "type": "Point", "coordinates": [ 140.001006, 37.098205999963859 ] } },
{ "type": "Feature", "properties": { "P12_001": 10008, "P12_002": "戦場ヶ原", "P12_003": "09", "P12_004": "09206", "P12_005": "高原・湿原・原野", "P12_006": "日光市", "P12_007": -1 }, "geometry": { "type": "MultiPolygon", "coordinates": [ [ [ [ 139.451424605810416, 36.77003920363012 ], [ 139.450078574429511, 36.770036342284868 ], [ 139.449808877808863, 36.770171192697852 ], [ 139.449301281931525, 36.770258432264001 ], [ 139.449428165310309, 36.770432911868255 ], [ 139.44949955699775, 36.770536038602415 ], [ 139.448555694807141, 36.770678794527846 ], [ 139.448357420696681, 36.770781921262007 ], [ 139.448182932187166, 36.770924677187438 ], [ 139.448095672759962, 36.771051571273453 ], [ 139.447952921163562, 36.771186421686437 ], [ 139.447754615991443, 36.771297453933045 ], [ 139.447730828956878, 36.771456097026487 ], [ 139.447762565631081, 36.771575060271459 ], [ 139.447572209381804, 36.771701979686078 ], [ 139.447048714703016, 36.771828873929415 ], [ 139.446898013228036, 36.771955768015438 ], [ 139.446842489997181, 36.772074756589006 ], [ 139.446715575795679, 36.772201650675022 ], [ 139.446652134464699, 36.772312683078951 ], [ 139.446517301685219, 36.772471326172393 ], [ 139.446247635648376, 36.772550634740178 ], [ 139.44599380676749, 36.772693415994205 ], [ 139.445898628762336, 36.772788586558718 ], [ 139.445708272513031, 36.772915481116698 ], [ 139.445565520677718, 36.77303446921831 ], [ 139.445335509654115, 36.77313757109583 ], [ 139.44512133626435, 36.773256559197442 ], [ 139.444867538684093, 36.773383453755422 ], [ 139.444336125188386, 36.773502417000394 ], [ 139.444145768939109, 36.773629336415013 ], [ 139.443979199963309, 36.773756230501029 ], [ 139.44396336232947, 36.77389901144042 ], [ 139.443844366944887, 36.774010044158985 ], [ 139.443654010934523, 36.774129032260596 ], [ 139.443654010934523, 36.774240064979168 ], [ 139.443249511879287, 36.774366959065183 ], [ 139.442337386601821, 36.77443836212052 ], [ 139.442718098383608, 36.774636634562555 ], [ 139.442781540431383, 36.774834931703907 ], [ 139.442781540431383, 36.774945964107829 ], [ 139.442496006176924, 36.77509665087431 ], [ 139.442162898809102, 36.77519184676742 ], [ 139.441155595526482, 36.775168054086961 ], [ 139.440885898189038, 36.775342533533902 ], [ 139.440251388349111, 36.775334602692851 ], [ 139.440370352910975, 36.774731804969747 ], [ 139.440616232152195, 36.774509740319218 ], [ 139.440647969065338, 36.774351097225768 ], [ 139.440394170768258, 36.774343166384725 ], [ 139.440164128921936, 36.774462129629697 ], [ 139.439965854094652, 36.774628703564183 ], [ 139.439513750625451, 36.774715943287653 ], [ 139.439156825639287, 36.774565256363857 ], [ 139.438688884775189, 36.774509740319218 ], [ 139.438522315799389, 36.77435902822414 ], [ 139.438514366159723, 36.774247995820211 ], [ 139.436777374793081, 36.774271788657991 ], [ 139.436206306284163, 36.774168661923831 ], [ 139.436119046856959, 36.774081421885725 ], [ 139.436047656125254, 36.773938665960294 ], [ 139.436015950034857, 36.773811746545675 ], [ 139.436095260539219, 36.773708645140111 ], [ 139.435777989371616, 36.773684852302331 ], [ 139.435159347988275, 36.773772092340444 ], [ 139.434421710503557, 36.773930734961922 ], [ 139.434477233734412, 36.774097283725133 ], [ 139.434469314917493, 36.774168661923831 ], [ 139.434588280196152, 36.774295580866486 ], [ 139.434619985330812, 36.774366959065183 ], [ 139.43452480732563, 36.774533507828394 ], [ 139.434413792403433, 36.774644565403598 ], [ 139.434263091167395, 36.774731804969747 ], [ 139.433866510451196, 36.774842837373669 ], [ 139.433628549787926, 36.774969756788288 ], [ 139.433469930212851, 36.77509665087431 ], [ 139.434223404614613, 36.77535839537331 ], [ 139.434294796302055, 36.775469453105835 ], [ 139.434152044705655, 36.775612209031266 ], [ 139.43438205572923, 36.775707379595779 ], [ 139.434921387325033, 36.775929469889554 ], [ 139.435262444810377, 36.776032596151751 ], [ 139.435222790036079, 36.776175352549146 ], [ 139.43351750404301, 36.776183283390189 ], [ 139.433573027273866, 36.776286384795753 ], [ 139.433152660000985, 36.776389511529914 ], [ 139.433128872727508, 36.776532267455345 ], [ 139.433493716769533, 36.776667117553686 ], [ 139.433287493019407, 36.77677815027225 ], [ 139.434992779012475, 36.7767860811133 ], [ 139.435325886141356, 36.776873320679442 ], [ 139.435595583478801, 36.777024032931841 ], [ 139.435690761722896, 36.777103341499625 ], [ 139.43569867982302, 36.777222330073194 ], [ 139.435785939728078, 36.777333362477123 ], [ 139.435714548040636, 36.777777517421427 ], [ 139.435682812083257, 36.777928229516505 ], [ 139.435785939728078, 36.778047192761477 ], [ 139.435849381059057, 36.778174112176096 ], [ 139.436008031934762, 36.778277213738974 ], [ 139.436190438544401, 36.778340660624664 ], [ 139.436174570087815, 36.778562750918432 ], [ 139.436523577212824, 36.778689645004455 ], [ 139.436705983105639, 36.778689645004455 ], [ 139.436769425153415, 36.778578612285884 ], [ 139.436967731042358, 36.778388245985582 ], [ 139.437150168235803, 36.778245490060151 ], [ 139.437166005152818, 36.777888549825349 ], [ 139.437626058022744, 36.778015469239968 ], [ 139.437729154844845, 36.778150319495637 ], [ 139.437697418887439, 36.778245490060151 ], [ 139.437832282728607, 36.778364453305123 ], [ 139.437911592277231, 36.778507209230554 ], [ 139.437776759497751, 36.778610335964714 ], [ 139.437927460733789, 36.7787769098992 ], [ 139.43822886272801, 36.778880011304757 ], [ 139.438316091093526, 36.779022767387509 ], [ 139.438680935135551, 36.779252788207693 ], [ 139.439474095851153, 36.779236926368277 ], [ 139.439640665543749, 36.779387638463355 ], [ 139.439894463124034, 36.779498670867277 ], [ 139.440235519892553, 36.779514532706692 ], [ 139.440505185690455, 36.779363820926257 ], [ 139.440814538041138, 36.7793717517673 ], [ 139.441123858613338, 36.779506601708327 ], [ 139.441909069928215, 36.779633495951664 ], [ 139.442273944554046, 36.779760415366283 ], [ 139.442868799619646, 36.779736597671864 ], [ 139.44303536931227, 36.779657288632123 ], [ 139.44376505715735, 36.779601772587483 ], [ 139.444161637395666, 36.779617634112249 ], [ 139.44435199340603, 36.779736597671864 ], [ 139.444336125188386, 36.779839724406024 ], [ 139.444431303193568, 36.779958687650996 ], [ 139.444272683857406, 36.780045952545741 ], [ 139.444399567236189, 36.780188708471172 ], [ 139.444486826424452, 36.780275948037321 ], [ 139.44451856238183, 36.780410798450305 ], [ 139.444407516636886, 36.780553554375736 ], [ 139.444605790986287, 36.780767713513825 ], [ 139.444399567236189, 36.780902538440884 ], [ 139.444201292169993, 36.781061181534334 ], [ 139.443852316584525, 36.781148421257797 ], [ 139.443606437104393, 36.781283271513466 ], [ 139.442932241667421, 36.781283271513466 ], [ 139.441940805885622, 36.781299133352874 ], [ 139.441393524650181, 36.781275340672416 ], [ 139.441203168400875, 36.78137844207798 ], [ 139.440893847589734, 36.781410165599482 ], [ 139.440251388349111, 36.781402234758431 ], [ 139.439965854094652, 36.781275340672416 ], [ 139.439466177034234, 36.781267409674051 ], [ 139.439378917845971, 36.781402234758431 ], [ 139.439323394615087, 36.781505361492592 ], [ 139.439109251809128, 36.781687771937897 ], [ 139.438847504828146, 36.781663979257438 ], [ 139.438530234377367, 36.781544990683862 ], [ 139.43854610211713, 36.78142602743889 ], [ 139.438641280361225, 36.781307064193918 ], [ 139.438768195040609, 36.781235661138588 ], [ 139.438577839030245, 36.781061181534334 ], [ 139.43834782800667, 36.780958080128769 ], [ 139.438450924111947, 36.780847022553566 ], [ 139.438593706531094, 36.78069633562977 ], [ 139.43834782800667, 36.780609070735018 ], [ 139.43830817299343, 36.780474245650637 ], [ 139.43826056786267, 36.780331489725206 ], [ 139.438212994988248, 36.780204570310588 ], [ 139.437967115508087, 36.780093537592023 ], [ 139.435934311577057, 36.780074588809754 ], [ 139.435708275014889, 36.780205448630937 ], [ 139.435624991004858, 36.780342281596866 ], [ 139.435500064034073, 36.780455296553733 ], [ 139.435553599317416, 36.780544519144783 ], [ 139.435012280251982, 36.780824108193457 ], [ 139.434102142205234, 36.780800315355677 ], [ 139.433893930507622, 36.780931200505464 ], [ 139.433655969844352, 36.780919279072613 ], [ 139.433459682725669, 36.780461244841838 ], [ 139.433025435182685, 36.780330385492618 ], [ 139.432930257177503, 36.780217344735185 ], [ 139.432852934620684, 36.780080537097859 ], [ 139.432424617708136, 36.780092433674071 ], [ 139.432406762259802, 36.780205448630937 ], [ 139.432198550323221, 36.780348229884972 ], [ 139.432305653146301, 36.780461244841838 ], [ 139.433067077187701, 36.780574260270669 ], [ 139.433495362560677, 36.780913330784507 ], [ 139.433406146725531, 36.781079904404358 ], [ 139.433334755993826, 36.781157230733839 ], [ 139.433180080057411, 36.781264297402601 ], [ 139.433108719431658, 36.781413026944733 ], [ 139.433150362153469, 36.781567704460336 ], [ 139.433310968720349, 36.781668823155634 ], [ 139.43334664903324, 36.781769942008253 ], [ 139.433209829023042, 36.781871086032147 ], [ 139.433043259330418, 36.781995997565225 ], [ 139.432954043495243, 36.782109012522092 ], [ 139.432858865490061, 36.782222052807562 ], [ 139.432757725075959, 36.782323171660181 ], [ 139.433132506466194, 36.782442160076428 ], [ 139.432977830051925, 36.782578967871075 ], [ 139.432977830051925, 36.782680087038337 ], [ 139.433019472773736, 36.78278717887838 ], [ 139.433025435182685, 36.782888297730999 ], [ 139.432906439081279, 36.783013209264077 ], [ 139.43320389743684, 36.783114353287971 ], [ 139.433126544057245, 36.783257109370723 ], [ 139.433364504720515, 36.783292798155429 ], [ 139.433697643388939, 36.783138145653794 ], [ 139.433697643388939, 36.783048898206104 ], [ 139.433876074820319, 36.782912090411457 ], [ 139.434137822757066, 36.78281097171616 ], [ 139.434137822757066, 36.782573019897612 ], [ 139.434280605176184, 36.782459979612149 ], [ 139.434566138713848, 36.782573019897612 ], [ 139.434500678612608, 36.782674138750231 ], [ 139.434500678612608, 36.78278717887838 ], [ 139.43442931870365, 36.782876401626751 ], [ 139.434262749488909, 36.78302513069692 ], [ 139.43411996706979, 36.783155990518104 ], [ 139.434084286756899, 36.78326900547497 ], [ 139.434114035483589, 36.78334633148981 ], [ 139.434399569738048, 36.783447475671032 ], [ 139.434524496708832, 36.783614024276922 ], [ 139.434845710559358, 36.783709220170032 ], [ 139.434887353520139, 36.783816287153435 ], [ 139.435172887057774, 36.783935250398407 ], [ 139.435428672346632, 36.784072083364336 ], [ 139.435535775169711, 36.784196994897414 ], [ 139.435714206601091, 36.784315958142386 ], [ 139.435880775576919, 36.784428998427849 ], [ 139.436053276138921, 36.784565831393778 ], [ 139.436178203109705, 36.784661001958291 ], [ 139.436243663210945, 36.784785913334048 ], [ 139.436350734494454, 36.784892980474773 ], [ 139.436243663210945, 36.785130932293313 ], [ 139.436100880791798, 36.785261816971136 ], [ 139.436088987513472, 36.78536888395454 ], [ 139.43622580752367, 36.785505692063829 ], [ 139.43619605879698, 36.785624680165441 ], [ 139.43623770151882, 36.785737695594264 ], [ 139.43638048417688, 36.785844787591628 ], [ 139.436493486329795, 36.785939958470784 ], [ 139.436564877778295, 36.786070817820004 ], [ 139.436564877778295, 36.786207650785933 ], [ 139.436886091867763, 36.786279028984623 ], [ 139.436897985146089, 36.786415861950552 ], [ 139.437034805873111, 36.78654077348363 ], [ 139.437272766536353, 36.786641892178928 ], [ 139.437665371357525, 36.786766828725966 ], [ 139.437641585039785, 36.78685605131701 ], [ 139.437463122068834, 36.787046392760679 ], [ 139.437623729352509, 36.787159432888828 ], [ 139.437742725453887, 36.787266500029553 ], [ 139.437831941050121, 36.787403307666878 ], [ 139.438099619856246, 36.787510399664242 ], [ 139.438176972996899, 36.787623415093066 ], [ 139.438444651803024, 36.787772144163242 ], [ 139.438878899346008, 36.787754299770889 ], [ 139.439003826316792, 36.787629362909215 ], [ 139.439015719595119, 36.787516347952341 ], [ 139.438890792624335, 36.78739143641927 ], [ 139.438932435346175, 36.787248655165236 ], [ 139.439069255595285, 36.787141588496475 ], [ 139.439342895854622, 36.787022599922899 ], [ 139.439093042151967, 36.786903636677927 ], [ 139.438843219033117, 36.786760880437861 ], [ 139.438688543335644, 36.786677581120955 ], [ 139.438724254471282, 36.786546721299771 ], [ 139.438682612466266, 36.786439629459728 ], [ 139.438605258369876, 36.786314717926651 ], [ 139.438646901091687, 36.786183858105474 ], [ 139.438516042773642, 36.786100558788569 ], [ 139.438694474682904, 36.785969698967385 ], [ 139.439390500985382, 36.785969698967385 ], [ 139.439777144353343, 36.785939958470784 ], [ 139.440134069339507, 36.785868580272087 ], [ 139.4403660675938, 36.78571985104459 ], [ 139.44051478183809, 36.785606835773088 ], [ 139.440431496872293, 36.785493820816214 ], [ 139.440324425588784, 36.785362935666434 ], [ 139.43963439251803, 36.785261816971136 ], [ 139.439539214512848, 36.785136880581419 ], [ 139.439271504883976, 36.785011969048341 ], [ 139.438991933038466, 36.784922746299976 ], [ 139.439003826316792, 36.784797809910259 ], [ 139.439753357079866, 36.784655053984828 ], [ 139.440276821174848, 36.784791861622153 ], [ 139.440996633795038, 36.784756172837447 ], [ 139.441097742908539, 36.784666950089075 ], [ 139.440984709216082, 36.784571779681883 ], [ 139.441413025889688, 36.78440520574739 ], [ 139.442608698429837, 36.78432787957523 ], [ 139.442489733629031, 36.784208891001661 ], [ 139.44255516242967, 36.784101824018258 ], [ 139.442715769713345, 36.783941198686513 ], [ 139.442781229575644, 36.783822235126898 ], [ 139.443387977919571, 36.783596179884569 ], [ 139.443370122232295, 36.783465320063385 ], [ 139.443965008837438, 36.783364201210766 ], [ 139.443846043558807, 36.783257109370723 ], [ 139.44419104468281, 36.783138145653794 ], [ 139.444024474990186, 36.783019182408822 ], [ 139.4439114728373, 36.782900193992567 ], [ 139.443917403706678, 36.78278717887838 ], [ 139.443756796900885, 36.78269793143069 ], [ 139.443661618895703, 36.782567071609506 ], [ 139.443518836476557, 36.782412394251232 ], [ 139.443102443665111, 36.782323171660181 ], [ 139.442918049824783, 36.782210156703314 ], [ 139.442888301098094, 36.782114960810198 ], [ 139.442787161161846, 36.781995997565225 ], [ 139.444310009244646, 36.78187703400561 ], [ 139.444613399186409, 36.781775890296359 ], [ 139.446165996712693, 36.781787811729203 ], [ 139.446463424245508, 36.781650978763281 ], [ 139.44704638579384, 36.781549859910662 ], [ 139.447207023900262, 36.781418974918196 ], [ 139.447236772865864, 36.781282167280871 ], [ 139.44770670096068, 36.781175075283514 ], [ 139.44783755880087, 36.781056111566578 ], [ 139.447980341219989, 36.780871693554374 ], [ 139.448045770498481, 36.780776522675218 ], [ 139.44790301890211, 36.780693248686916 ], [ 139.447795916556913, 36.780574260270669 ], [ 139.447789985209653, 36.780431504187916 ], [ 139.447302202144357, 36.780306567483557 ], [ 139.447141594860682, 36.780217344735185 ], [ 139.446980956754288, 36.780080537097859 ], [ 139.446189814570005, 36.779937781172428 ], [ 139.446106499020402, 36.779836637148534 ], [ 139.447248666144191, 36.779723622191668 ], [ 139.447290308149206, 36.779497566477367 ], [ 139.446891740919114, 36.779354810551936 ], [ 139.446677566812525, 36.779259614816148 ], [ 139.446802525083939, 36.779146599859281 ], [ 139.447010705480949, 36.778997870317141 ], [ 139.446998812202622, 36.7788670108106 ], [ 139.44766505823884, 36.778718281268468 ], [ 139.447676951517195, 36.778635006965523 ], [ 139.447563918302592, 36.778504147616303 ], [ 139.447546093677005, 36.7783494701007 ], [ 139.44727841487088, 36.778248351405402 ], [ 139.447397379432743, 36.778141259093402 ], [ 139.447171312764624, 36.778010399586861 ], [ 139.446380139279739, 36.7779092804196 ], [ 139.446499135381117, 36.77782003297191 ], [ 139.446588350977351, 36.777695121438832 ], [ 139.446731133635438, 36.777570209905754 ], [ 139.446856029783476, 36.777320361982966 ], [ 139.447224848047966, 36.777427428966369 ], [ 139.447444953262874, 36.777522599530883 ], [ 139.447486595984714, 36.777659432496804 ], [ 139.448164735060345, 36.777659432496804 ], [ 139.448438376036478, 36.777855747085219 ], [ 139.448438376036478, 36.777992554722545 ], [ 139.448515729416044, 36.778105570151375 ], [ 139.448604945012278, 36.778242403117297 ], [ 139.44881315694883, 36.778361366362269 ], [ 139.449062979828739, 36.778474406647739 ], [ 139.449586474746468, 36.778456562098064 ], [ 139.449717364126201, 36.778343521812594 ], [ 139.449741150682854, 36.778200765887163 ], [ 139.449741150682854, 36.778087725601701 ], [ 139.449669758995412, 36.778004451298756 ], [ 139.449425867462793, 36.777879539765678 ], [ 139.449788724274072, 36.777778395741777 ], [ 139.450109968947373, 36.777647536392557 ], [ 139.45033007392334, 36.777475014012644 ], [ 139.450609646007791, 36.777183529017037 ], [ 139.450502574485341, 36.777058617483959 ], [ 139.45033007392334, 36.776927757662776 ], [ 139.450425252167435, 36.776814717377313 ], [ 139.450365754475143, 36.776719546970121 ], [ 139.450365754475143, 36.77660653154129 ], [ 139.450407396480159, 36.776487543439679 ], [ 139.450205147191468, 36.776332890938036 ], [ 139.450252720782686, 36.776219850652573 ], [ 139.45023486509541, 36.776118731799954 ], [ 139.450306256782852, 36.776005716528445 ], [ 139.45052039934987, 36.775851039012842 ], [ 139.450425252167435, 36.77575586860565 ], [ 139.450318150061179, 36.775624983927827 ], [ 139.450318150061179, 36.775535761179462 ], [ 139.450353861196817, 36.775410849803706 ], [ 139.450948716262417, 36.775297809518236 ], [ 139.451037962681397, 36.775149105304699 ], [ 139.450942784676215, 36.775036090347832 ], [ 139.450954678432424, 36.774923050062363 ], [ 139.450948716262417, 36.774845723575567 ], [ 139.450996320676381, 36.774667253851469 ], [ 139.451133140686551, 36.774548290134533 ], [ 139.451061749954874, 36.774328182865666 ], [ 139.45118071451671, 36.774191375228341 ], [ 139.451145033964906, 36.774066438838624 ], [ 139.450936822984062, 36.773959371697899 ], [ 139.450936822984062, 36.773834460164821 ], [ 139.450889217853302, 36.773763057109484 ], [ 139.450954678432424, 36.773632197288308 ], [ 139.450972502580157, 36.773542949840618 ], [ 139.450978464989078, 36.773412090019434 ], [ 139.451014144824086, 36.773263385805897 ], [ 139.451020106994093, 36.773156293808533 ], [ 139.450960609301802, 36.773049226667816 ], [ 139.451234249800081, 36.772888601021428 ], [ 139.451222356521725, 36.772781534352667 ], [ 139.451216394829601, 36.772704207865864 ], [ 139.451156927960056, 36.772579271476147 ], [ 139.451156927960056, 36.772501945461308 ], [ 139.45120450083445, 36.772317552305744 ], [ 139.451216394829601, 36.772210459993744 ], [ 139.451258036834616, 36.772061755622886 ], [ 139.451317534526908, 36.771954663782843 ], [ 139.451145033964906, 36.771823803961666 ], [ 139.451293748209167, 36.771704840716694 ], [ 139.451252105248415, 36.771591800431224 ], [ 139.451222356521725, 36.771466888898146 ], [ 139.451234249800081, 36.771341952508429 ], [ 139.450972502580157, 36.771181351718688 ], [ 139.45092492898894, 36.771062388473716 ], [ 139.450936822984062, 36.770907711115434 ], [ 139.450597752729436, 36.770806592262815 ], [ 139.451353215078711, 36.770568640444267 ], [ 139.451317534526908, 36.770413963085993 ], [ 139.451311603657501, 36.770324740494942 ], [ 139.451382963805401, 36.770193880988401 ], [ 139.451424605810416, 36.77003920363012 ] ] ], [ [ [ 139.451959994006472, 36.77039611869364 ], [ 139.451829104626739, 36.770532951659561 ], [ 139.451948100728117, 36.770651914904533 ], [ 139.451977818871001, 36.770753058928435 ], [ 139.451912389592508, 36.770877970461513 ], [ 139.451722033343231, 36.77100288199459 ], [ 139.451722033343231, 36.771115922122732 ], [ 139.451722033343231, 36.771222988948821 ], [ 139.451977818871001, 36.771306263251759 ], [ 139.452001636728284, 36.771478785474358 ], [ 139.452174137290285, 36.771585852143119 ], [ 139.452168174881365, 36.7717107890048 ], [ 139.452245528260931, 36.771817855988196 ], [ 139.452358561953389, 36.771936819233169 ], [ 139.452519169237064, 36.772067703910992 ], [ 139.452400203958405, 36.772156926659363 ], [ 139.452245528260931, 36.77226994161623 ], [ 139.452162243534104, 36.772406774582159 ], [ 139.452102745841785, 36.772501945461308 ], [ 139.452239565851983, 36.772757741672208 ], [ 139.452715456355747, 36.772835067687048 ], [ 139.452483458101426, 36.772989745045329 ], [ 139.452191992260765, 36.77306707121749 ], [ 139.452108708011792, 36.773174138200886 ], [ 139.452037316563292, 36.773275282382109 ], [ 139.452043278972241, 36.77341803830754 ], [ 139.452293101852149, 36.773537026881115 ], [ 139.452376386817917, 36.773661938256865 ], [ 139.452257421539258, 36.773774953371053 ], [ 139.452632202929522, 36.773852279385892 ], [ 139.45284634573548, 36.773983164378357 ], [ 139.452935561331714, 36.774108100925396 ], [ 139.452858238774866, 36.774233012301153 ], [ 139.452864169644272, 36.774328182865666 ], [ 139.452911774297149, 36.774447171439235 ], [ 139.453346022556957, 36.774601823940877 ], [ 139.453369809113639, 36.774679149955716 ], [ 139.45381598147452, 36.774917101774264 ], [ 139.454053911315015, 36.775065830844433 ], [ 139.454482227271797, 36.775077727420644 ], [ 139.454422729579505, 36.774917101774264 ], [ 139.454559549828645, 36.774810034633539 ], [ 139.454714194703371, 36.774708890924281 ], [ 139.454868870639785, 36.774589927364666 ], [ 139.454922406639952, 36.774464990974948 ], [ 139.455071120645272, 36.77434007944187 ], [ 139.455297187313391, 36.774119972173004 ], [ 139.455398296904747, 36.774006956744174 ], [ 139.455422114284175, 36.773876097394954 ], [ 139.455594614846177, 36.773769005082954 ], [ 139.455606508124504, 36.773632197288308 ], [ 139.455582721567851, 36.773537026881115 ], [ 139.455469687875393, 36.773388297338975 ], [ 139.455683830681352, 36.773328815716489 ], [ 139.455642188437395, 36.773174138200886 ], [ 139.455743328851526, 36.773073019505588 ], [ 139.4554042585969, 36.772965952364871 ], [ 139.455237689621072, 36.772835067687048 ], [ 139.455017584645105, 36.772733948834428 ], [ 139.455071120645272, 36.772614960418174 ], [ 139.454351338131005, 36.772495997173202 ], [ 139.45438108757449, 36.772371085640131 ], [ 139.454345407261627, 36.772299707441434 ], [ 139.454446516136187, 36.772145030083152 ], [ 139.45447033399347, 36.772055807806744 ], [ 139.454190731325212, 36.771930870945063 ], [ 139.45409555332003, 36.771800011595843 ], [ 139.453798125787245, 36.771698867571949 ], [ 139.453685092094787, 36.771562059777303 ], [ 139.453482842806096, 36.771460940610041 ], [ 139.453453093840466, 36.771353848612677 ], [ 139.453363878244232, 36.771222988948821 ], [ 139.453197308551637, 36.771050492212147 ], [ 139.453024807989607, 36.77088986656576 ], [ 139.452905812605024, 36.770758981887937 ], [ 139.452429922101288, 36.770663811008781 ], [ 139.452304995130476, 36.770532951659561 ], [ 139.452162243534104, 36.770390170405534 ], [ 139.451959994006472, 36.77039611869364 ] ] ], [ [ [ 139.435502858629519, 36.786088988652395 ], [ 139.435296634162597, 36.786033472607755 ], [ 139.435137983286893, 36.786160366851092 ], [ 139.435098328512595, 36.786295216792112 ], [ 139.435130065186797, 36.786406249510684 ], [ 139.43511419673024, 36.786501419917876 ], [ 139.435161801144204, 36.786660063011318 ], [ 139.435090410412499, 36.78677109541524 ], [ 139.434915921902984, 36.786850429311627 ], [ 139.434662093499952, 36.787024908915882 ], [ 139.434907972263318, 36.787246998895014 ], [ 139.435193506517777, 36.787246998895014 ], [ 139.435312502619183, 36.787175620696317 ], [ 139.435312502619183, 36.787080424960521 ], [ 139.435415598724461, 36.78690594567091 ], [ 139.435439385997938, 36.78677109541524 ], [ 139.435518695546534, 36.786707648057593 ], [ 139.435613904613405, 36.786588684812621 ], [ 139.435661478204622, 36.786453834556958 ], [ 139.435645609748065, 36.78634280215303 ], [ 139.435463203855221, 36.786215882738411 ], [ 139.435502858629519, 36.786088988652395 ] ] ] ] } },
{ "type": "Feature", "properties": { "P12_001": 10007, "P12_002": "鬼怒沼湿原", "P12_003": "09", "P12_004": "09206", "P12_005": "高原・湿原・原野", "P12_006": "日光市", "P12_007": -1 }, "geometry": { "type": "Polygon", "coordinates": [ [ [ 139.362452430646073, 36.877440983778257 ], [ 139.362967975207312, 36.877440983778257 ], [ 139.363023498438196, 36.877353744212115 ], [ 139.363221804088198, 36.877242711493544 ], [ 139.363316982332321, 36.877115792393568 ], [ 139.363301113875735, 36.877028552512776 ], [ 139.363293164236097, 36.876893727428396 ], [ 139.363404210697837, 36.876766808013777 ], [ 139.363570779673637, 36.876631982929389 ], [ 139.363578698490556, 36.876528881523832 ], [ 139.36391183715898, 36.876386100269805 ], [ 139.364014933503199, 36.876314722385743 ], [ 139.364094274591366, 36.876171941131716 ], [ 139.364102193408257, 36.876052977886744 ], [ 139.364205289513535, 36.875949851309905 ], [ 139.364070456734055, 36.875830888064932 ], [ 139.364094274591366, 36.875735717028455 ], [ 139.364014933503199, 36.875624659925215 ], [ 139.363967360389864, 36.875505696208279 ], [ 139.36397527848996, 36.875394663961671 ], [ 139.3640863249517, 36.875307399066926 ], [ 139.364054588994321, 36.875180504823589 ], [ 139.36384044571048, 36.875093264942798 ], [ 139.363999065763437, 36.874966345842822 ], [ 139.3640863249517, 36.874887036803081 ], [ 139.364221157970121, 36.874744280720329 ], [ 139.364474955550378, 36.874625292304074 ], [ 139.364474955550378, 36.874569776259435 ], [ 139.364752570987946, 36.874427020334004 ], [ 139.3648477489931, 36.874300100919385 ], [ 139.364958795454839, 36.874181137674412 ], [ 139.365061923099688, 36.874078010940252 ], [ 139.365109496929847, 36.873974909062731 ], [ 139.366100931755909, 36.873879738655539 ], [ 139.366275419548629, 36.873721095562097 ], [ 139.36648959389413, 36.873641786836998 ], [ 139.36655303522511, 36.873538685431434 ], [ 139.366664081686849, 36.873443489695639 ], [ 139.366727523017829, 36.873316595137659 ], [ 139.366783046248713, 36.873197631892694 ], [ 139.366695786821509, 36.873078643319118 ], [ 139.366735472418554, 36.87299140375297 ], [ 139.366735472418554, 36.872904138858225 ], [ 139.366695786821509, 36.872785175613252 ], [ 139.366656132047183, 36.872682073735731 ], [ 139.366592689999408, 36.872586878314578 ], [ 139.366608558455994, 36.87245998391392 ], [ 139.366790964826663, 36.87237274419045 ], [ 139.366878224253867, 36.87226171194385 ], [ 139.366949615941309, 36.872142723370274 ], [ 139.367028925489933, 36.872031691123667 ], [ 139.367068580503172, 36.871944451085561 ], [ 139.367132053134753, 36.871809600672577 ], [ 139.366814782922887, 36.871730291947472 ], [ 139.365609173751324, 36.871714430265385 ], [ 139.365331589136503, 36.871793739305126 ], [ 139.365196725295363, 36.871944451085561 ], [ 139.365307771040278, 36.872015829284258 ], [ 139.365165020160703, 36.872134792529231 ], [ 139.365109496929847, 36.87226171194385 ], [ 139.364760520627584, 36.872333089670583 ], [ 139.364800144579135, 36.872444122074505 ], [ 139.364768439444504, 36.872586878314578 ], [ 139.364562215455464, 36.872586878314578 ], [ 139.364514641864247, 36.872475845596014 ], [ 139.364474955550378, 36.872356882351042 ], [ 139.364419463859065, 36.87223791910607 ], [ 139.364379777306254, 36.872126861530859 ], [ 139.364419463859065, 36.872071345171577 ], [ 139.364332204431861, 36.871936520087196 ], [ 139.364355990988543, 36.871809600672577 ], [ 139.364498773407661, 36.87169856842597 ], [ 139.364276681200977, 36.871611303531225 ], [ 139.364451168993696, 36.871476478446837 ], [ 139.364332204431861, 36.871341628033854 ], [ 139.363832527610384, 36.871246457626661 ], [ 139.363531124899339, 36.871254388467705 ], [ 139.363197986230915, 36.871365446042908 ], [ 139.363015579621276, 36.871468547605794 ], [ 139.362714177627055, 36.871563718012986 ], [ 139.362611049982235, 36.871706499267013 ], [ 139.362563476391017, 36.871801669831527 ], [ 139.362404825515313, 36.871888909869639 ], [ 139.362301729171094, 36.872023760125302 ], [ 139.362190682709354, 36.872134792529231 ], [ 139.362254124757129, 36.872245850104434 ], [ 139.362158946751947, 36.872341020668948 ], [ 139.362158946751947, 36.872452052915555 ], [ 139.362024144556273, 36.872578972330174 ], [ 139.362396907415217, 36.872650350528865 ], [ 139.362674522852757, 36.872745521093378 ], [ 139.362706227987417, 36.872872440507997 ], [ 139.362745913823375, 36.872975541913561 ], [ 139.362769700857939, 36.873078643319118 ], [ 139.362745913823375, 36.873173839212235 ], [ 139.362777618958035, 36.873245217253604 ], [ 139.362761751218272, 36.873403835018451 ], [ 139.362587263425553, 36.873475212902505 ], [ 139.362634867839517, 36.873649717835363 ], [ 139.36266657321309, 36.873721095562097 ], [ 139.36266657321309, 36.873808360456842 ], [ 139.362690391070402, 36.873951116854236 ], [ 139.36273001454407, 36.87402249458097 ], [ 139.362745913823375, 36.874149413995589 ], [ 139.362745913823375, 36.874260446399518 ], [ 139.362745913823375, 36.874363547805075 ], [ 139.362737964183736, 36.874530121739561 ], [ 139.362825224088795, 36.874649084984533 ], [ 139.362745913823375, 36.874688739504407 ], [ 139.362722096443974, 36.874815658919026 ], [ 139.362682441669676, 36.874982207682237 ], [ 139.362587263425553, 36.875156712143131 ], [ 139.362468298385835, 36.875291562556114 ], [ 139.362254124757129, 36.875362940282848 ], [ 139.362365170502073, 36.87548190352782 ], [ 139.362151027935056, 36.875616728926843 ], [ 139.362127241378374, 36.87575157886787 ], [ 139.362166896391614, 36.875854680745391 ], [ 139.362119322561455, 36.87594192031154 ], [ 139.362174815208533, 36.876029185206285 ], [ 139.36213515947847, 36.876148148451257 ], [ 139.362119322561455, 36.876251250328778 ], [ 139.362127241378374, 36.876378169271433 ], [ 139.362174815208533, 36.876520925354185 ], [ 139.362174815208533, 36.876592328409522 ], [ 139.362032063373192, 36.87677473885482 ], [ 139.362127241378374, 36.876877840732341 ], [ 139.362063768746793, 36.876988897835588 ], [ 139.362103454343838, 36.877107861552524 ], [ 139.362309647988013, 36.877163377439842 ], [ 139.362365170502073, 36.877314089692241 ], [ 139.362452430646073, 36.877440983778257 ] ] ] } },
{ "type": "Feature", "properties": { "P12_001": 10006, "P12_002": "中禅寺湖", "P12_003": "09", "P12_004": "09206", "P12_005": "湖沼", "P12_006": "日光市", "P12_007": -1 }, "geometry": { "type": "Polygon", "coordinates": [ [ [ 139.421205545322294, 36.743214170376802 ], [ 139.421351945949255, 36.743414733562638 ], [ 139.421410567224314, 36.743555826453061 ], [ 139.421444999574476, 36.743667492229321 ], [ 139.421465827386641, 36.743852235422999 ], [ 139.421485278449609, 36.744076105798229 ], [ 139.421645283853479, 36.744333887708478 ], [ 139.421699167505523, 36.744467763520966 ], [ 139.421692212795392, 36.744688881574049 ], [ 139.421673887837784, 36.74472943297809 ], [ 139.42169888149914, 36.744770561905682 ], [ 139.421722211449122, 36.744808611441812 ], [ 139.421911661653098, 36.744706934258744 ], [ 139.421960557516144, 36.744695559829267 ], [ 139.422030566480942, 36.744701391542883 ], [ 139.422107494076556, 36.744746388824254 ], [ 139.422205285324765, 36.744870276043557 ], [ 139.422296103942614, 36.745123881409171 ], [ 139.422324172232408, 36.74522528910223 ], [ 139.422331108783425, 36.745934718817558 ], [ 139.422289167391625, 36.746064167631175 ], [ 139.422170280483954, 36.746391100868443 ], [ 139.422107494076556, 36.747049990271904 ], [ 139.422051393576311, 36.747298052921657 ], [ 139.422037503031959, 36.747371111145974 ], [ 139.422086398417122, 36.747433064430837 ], [ 139.422128321888749, 36.747506372794746 ], [ 139.422149453388585, 36.747545826888299 ], [ 139.422149453388585, 36.747613323203659 ], [ 139.422233335694358, 36.748187760760231 ], [ 139.422268322376027, 36.748598895390153 ], [ 139.422303326500042, 36.748734176232027 ], [ 139.422443041219879, 36.748852501070409 ], [ 139.422588047177413, 36.748924712281152 ], [ 139.422702214382269, 36.74897638797507 ], [ 139.42281361040736, 36.749032779193648 ], [ 139.4231633345793, 36.749201663222365 ], [ 139.423359167002758, 36.749308883121294 ], [ 139.423526663289181, 36.749393334968175 ], [ 139.423776933696217, 36.749531945341111 ], [ 139.424053894926999, 36.749609160444997 ], [ 139.424231116625435, 36.749642494771102 ], [ 139.424333055802606, 36.749663876986865 ], [ 139.424409446986914, 36.74968889708186 ], [ 139.424485838649105, 36.749711395643885 ], [ 139.424519162336196, 36.7497330476643 ], [ 139.424538327631694, 36.74975444923048 ], [ 139.424538327631694, 36.74977833362879 ], [ 139.424511957937938, 36.749804450404994 ], [ 139.424486946834264, 36.749824716589124 ], [ 139.424486392502729, 36.749853605037899 ], [ 139.424582771639194, 36.75000695775757 ], [ 139.424628055506702, 36.750036673869495 ], [ 139.42466999689853, 36.750071393559921 ], [ 139.424691396484576, 36.750121395049078 ], [ 139.424687784728008, 36.750171396223593 ], [ 139.4246472208022, 36.750220281051838 ], [ 139.424629432017014, 36.750264450984702 ], [ 139.424637763237456, 36.750324171419706 ], [ 139.424637763237456, 36.750364723138389 ], [ 139.424596662183546, 36.750384719675182 ], [ 139.424421943339723, 36.750858057572238 ], [ 139.424407784470219, 36.751009735929827 ], [ 139.424435834600871, 36.751111105236681 ], [ 139.424533607928879, 36.751319713320925 ], [ 139.424778604062652, 36.751685831476372 ], [ 139.424960277616634, 36.751770283323253 ], [ 139.425009173001797, 36.75178165775273 ], [ 139.425128041750327, 36.751871652630108 ], [ 139.425274996947763, 36.752220833975166 ], [ 139.425323892332926, 36.752271662970152 ], [ 139.425435556683169, 36.752311117221026 ], [ 139.425617497845479, 36.752333616255015 ], [ 139.425931931409139, 36.752361676725997 ], [ 139.426015831635112, 36.752401112098411 ], [ 139.426099999469415, 36.752429442059409 ], [ 139.426217223860363, 36.752501114604762 ], [ 139.42630276844389, 36.75254193565614 ], [ 139.426428610061691, 36.752615263213151 ], [ 139.426568324064732, 36.752649174748171 ], [ 139.42706500343408, 36.752688610120586 ], [ 139.427309713083588, 36.752744712341411 ], [ 139.427358608946633, 36.752801103245353 ], [ 139.427351672395616, 36.752908053811588 ], [ 139.427330558815981, 36.752970276429146 ], [ 139.427338603552158, 36.753099725557405 ], [ 139.427368888690154, 36.75312222411943 ], [ 139.427501666142177, 36.753184177404293 ], [ 139.42778860366775, 36.753240548957812 ], [ 139.428047508505017, 36.753291397145901 ], [ 139.42811056347648, 36.753319457774204 ], [ 139.428145567839437, 36.753319457774204 ], [ 139.42824362765171, 36.753240548957812 ], [ 139.428404437075216, 36.753178615023373 ], [ 139.428532226977183, 36.753099725557405 ], [ 139.428582213821983, 36.753065833215487 ], [ 139.428791954710022, 36.752958882806574 ], [ 139.429092497012505, 36.752857494149296 ], [ 139.429239434050828, 36.75277306149551 ], [ 139.42944917517778, 36.752649174748171 ], [ 139.429842503258214, 36.752480829384851 ], [ 139.429949161421405, 36.75244389619499 ], [ 139.43002278190383, 36.752367508439612 ], [ 139.430190564196664, 36.752232227597737 ], [ 139.430616947878008, 36.751916957787699 ], [ 139.430763616591207, 36.751810007221465 ], [ 139.430868612237674, 36.751697225098944 ], [ 139.430980545151982, 36.751257779701128 ], [ 139.431029458696287, 36.751088895357775 ], [ 139.431204177301169, 36.750835270327094 ], [ 139.431260277801414, 36.750790273045723 ], [ 139.431470000769252, 36.750677779920956 ], [ 139.431560837546243, 36.750643887264395 ], [ 139.431672770460551, 36.750660823917464 ], [ 139.431784720100381, 36.750722777202327 ], [ 139.431896384450624, 36.750818603478685 ], [ 139.432085280323065, 36.751083332976854 ], [ 139.432197212759519, 36.751184721476811 ], [ 139.43233000884851, 36.751252217477528 ], [ 139.432903614857764, 36.751393060228359 ], [ 139.433392767265275, 36.751404434500508 ], [ 139.433623604529544, 36.751449431781879 ], [ 139.434133888436889, 36.751595836913623 ], [ 139.434280824758389, 36.751595836913623 ], [ 139.434427761796684, 36.751567775970685 ], [ 139.434566385773678, 36.751526936040847 ], [ 139.434616675828266, 36.751500280127289 ], [ 139.434812222484283, 36.751483324438439 ], [ 139.435189996070079, 36.751646665908609 ], [ 139.435343887818533, 36.751725555374584 ], [ 139.43539276576135, 36.751781946278527 ], [ 139.43539276576135, 36.751883334935798 ], [ 139.435168882968298, 36.752176125376913 ], [ 139.435168882968298, 36.752322491965138 ], [ 139.43523195562102, 36.752435273773024 ], [ 139.43537166938512, 36.752587490953324 ], [ 139.43550471540118, 36.752773331300169 ], [ 139.435588615627154, 36.752869176769629 ], [ 139.435798053305405, 36.753032498889382 ], [ 139.435811944566581, 36.753054997608729 ], [ 139.435872781973018, 36.7530999948901 ], [ 139.436244155896986, 36.753195821166457 ], [ 139.436636393234579, 36.753206945299013 ], [ 139.4368533213175, 36.753178884356068 ], [ 139.436993339247095, 36.753150823885086 ], [ 139.437114997573417, 36.7530999948901 ], [ 139.437170007091879, 36.753059712976075 ], [ 139.437287499330097, 36.752970545761841 ], [ 139.437399449686751, 36.752925279147775 ], [ 139.437437761401782, 36.752893888673768 ], [ 139.437462504658214, 36.752869176769629 ], [ 139.437630268791878, 36.752593053176923 ], [ 139.43781194234586, 36.752435273773024 ], [ 139.437826101215364, 36.752412775210999 ], [ 139.437908053157173, 36.752342507695033 ], [ 139.43801751810156, 36.75220805467363 ], [ 139.438148061263007, 36.752069444300695 ], [ 139.438294443969795, 36.751984723121112 ], [ 139.438623340329542, 36.751877503222182 ], [ 139.439105841953477, 36.751680288760511 ], [ 139.439364443342015, 36.751624455872381 ], [ 139.439595262686112, 36.751596106246325 ], [ 139.439853612952902, 36.751517235973452 ], [ 139.439951654844975, 36.751500568653086 ], [ 139.440399169548328, 36.751444158556041 ], [ 139.440720825430446, 36.751427222217607 ], [ 139.440909721541829, 36.751461114402211 ], [ 139.441252223156368, 36.751618604965671 ], [ 139.441287227280355, 36.751646954434406 ], [ 139.441357218802835, 36.751674996184249 ], [ 139.441539178124287, 36.751680558093206 ], [ 139.441629996742137, 36.751658059531181 ], [ 139.441727788229286, 36.751607499868896 ], [ 139.441895552362951, 36.751404723183626 ], [ 139.442070557691068, 36.751128619255987 ], [ 139.442154457917042, 36.751021668689752 ], [ 139.44221027169408, 36.750987776505156 ], [ 139.442246939051586, 36.750963603109085 ], [ 139.442300286053353, 36.750933040298229 ], [ 139.442420281146184, 36.750852495663281 ], [ 139.442605834065063, 36.750726953274999 ], [ 139.442701390305928, 36.750662228946851 ], [ 139.442909720037932, 36.750548330792697 ], [ 139.44293778761093, 36.7505427877622 ], [ 139.443049434040972, 36.75049193941679 ], [ 139.443133334028005, 36.750480834477337 ], [ 139.443329166451463, 36.75044694229274 ], [ 139.443406112684102, 36.75044694229274 ], [ 139.443818622785557, 36.750407507234968 ], [ 139.443846386909826, 36.750396382945091 ], [ 139.443972227810832, 36.750396382945091 ], [ 139.444251943017946, 36.750430005954314 ], [ 139.444594712479727, 36.750514727133897 ], [ 139.445217214829881, 36.750723046535022 ], [ 139.44567860263524, 36.750869451666773 ], [ 139.445811398246377, 36.750920260996693 ], [ 139.446224159230638, 36.751117225633415 ], [ 139.446454727930842, 36.751218883151424 ], [ 139.446517764982104, 36.751258068384239 ], [ 139.446944434669859, 36.751461114402211 ], [ 139.447056385026485, 36.751511654399437 ], [ 139.447405554150095, 36.75176527943011 ], [ 139.447468609121557, 36.751810276711481 ], [ 139.447678332806191, 36.751917227120394 ], [ 139.447825287286832, 36.751956662492809 ], [ 139.447838892541597, 36.751956662492809 ], [ 139.448028056261336, 36.751956662492809 ], [ 139.448230843156011, 36.751906122180941 ], [ 139.448440566840645, 36.751855273992852 ], [ 139.448846104789624, 36.75173167577131 ], [ 139.44893860408331, 36.751695550736862 ], [ 139.44908387860491, 36.751585270639566 ], [ 139.449295282726439, 36.751465829769558 ], [ 139.449465549714716, 36.751374718860546 ], [ 139.449582774105693, 36.751256105024403 ], [ 139.449746105259749, 36.751107506058283 ], [ 139.449971936336965, 36.750960004088007 ], [ 139.450125828085419, 36.750824723718097 ], [ 139.45032861450224, 36.750661381933277 ], [ 139.450503601671215, 36.750520558375548 ], [ 139.450601392919424, 36.750481104281995 ], [ 139.45095805316447, 36.750469710659424 ], [ 139.451048889702548, 36.750492228414551 ], [ 139.451041953151531, 36.750576949751455 ], [ 139.451034999158168, 36.75078526915258 ], [ 139.451098053651776, 36.750937505525982 ], [ 139.451146931594621, 36.750988065188274 ], [ 139.451195844899985, 36.751005001369379 ], [ 139.451300822626251, 36.750993607746807 ], [ 139.451328604909662, 36.750931674284331 ], [ 139.451314713648486, 36.750864177968971 ], [ 139.451293618227993, 36.750847222437443 ], [ 139.451160822616856, 36.750700836498794 ], [ 139.451160822616856, 36.750576949751455 ], [ 139.451216940559419, 36.75057111803784 ], [ 139.451321668358645, 36.750644445594851 ], [ 139.45146860539694, 36.750796662775151 ], [ 139.451489164645068, 36.750832229479151 ], [ 139.45159973849141, 36.750892777577306 ], [ 139.451703608032517, 36.750949726969026 ], [ 139.451735554970384, 36.750948052606944 ], [ 139.451881115498395, 36.751066935461139 ], [ 139.452097775734046, 36.751281105768982 ], [ 139.452195548823141, 36.751393618244173 ], [ 139.452230553663952, 36.751483882454252 ], [ 139.452223617112935, 36.75157945859101 ], [ 139.452167498692461, 36.751664160577491 ], [ 139.452006938957055, 36.751838626180223 ], [ 139.451860288403026, 36.751962493734467 ], [ 139.451859161580842, 36.751986108800075 ], [ 139.451889732725249, 36.751981951920506 ], [ 139.451935553481974, 36.751967497784925 ], [ 139.452006938957055, 36.751917496453096 ], [ 139.452251398918463, 36.751726113390397 ], [ 139.45230054470855, 36.751713892419311 ], [ 139.452768887224067, 36.752018885110367 ], [ 139.453097783583814, 36.752176664199624 ], [ 139.453433348169426, 36.752289446322152 ], [ 139.453615271889419, 36.752328881694567 ], [ 139.453860000414863, 36.752340005984443 ], [ 139.454111664774501, 36.75227805269958 ], [ 139.454489170513028, 36.752069713633396 ], [ 139.454713053306108, 36.751939995172435 ], [ 139.45474110343676, 36.751939995172435 ], [ 139.454894726621148, 36.751889435982108 ], [ 139.454957763672411, 36.751838626180223 ], [ 139.45518166414675, 36.751540004025493 ], [ 139.455314441598745, 36.751404992988284 ], [ 139.45539138711456, 36.751354163993298 ], [ 139.455524165283379, 36.751359995234949 ], [ 139.455636115640004, 36.751376951238441 ], [ 139.455719997706865, 36.751438885172881 ], [ 139.455761956541011, 36.751562772077541 ], [ 139.455852775875684, 36.751692221205801 ], [ 139.456062785327759, 36.751900540921561 ], [ 139.456143055876964, 36.752088055315845 ], [ 139.456186945552929, 36.752127779371378 ], [ 139.456253057710512, 36.752149719602947 ], [ 139.456310284316146, 36.752184997938471 ], [ 139.456341105148653, 36.752237770785555 ], [ 139.456363059066206, 36.752316948934642 ], [ 139.456420554235876, 36.752360849377489 ], [ 139.456477780602569, 36.752396108205268 ], [ 139.456504168455467, 36.752453345808142 ], [ 139.456530555352629, 36.752510545182133 ], [ 139.45657306851831, 36.752571112630712 ], [ 139.456754724629945, 36.752683605755479 ], [ 139.45704833038144, 36.752751390753957 ], [ 139.457265276384533, 36.752784994412757 ], [ 139.457373329217148, 36.752830568903043 ], [ 139.457789736842642, 36.752830261026823 ], [ 139.458167225138823, 36.752870004118137 ], [ 139.458670840342393, 36.752937500118854 ], [ 139.459125273676534, 36.753083885900182 ], [ 139.459184735289512, 36.753100822238608 ], [ 139.459435273304848, 36.753190836466416 ], [ 139.459498328515252, 36.753202230088988 ], [ 139.459904438238084, 36.75332055492737 ], [ 139.460331393693281, 36.753427505336283 ], [ 139.460562499521643, 36.753461397678201 ], [ 139.460807495655416, 36.75347833433127 ], [ 139.46104528691302, 36.753466940708698 ], [ 139.46115026535611, 36.75345000405563 ], [ 139.461164173820663, 36.753438899116176 ], [ 139.46124110189416, 36.753427505336283 ], [ 139.461353051772932, 36.753399444393338 ], [ 139.46159833439097, 36.753275557645999 ], [ 139.461696107718979, 36.753202230088988 ], [ 139.46177278490967, 36.753100822238608 ], [ 139.461936383672054, 36.752881109214911 ], [ 139.461862227495089, 36.75275194876977 ], [ 139.461916664761844, 36.752583334073755 ], [ 139.461995273511178, 36.752377785715915 ], [ 139.462166953089081, 36.752362773879163 ], [ 139.462188048748516, 36.752345837226095 ], [ 139.462194163120756, 36.751964437901201 ], [ 139.462201957213068, 36.751827771380363 ], [ 139.462212505281741, 36.751542506208047 ], [ 139.462313889649522, 36.750915834627108 ], [ 139.462369722063556, 36.750616673335024 ], [ 139.46242582256383, 36.750363048776308 ], [ 139.462432776557165, 36.750019448533308 ], [ 139.462541669727671, 36.749763321792038 ], [ 139.462533606832352, 36.74964278345422 ], [ 139.462495831528628, 36.749529443158558 ], [ 139.462481654261069, 36.749383057691873 ], [ 139.462502785999845, 36.749332498186902 ], [ 139.462593604617695, 36.749259170629891 ], [ 139.462831395875327, 36.749157782444577 ], [ 139.462936391760735, 36.749146677347802 ], [ 139.463250825085453, 36.749146677347802 ], [ 139.463376934550524, 36.749129721501639 ], [ 139.463530557734913, 36.74909028644386 ], [ 139.463656666961043, 36.749039457448873 ], [ 139.4638066614244, 36.74894082127107 ], [ 139.464053892565516, 36.748768896237088 ], [ 139.464243896623117, 36.748661945828182 ], [ 139.464321665034532, 36.748640563140462 ], [ 139.464467779177255, 36.74860582378497 ], [ 139.464754162371321, 36.748532496699923 ], [ 139.464838044438181, 36.748515559889533 ], [ 139.465411382839108, 36.74828472257596 ], [ 139.46575415230086, 36.748177502834352 ], [ 139.465901125418526, 36.748160835513978 ], [ 139.465936112339136, 36.748149441891407 ], [ 139.466152771857963, 36.748138048111514 ], [ 139.466397500144495, 36.748115549549489 ], [ 139.466579441545719, 36.748115549549489 ], [ 139.466740287048594, 36.748093050987464 ], [ 139.46678916499144, 36.748093050987464 ], [ 139.467012779937221, 36.748045282033523 ], [ 139.467101113142832, 36.748010273502658 ], [ 139.467222771230183, 36.747969163768161 ], [ 139.467397508233148, 36.747879169205419 ], [ 139.467726118108629, 36.74767610383703 ], [ 139.467901123436747, 36.747535280279301 ], [ 139.468194711029071, 36.747310004874684 ], [ 139.468376670350523, 36.747163619093357 ], [ 139.46878889516239, 36.746808606034691 ], [ 139.468820824657939, 36.746775271708586 ], [ 139.468858885968075, 36.746735567003476 ], [ 139.469082500913885, 36.746482231127878 ], [ 139.469124728073155, 36.746439716363994 ], [ 139.469145555168524, 36.746409153710459 ], [ 139.469313338178154, 36.74624556210069 ], [ 139.469460274499653, 36.746178066257293 ], [ 139.469819170229925, 36.74599749945093 ], [ 139.469886676340138, 36.74596389579213 ], [ 139.470250272897289, 36.745727496254958 ], [ 139.470317779724326, 36.745683615005213 ], [ 139.470703330437942, 36.745378892118815 ], [ 139.470871934670612, 36.745236663531699 ], [ 139.470935829979993, 36.745197786175098 ], [ 139.471194430890648, 36.745017508523816 ], [ 139.471255840787762, 36.744967776681996 ], [ 139.47176499858972, 36.744429713984836 ], [ 139.471842498676011, 36.744389720596608 ], [ 139.472017235440035, 36.74432749797905 ], [ 139.472124162167262, 36.744268893575672 ], [ 139.472341394176766, 36.744183883712971 ], [ 139.472516112781676, 36.744144448812513 ], [ 139.472725568141186, 36.744076933146737 ], [ 139.472970278268548, 36.743941671969928 ], [ 139.472970278268548, 36.743930278347356 ], [ 139.473208052083862, 36.74376695591296 ], [ 139.473376102940733, 36.743710834341712 ], [ 139.473928327523083, 36.743412501184743 ], [ 139.474452787981164, 36.743232223061497 ], [ 139.474606661570505, 36.743158895347165 ], [ 139.475173063420414, 36.742820838291983 ], [ 139.475690551726018, 36.742618042256289 ], [ 139.476026384636782, 36.742522215979932 ], [ 139.476317773540046, 36.742474447183312 ], [ 139.476467785684662, 36.742474447183312 ], [ 139.476678617554484, 36.742488053990677 ], [ 139.476953898826252, 36.74251195773941 ], [ 139.477314456356424, 36.742515287270471 ], [ 139.477431662827172, 36.742505548659565 ], [ 139.477564458199396, 36.742488612478454 ], [ 139.477725268339725, 36.742449177106039 ], [ 139.477865286986145, 36.742375830198604 ], [ 139.477942214581759, 36.742313877071069 ], [ 139.478200833412643, 36.742133618455561 ], [ 139.47830582905911, 36.742071665328019 ], [ 139.478410557097277, 36.741998337771008 ], [ 139.478765286739474, 36.741704738702531 ], [ 139.478835278261954, 36.741644441058611 ], [ 139.478905269306551, 36.741581101937463 ], [ 139.478942222431527, 36.741553349342695 ], [ 139.47903527605672, 36.741482504303178 ], [ 139.479103068173316, 36.741429442930297 ], [ 139.479235846342135, 36.741345260416104 ], [ 139.479665555056869, 36.741161383429102 ], [ 139.479859170632125, 36.741078875748954 ], [ 139.479977217201878, 36.741024178400195 ], [ 139.480054162717693, 36.740990285743635 ], [ 139.480326654889524, 36.740911396277667 ], [ 139.480662505720488, 36.740843881083848 ], [ 139.480816110984676, 36.740832506654378 ], [ 139.481067776061138, 36.740821382364501 ], [ 139.481319440181863, 36.740843881083848 ], [ 139.481614726609166, 36.740843881083848 ], [ 139.481662227802786, 36.740843881083848 ], [ 139.481962788264411, 36.740804445711433 ], [ 139.482053338318195, 36.74077028403682 ], [ 139.482441106357925, 36.740519449871812 ], [ 139.482627213608311, 36.740398892340892 ], [ 139.482711113834284, 36.740370831712589 ], [ 139.482836936576149, 36.740370831712589 ], [ 139.482990828324603, 36.740398892340892 ], [ 139.483263606263904, 36.740477782278823 ], [ 139.484207496410022, 36.740488887218277 ], [ 139.485116381715301, 36.740528341469151 ], [ 139.485347218501715, 36.740488887218277 ], [ 139.485536114374156, 36.740477782278823 ], [ 139.485581935130881, 36.740487212856195 ], [ 139.485618888255829, 36.740506670570277 ], [ 139.48571278221894, 36.740653345034723 ], [ 139.485831669126611, 36.740657213231174 ], [ 139.485829720603533, 36.740646666307534 ], [ 139.485801652313739, 36.740522779402873 ], [ 139.485801652313739, 36.740472219897903 ], [ 139.48583665715455, 36.740409997280345 ], [ 139.485885552539713, 36.740381936652042 ], [ 139.486228322001494, 36.740381936652042 ], [ 139.486409995555476, 36.740370831712589 ], [ 139.486620005007552, 36.740376393621546 ], [ 139.486822773982055, 36.740409997280345 ], [ 139.486878605918236, 36.740443889936905 ], [ 139.487032497666689, 36.740686101679948 ], [ 139.487081393051852, 36.740714431955588 ], [ 139.487155549706699, 36.740797228633497 ], [ 139.487171389490925, 36.740840262869668 ], [ 139.488206384022362, 36.741116944478186 ], [ 139.48837332597725, 36.741097216959446 ], [ 139.488569176559878, 36.741053336181665 ], [ 139.489004999646852, 36.740920288032328 ], [ 139.490405557417631, 36.740398892340892 ], [ 139.491561388096585, 36.73995138253693 ], [ 139.491600826155917, 36.740006118586528 ], [ 139.491631397061383, 36.740018609362266 ], [ 139.491659447192035, 36.740012508315957 ], [ 139.492196118235483, 36.739741677299513 ], [ 139.492353620784769, 36.739668330392085 ], [ 139.492676385568871, 36.739560841160461 ], [ 139.49314388774647, 36.739447231689418 ], [ 139.493626389370405, 36.739351386062644 ], [ 139.494010831898891, 36.739300557224979 ], [ 139.494374446615183, 36.739306658271289 ], [ 139.49447917441438, 36.739317782561166 ], [ 139.49450722454506, 36.739317782561166 ], [ 139.494738061809329, 36.739340281123191 ], [ 139.495570001120939, 36.739402234408047 ], [ 139.495779992413901, 36.739385547737257 ], [ 139.495911108066025, 36.739358872945239 ], [ 139.49601277867913, 36.739321939755378 ], [ 139.496171389413576, 36.739267222898874 ], [ 139.496290276321218, 36.739227787998416 ], [ 139.496538061315988, 36.739123050616982 ], [ 139.496744727814502, 36.739062213835709 ], [ 139.496751932929584, 36.739060289334034 ], [ 139.496826661358256, 36.739054168937301 ], [ 139.497107216903288, 36.739049165044158 ], [ 139.497453329557572, 36.739044161151014 ], [ 139.497769157073861, 36.739040831462631 ], [ 139.498128606418874, 36.73903750193157 ], [ 139.498439446385106, 36.739030823676345 ], [ 139.498816111785715, 36.739020565278501 ], [ 139.498948049616615, 36.738971661257153 ], [ 139.49914556271591, 36.738839998629459 ], [ 139.499244729996548, 36.738763052858268 ], [ 139.499384712324684, 36.738612779372744 ], [ 139.499503063059962, 36.73847944269761 ], [ 139.499616389926871, 36.738330824538387 ], [ 139.499710551737252, 36.738165827584588 ], [ 139.499722780481733, 36.737961934867691 ], [ 139.499685558553779, 36.737783061773833 ], [ 139.499641668877814, 36.737669990968193 ], [ 139.499603053236171, 36.737572220997052 ], [ 139.499601945051012, 36.737512211878929 ], [ 139.499645566401853, 36.737444715720898 ], [ 139.49975860750132, 36.737428048715159 ], [ 139.499983330393349, 36.737450008611795 ], [ 139.500209715802072, 36.737502222971102 ], [ 139.500341652916177, 36.737541119520806 ], [ 139.500458055128348, 36.737571393648544 ], [ 139.500571381995286, 36.737605285833141 ], [ 139.500687783490662, 36.737635559960879 ], [ 139.500809441578042, 36.73765917455453 ], [ 139.500907500912433, 36.737704730323678 ], [ 139.500959721808869, 36.737763873549767 ], [ 139.501070831827576, 36.737843340696614 ], [ 139.501202501333353, 36.737907507008948 ], [ 139.50131389711953, 36.73793110272414 ], [ 139.501410275778113, 36.737937781136687 ], [ 139.501580829250656, 36.737937781136687 ], [ 139.501739439985101, 36.737933335259356 ], [ 139.501932233381581, 36.737935278954133 ], [ 139.501880549374363, 36.737859449529211 ], [ 139.50176500542031, 36.737868610773887 ], [ 139.501602783168209, 36.737877213688108 ], [ 139.501442491280045, 36.737873614824352 ], [ 139.501320833670547, 36.737851674120819 ], [ 139.501226117767601, 36.737816396099937 ], [ 139.501131669472954, 36.737787777141179 ], [ 139.501052221102526, 36.737738603315172 ], [ 139.500950836256891, 36.737679729421778 ], [ 139.500876375436519, 36.737630556067735 ], [ 139.500797785563151, 36.737595008242195 ], [ 139.500723610510249, 36.737568063645519 ], [ 139.50059667886643, 36.737542774689786 ], [ 139.500355276091142, 36.737483612270594 ], [ 139.500199722064934, 36.737448334249713 ], [ 139.500037499812862, 36.737416115955241 ], [ 139.499956388208943, 36.737404433649552 ], [ 139.499802783183668, 36.73738249310334 ], [ 139.499708048882638, 36.7373891716732 ], [ 139.49960721836851, 36.737416115955241 ], [ 139.499551386671271, 36.737465001098123 ], [ 139.499529432753718, 36.737536115627663 ], [ 139.49953054141676, 36.737620547809492 ], [ 139.499542501597176, 36.73773028908407 ], [ 139.499593059499034, 36.737828059055204 ], [ 139.499618052443566, 36.737934451605625 ], [ 139.499633338374167, 36.738008337178449 ], [ 139.499609721223123, 36.738079162710228 ], [ 139.499564169030464, 36.738136381277322 ], [ 139.499484720660035, 36.738218889429433 ], [ 139.499412226282971, 36.738303340804357 ], [ 139.49930749920054, 36.738435003432052 ], [ 139.499228050113317, 36.738512507219056 ], [ 139.49899610466386, 36.738753333597778 ], [ 139.498887783267207, 36.7388291630227 ], [ 139.49850276920381, 36.738900008062224 ], [ 139.498426664025914, 36.738893329649677 ], [ 139.49733360231204, 36.738878336848707 ], [ 139.496821387323934, 36.738861381159857 ], [ 139.496751932929584, 36.738838324267377 ], [ 139.496625001285764, 36.738711954530586 ], [ 139.496441664737205, 36.738503885111733 ], [ 139.496422214152119, 36.738465008227095 ], [ 139.496422214152119, 36.738426111677391 ], [ 139.49644000222051, 36.73837305030451 ], [ 139.49644000222051, 36.738337772283629 ], [ 139.496336383084326, 36.738179434863916 ], [ 139.496192503232152, 36.737954447985096 ], [ 139.496017784388329, 36.737565831267624 ], [ 139.49595471197452, 36.737346118243927 ], [ 139.495859155494742, 36.737107216524208 ], [ 139.495783336084287, 36.736928054747231 ], [ 139.495712504223889, 36.736760267399724 ], [ 139.495632787528336, 36.73665639638228 ], [ 139.495619164831226, 36.736490264203752 ], [ 139.495493323213424, 36.736298611651037 ], [ 139.495283331920461, 36.736039444061824 ], [ 139.494982771458837, 36.735746653620708 ], [ 139.49492917453, 36.735646939797476 ], [ 139.494921111156799, 36.735577211104221 ], [ 139.494716948229694, 36.735403053377709 ], [ 139.494574712735044, 36.7353277819686 ], [ 139.494437787354087, 36.735271391064657 ], [ 139.494370549091144, 36.735270832734201 ], [ 139.494129718806533, 36.735216943855491 ], [ 139.493486388883127, 36.735003042880351 ], [ 139.493318338265169, 36.734941666961724 ], [ 139.493131391393661, 36.734866395552615 ], [ 139.492996932787975, 36.734811390484957 ], [ 139.4929394383351, 36.734786389740378 ], [ 139.492808054835706, 36.734710002299636 ], [ 139.492752222421672, 36.734687503265654 ], [ 139.492745285870654, 36.734676398640836 ], [ 139.492668322912493, 36.734648068365196 ], [ 139.492318616660754, 36.734467771048855 ], [ 139.492150833890065, 36.734360839675723 ], [ 139.492038884250263, 36.734264994206264 ], [ 139.491961938017624, 36.734129713836353 ], [ 139.491934174371238, 36.734039718958968 ], [ 139.491926951097014, 36.733696118715969 ], [ 139.491884992501781, 36.733374997841892 ], [ 139.491864164689616, 36.733228612375207 ], [ 139.491745564266239, 36.732817227291051 ], [ 139.491521663552959, 36.732203335168968 ], [ 139.491437781486127, 36.73200055879834 ], [ 139.49142499841011, 36.731960276412352 ], [ 139.491043327300304, 36.731933043289878 ], [ 139.490805822049083, 36.731450543990825 ], [ 139.490313058362887, 36.731547775296569 ], [ 139.490291676697041, 36.73146805801013 ], [ 139.490763058478478, 36.731361107758538 ], [ 139.490248895206236, 36.730310830122356 ], [ 139.489892217040989, 36.730316103505515 ], [ 139.489158050340592, 36.730333059037044 ], [ 139.489053323258162, 36.730321665414479 ], [ 139.488976663509789, 36.730321665414479 ], [ 139.488808612891859, 36.730276668133101 ], [ 139.488508052430205, 36.730169717566874 ], [ 139.488193333099105, 36.730039999105919 ], [ 139.488102496561055, 36.729989458794051 ], [ 139.487829718621754, 36.729865552696289 ], [ 139.48745194408022, 36.729685274573043 ], [ 139.487144448023315, 36.72943166936475 ], [ 139.487025561115672, 36.729318887084901 ], [ 139.486857778106042, 36.729110548490674 ], [ 139.486724714886577, 36.728981118555517 ], [ 139.486668882233602, 36.728947225898956 ], [ 139.486543058774942, 36.728862774524032 ], [ 139.48634027235812, 36.728767217580369 ], [ 139.486116389803982, 36.72869360134024 ], [ 139.485620282925282, 36.72858110790083 ], [ 139.485423896170289, 36.728526660691664 ], [ 139.485343053130435, 36.728510551701746 ], [ 139.485262228249695, 36.728472771970274 ], [ 139.485165563106875, 36.72842971838368 ], [ 139.485018894393676, 36.728344438873641 ], [ 139.484913898747209, 36.728231676258858 ], [ 139.484885848616557, 36.728147493744665 ], [ 139.484885848616557, 36.727973066685458 ], [ 139.484941948877861, 36.72761805346947 ], [ 139.48497693555953, 36.727522227350434 ], [ 139.485459437183465, 36.726885836508998 ], [ 139.485536382699308, 36.726756118048044 ], [ 139.485571101055854, 36.726643335925516 ], [ 139.485571101055854, 36.726418060520899 ], [ 139.485480282437976, 36.726271655861112 ], [ 139.485193613237527, 36.726001383175124 ], [ 139.485109731170695, 36.725905556898766 ], [ 139.485046658756886, 36.725815273338263 ], [ 139.48496277597323, 36.72561834755971 ], [ 139.484878893906398, 36.725325287628579 ], [ 139.484781102658189, 36.725167508224679 ], [ 139.484697220591357, 36.724778891507214 ], [ 139.484655279677412, 36.724604175764888 ], [ 139.484644713688539, 36.724585545399314 ], [ 139.484613338524525, 36.724531117540572 ], [ 139.484452224218643, 36.724238326942135 ], [ 139.484291396635996, 36.724030007226368 ], [ 139.484095832059779, 36.723832773571594 ], [ 139.483879154381782, 36.723658057671948 ], [ 139.483641398725638, 36.723494715887135 ], [ 139.483235842617518, 36.723291958866923 ], [ 139.483033055483901, 36.723173614678117 ], [ 139.482886118445577, 36.723004710984348 ], [ 139.482599449245129, 36.722548347811923 ], [ 139.482536662837731, 36.722469438995532 ], [ 139.482186938665791, 36.722086384187016 ], [ 139.48199804279335, 36.721979453443168 ], [ 139.481753332427019, 36.721883607973709 ], [ 139.481655559099011, 36.721844153250871 ], [ 139.48156445471372, 36.721821654688846 ], [ 139.481187234742634, 36.721596398634652 ], [ 139.481047216813039, 36.721534445349789 ], [ 139.480879451962551, 36.72142722545086 ], [ 139.480662774284554, 36.721246947327614 ], [ 139.480536932666752, 36.721168057861647 ], [ 139.480354991504441, 36.721044170642344 ], [ 139.480124172399314, 36.72097111273267 ], [ 139.479977502969319, 36.72094278245703 ], [ 139.479627779514203, 36.72089222295206 ], [ 139.479236113950464, 36.720863892991062 ], [ 139.479194155355231, 36.720880829329488 ], [ 139.479110273288399, 36.720954176079601 ], [ 139.479012213954007, 36.72109499963733 ], [ 139.47894250843791, 36.721168057861647 ], [ 139.478774726145076, 36.721269446046961 ], [ 139.478620835113446, 36.721303338703521 ], [ 139.478445829785358, 36.721303338703521 ], [ 139.478334165912969, 36.721275277760576 ], [ 139.478306115782317, 36.721258340950186 ], [ 139.478236106100695, 36.721196388137287 ], [ 139.478124156460893, 36.721016110014041 ], [ 139.478054433263537, 36.720948614170645 ], [ 139.477844727021221, 36.720830289332262 ], [ 139.477635004292324, 36.720700551520885 ], [ 139.477418325897531, 36.720486650545745 ], [ 139.477278343569367, 36.720368344900457 ], [ 139.47714554795823, 36.720283893053576 ], [ 139.47713138837193, 36.720266937207406 ], [ 139.476767773655638, 36.720120281936062 ], [ 139.476711941719458, 36.720131675873276 ], [ 139.476586118260798, 36.720199171873993 ], [ 139.476502218034824, 36.720216127405521 ], [ 139.476422787106742, 36.720217763381399 ], [ 139.476250285350034, 36.720221381910221 ], [ 139.476138620760878, 36.720198883190875 ], [ 139.475977775258002, 36.720125824966559 ], [ 139.475879715923611, 36.720131386875515 ], [ 139.475767783726099, 36.720187778251422 ], [ 139.475683883500125, 36.720255274094818 ], [ 139.47554416901923, 36.720396116845649 ], [ 139.475446109684839, 36.72044111412702 ], [ 139.475033617264643, 36.720475006468938 ], [ 139.474921666908017, 36.72050304806146 ], [ 139.474809716551391, 36.720542502784291 ], [ 139.474663047838192, 36.720655284592176 ], [ 139.474599993583553, 36.720689157583678 ], [ 139.474551115640708, 36.720706113429841 ], [ 139.474432228733065, 36.720790565276729 ], [ 139.474432228733065, 36.720801670373504 ], [ 139.474397224609049, 36.720824168935529 ], [ 139.474320278376439, 36.720914432830973 ], [ 139.474236396309578, 36.721049713672841 ], [ 139.474236396309578, 36.721269176714266 ], [ 139.474285274252424, 36.721472222732231 ], [ 139.47441111515343, 36.721686104514276 ], [ 139.474879725994072, 36.722243875065118 ], [ 139.475012503446067, 36.72243527747824 ], [ 139.475075558656471, 36.722604431311609 ], [ 139.475187508774155, 36.72273971168152 ], [ 139.475327222777196, 36.722863618093918 ], [ 139.475446109684839, 36.723038064503548 ], [ 139.475502228344226, 36.723201386623302 ], [ 139.475537215025895, 36.723449449273062 ], [ 139.475641942108297, 36.723736677962542 ], [ 139.475663055926873, 36.72402361749694 ], [ 139.475753892464951, 36.724215289242757 ], [ 139.475921657315439, 36.724356112643164 ], [ 139.475991666280237, 36.724429440357497 ], [ 139.47639000006987, 36.724750272548455 ], [ 139.476536936391369, 36.724908051952355 ], [ 139.47656471867478, 36.724970004765254 ], [ 139.476543891101528, 36.72508834895406 ], [ 139.476515840731935, 36.725122222260197 ], [ 139.476425004193885, 36.72517861316414 ], [ 139.476236108321416, 36.725235004068082 ], [ 139.476026671121048, 36.725235004068082 ], [ 139.475621115012927, 36.725161657317969 ], [ 139.475341382602409, 36.725082787045096 ], [ 139.475236386239118, 36.725065831041611 ], [ 139.475096672236106, 36.725003897421807 ], [ 139.47498472187948, 36.724919445574926 ], [ 139.47485889842082, 36.724784164733052 ], [ 139.474781934745863, 36.724637779266367 ], [ 139.474767775876359, 36.724581388047781 ], [ 139.474760839325342, 36.724367236933041 ], [ 139.474774998194846, 36.724192771330308 ], [ 139.474774998194846, 36.724123042951696 ], [ 139.474774998194846, 36.723775824179874 ], [ 139.474698052679003, 36.723578609875524 ], [ 139.474474151965751, 36.723291381186051 ], [ 139.474341391956074, 36.723094436214396 ], [ 139.474166387344781, 36.722942507717207 ], [ 139.47400555904531, 36.722767772624465 ], [ 139.473963618370277, 36.722700276309105 ], [ 139.473907785717302, 36.722542497219848 ], [ 139.473802771911693, 36.722305828349981 ], [ 139.473719158408898, 36.722204459043127 ], [ 139.473614448529872, 36.722120007196239 ], [ 139.473327492845158, 36.721866382637522 ], [ 139.473089719746667, 36.721590278237919 ], [ 139.473019996549311, 36.721494721451577 ], [ 139.472921954896179, 36.721331399174503 ], [ 139.47285916824984, 36.721263614647988 ], [ 139.472747236052356, 36.721184724710056 ], [ 139.472649176956878, 36.721156664239075 ], [ 139.472243602689645, 36.721134165519729 ], [ 139.471502500393967, 36.721139727586007 ], [ 139.471432508632546, 36.721173600577501 ], [ 139.471390550037341, 36.72130304970576 ], [ 139.471390550037341, 36.72144945468019 ], [ 139.471404458501894, 36.721590278237919 ], [ 139.471460559002139, 36.721781661300618 ], [ 139.471467495553156, 36.721894443108503 ], [ 139.471432508632546, 36.72198443814321 ], [ 139.471383613486324, 36.722018330327806 ], [ 139.47127166312967, 36.722057784893323 ], [ 139.471166667244262, 36.722063327609177 ], [ 139.471117771381216, 36.722046390956109 ], [ 139.470950007247552, 36.721945002770795 ], [ 139.470838056890926, 36.721855008208053 ], [ 139.470726106534272, 36.721787223209574 ], [ 139.470509446298621, 36.72163527551929 ], [ 139.470432500782806, 36.721544992273429 ], [ 139.47018083642314, 36.721111666957704 ], [ 139.470104158754566, 36.721038339400693 ], [ 139.470020276687734, 36.72098194849675 ], [ 139.469859448388263, 36.720948325487527 ], [ 139.469705557356605, 36.72093693155032 ], [ 139.469551665608151, 36.720948325487527 ], [ 139.469439715251525, 36.720970824206873 ], [ 139.469258041936484, 36.72098194849675 ], [ 139.468999172461736, 36.720953887553804 ], [ 139.468782494783767, 36.720953887553804 ], [ 139.468614712729874, 36.720993322768898 ], [ 139.468509716366583, 36.721038339400693 ], [ 139.468439725321986, 36.721077774301143 ], [ 139.468223047166134, 36.721173331087485 ], [ 139.468034151293665, 36.721218328368856 ], [ 139.467887214733253, 36.721223890749776 ], [ 139.467726386433782, 36.721195829806831 ], [ 139.467716678703027, 36.721191653576838 ], [ 139.467558604379889, 36.72112250224982 ], [ 139.467383885536066, 36.721021114064506 ], [ 139.467139175169734, 36.720897496649862 ], [ 139.466936388036117, 36.720841105273962 ], [ 139.466670546647833, 36.720790565276729 ], [ 139.466495827087215, 36.720801670373504 ], [ 139.466111116950401, 36.7208691662169 ], [ 139.465586656014437, 36.720874728125857 ], [ 139.46544667344736, 36.720891664936246 ], [ 139.465090281288468, 36.721026676288105 ], [ 139.464859730508465, 36.72115639490638 ], [ 139.464761671413015, 36.721235284372348 ], [ 139.464642784505344, 36.721376107930077 ], [ 139.464453888632903, 36.721595821268416 ], [ 139.464419169798475, 36.721612776799944 ], [ 139.464391101986564, 36.72163527551929 ], [ 139.464188332534206, 36.72168583502426 ], [ 139.463999454581938, 36.72168583502426 ], [ 139.463369997999507, 36.721528055620361 ], [ 139.463188342604667, 36.721460540426541 ], [ 139.4629294377674, 36.721347777497115 ], [ 139.462761672916912, 36.721297218306788 ], [ 139.462600827175095, 36.721268888031148 ], [ 139.462293062554124, 36.721268888031148 ], [ 139.462097497977936, 36.72132527893509 ], [ 139.461978611070265, 36.721398606492102 ], [ 139.461782778646807, 36.721550554339707 ], [ 139.46157999151319, 36.721759162738593 ], [ 139.461265272182061, 36.722170278018091 ], [ 139.461209171681816, 36.722288603013794 ], [ 139.461209171681816, 36.722463337949222 ], [ 139.461279163204296, 36.722666114791814 ], [ 139.461369999981287, 36.722863348761223 ], [ 139.461377222538687, 36.72293638732048 ], [ 139.461356108959052, 36.723009715034813 ], [ 139.461342235618076, 36.723223885342648 ], [ 139.461384177009904, 36.723296943566965 ], [ 139.461439991503767, 36.723325273527969 ], [ 139.461516954461928, 36.723381395413853 ], [ 139.46155194138251, 36.723426392695224 ], [ 139.46157999151319, 36.723572778161909 ], [ 139.461670846210382, 36.723668604280945 ], [ 139.461670846210382, 36.723679728570822 ], [ 139.461684719312416, 36.723685541091335 ], [ 139.461747774283879, 36.723741662505262 ], [ 139.461754728277214, 36.723831945751122 ], [ 139.461698896341034, 36.723972769623494 ], [ 139.461530827563934, 36.724203606937067 ], [ 139.46149612736653, 36.72428832811665 ], [ 139.461426118401732, 36.724586661745583 ], [ 139.461419163930515, 36.724738878925884 ], [ 139.461437220324029, 36.724801390069238 ], [ 139.461446945497102, 36.724834724395343 ], [ 139.461530827563934, 36.724902220238739 ], [ 139.461803606220059, 36.725031669366999 ], [ 139.461985547621282, 36.725099434700411 ], [ 139.462335271554281, 36.725341665951198 ], [ 139.462363053359809, 36.725358602289624 ], [ 139.46249611729607, 36.725454178426382 ], [ 139.462600827175095, 36.725657224601669 ], [ 139.462691663952086, 36.72578111166365 ], [ 139.462796659598581, 36.725848607664368 ], [ 139.462873605114396, 36.725882499848964 ], [ 139.462943614796018, 36.725893604945739 ], [ 139.463139447219504, 36.725899455852456 ], [ 139.463258334127147, 36.725876668607313 ], [ 139.463509998486785, 36.725803610382997 ], [ 139.463719453607382, 36.725786673729928 ], [ 139.463817495260514, 36.725798048002083 ], [ 139.463957227422668, 36.725893604945739 ], [ 139.4640411094895, 36.726028885787613 ], [ 139.464124992273156, 36.726265554657481 ], [ 139.464124992273156, 36.726366942842795 ], [ 139.463999168814496, 36.726749997651311 ], [ 139.463999168814496, 36.72687944677957 ], [ 139.464062223069135, 36.727026121244016 ], [ 139.464159996397143, 36.727110553583159 ], [ 139.464195001237954, 36.72712750942933 ], [ 139.464404724683675, 36.727211942083116 ], [ 139.464817503349195, 36.727335848180878 ], [ 139.464838348364765, 36.727358346742903 ], [ 139.464866398734358, 36.7273638897734 ], [ 139.46504111733924, 36.727465277958714 ], [ 139.465083058731068, 36.727510564237839 ], [ 139.465118063571879, 36.727566666615992 ], [ 139.465125000122896, 36.727656661178735 ], [ 139.46507610425985, 36.727814440582627 ], [ 139.464852221466799, 36.728090275177571 ], [ 139.464754448377732, 36.728231117928402 ], [ 139.46461471621555, 36.728450831266741 ], [ 139.464530565584653, 36.728608610827962 ], [ 139.464530565584653, 36.728698893916501 ], [ 139.464572506976481, 36.728800282573779 ], [ 139.464642498021078, 36.728884733948703 ], [ 139.46483139437143, 36.729014163883861 ], [ 139.464978330931842, 36.729070555102446 ], [ 139.465411669323373, 36.7292002735634 ], [ 139.46551666496984, 36.729256375941546 ], [ 139.465593610485655, 36.729301661748714 ], [ 139.465985275332599, 36.729678885000936 ], [ 139.46602028017341, 36.729729713838601 ], [ 139.466048061978938, 36.729819727751767 ], [ 139.466062221565238, 36.729983069064623 ], [ 139.466034153275444, 36.730118330713395 ], [ 139.465985275332599, 36.730219719213345 ], [ 139.46592222107796, 36.730287503739859 ], [ 139.46574054776292, 36.730416952868119 ], [ 139.465663602247076, 36.730467762670003 ], [ 139.465502773947605, 36.730552214516891 ], [ 139.465218053748089, 36.730731953345462 ], [ 139.464852221466799, 36.730963329796388 ], [ 139.464824439900212, 36.730968891705345 ], [ 139.464628607476726, 36.731064737332126 ], [ 139.464621670925709, 36.731076111604274 ], [ 139.464579711374768, 36.731081654792092 ], [ 139.464509738489284, 36.731115566169791 ], [ 139.464306933435466, 36.731183062170508 ], [ 139.464104164460963, 36.731216954355105 ], [ 139.463859435935518, 36.731244996104948 ], [ 139.46285222368752, 36.731256101044401 ], [ 139.462761386910501, 36.731273056733251 ], [ 139.462649454713016, 36.73133499066769 ], [ 139.462544726913791, 36.731408068085109 ], [ 139.462544726913791, 36.731419442514579 ], [ 139.46251665910188, 36.731436379167647 ], [ 139.462230007343749, 36.731763042757578 ], [ 139.462083052863107, 36.731982774974377 ], [ 139.461985279774041, 36.732146116759196 ], [ 139.461915288012619, 36.732320832658843 ], [ 139.461915288012619, 36.732557232196008 ], [ 139.461992233767376, 36.732833336595611 ], [ 139.462090006856442, 36.732996677908467 ], [ 139.462299999105142, 36.733221934119982 ], [ 139.462418886012813, 36.733323322147974 ], [ 139.462530567805373, 36.733436104427824 ], [ 139.462782500490164, 36.733650274735666 ], [ 139.462971110595163, 36.733813616205843 ], [ 139.463236951983447, 36.734128886015881 ], [ 139.463460834537557, 36.734343056481045 ], [ 139.463698626511984, 36.734619160723327 ], [ 139.463712499614019, 36.734630285013196 ], [ 139.463747503738034, 36.734681113536226 ], [ 139.463817495260514, 36.734805000755529 ], [ 139.463838340515025, 36.734923344944328 ], [ 139.463838340515025, 36.735030276160138 ], [ 139.463810272942027, 36.735221947905956 ], [ 139.463677494773208, 36.735728889461811 ], [ 139.463677494773208, 36.735892211581564 ], [ 139.463747503738034, 36.736218894364598 ], [ 139.463747503738034, 36.736398883962046 ], [ 139.463691386034384, 36.736483335808934 ], [ 139.463600567416535, 36.736539726712877 ], [ 139.463523603741578, 36.736556663365945 ], [ 139.463376934550524, 36.736562225274902 ], [ 139.463181120047238, 36.736522771024028 ], [ 139.463118065075776, 36.736494729431506 ], [ 139.462740541894931, 36.736398883962046 ], [ 139.462670550372451, 36.736369167850121 ], [ 139.462621672429606, 36.736348343492857 ], [ 139.462404726187572, 36.736128611276058 ], [ 139.462306935656159, 36.736015828996209 ], [ 139.462201957213068, 36.735813052782902 ], [ 139.461999152876075, 36.73543582953068 ], [ 139.461740551248596, 36.735030276160138 ], [ 139.461628600891942, 36.734945843506353 ], [ 139.461425831917467, 36.7348499980369 ], [ 139.461089999006703, 36.734765546190012 ], [ 139.46055195145297, 36.734692218633 ], [ 139.460321114188702, 36.734692218633 ], [ 139.460174177628261, 36.734737504912125 ], [ 139.460020554443872, 36.734810543471383 ], [ 139.459810562434114, 36.734990552104613 ], [ 139.459551943364289, 36.735283612035737 ], [ 139.459419165434412, 36.735418892877611 ], [ 139.459307232997986, 36.735458058917331 ], [ 139.458712781017425, 36.735536948383299 ], [ 139.458656931161045, 36.735553884721725 ], [ 139.458433048606906, 36.735672228910531 ], [ 139.458433048606906, 36.735683603654643 ], [ 139.458223324922272, 36.735813052782902 ], [ 139.458027492498786, 36.735970831872159 ], [ 139.457943610431954, 36.736072220372115 ], [ 139.457929451323537, 36.736151129188507 ], [ 139.457936673880937, 36.736415839808217 ], [ 139.45795750169313, 36.73657916192797 ], [ 139.458034447208945, 36.736967778802764 ], [ 139.457985551823782, 36.73714249454509 ], [ 139.457796655234517, 36.737367769949707 ], [ 139.457719727877816, 36.73750861270053 ], [ 139.457642764202859, 36.737688890666455 ], [ 139.457621936390694, 36.738009992347429 ], [ 139.457600840970173, 36.738212788225802 ], [ 139.457545009033993, 36.738331113221506 ], [ 139.457426103967208, 36.73841554571797 ], [ 139.457328063030872, 36.738454999968845 ], [ 139.457125275897255, 36.738466393591416 ], [ 139.457034457279406, 36.738449438059888 ], [ 139.456705828527987, 36.738348049559931 ], [ 139.456481945973849, 36.738263617220788 ], [ 139.456356391079254, 36.738201664093246 ], [ 139.456223612910435, 36.73815083509826 ], [ 139.455974165398999, 36.738083897113356 ], [ 139.455636115640004, 36.737993055694361 ], [ 139.455468333347198, 36.737925559693643 ], [ 139.455405278375736, 36.737875000503315 ], [ 139.455314441598745, 36.737773323320241 ], [ 139.455202491242119, 36.737542504885127 ], [ 139.455055822767861, 36.737266381764385 ], [ 139.454964718143628, 36.737170844013825 ], [ 139.454720007777325, 36.73701304541683 ], [ 139.454580275854084, 36.736877784240015 ], [ 139.454384442713803, 36.736714442455202 ], [ 139.454342502038799, 36.736697506116776 ], [ 139.454279447067336, 36.73665805155126 ], [ 139.453818040863894, 36.736506103703654 ], [ 139.453412217147473, 36.736370842526846 ], [ 139.453104738293945, 36.736246936114441 ], [ 139.453041665880164, 36.736207500742026 ], [ 139.452971674357684, 36.736179170781028 ], [ 139.45288777413171, 36.736128611276058 ], [ 139.452748041969556, 36.735998873464681 ], [ 139.452699164265653, 36.735936958723343 ], [ 139.452566118249564, 36.735807490401982 ], [ 139.452384730701965, 36.735604732909813 ], [ 139.452251667482528, 36.735413061163996 ], [ 139.452195834829524, 36.735294717132511 ], [ 139.452132780574857, 36.735080835665109 ], [ 139.452104998052533, 36.734911662638638 ], [ 139.452216948409159, 36.734613059677017 ], [ 139.452216948409159, 36.734534439543744 ], [ 139.452188898278507, 36.734489172457714 ], [ 139.452132780574857, 36.734416114705361 ], [ 139.452000002406038, 36.73433722476743 ], [ 139.451881115498395, 36.734303332425512 ], [ 139.451839174823391, 36.734280833863487 ], [ 139.451692219625954, 36.734173883297252 ], [ 139.451566378724948, 36.734111949362813 ], [ 139.451433618715271, 36.734083619401815 ], [ 139.451174713161208, 36.73406112083979 ], [ 139.450545543063015, 36.73395971298941 ], [ 139.450188882340086, 36.73395971298941 ], [ 139.450021118206394, 36.733976668992902 ], [ 139.449916104400785, 36.734004729463884 ], [ 139.44986722645794, 36.73402722818323 ], [ 139.449720271977327, 36.734078057020895 ], [ 139.44948943471303, 36.734083619401815 ], [ 139.449293602289572, 36.734066663398323 ], [ 139.44902804666873, 36.73406112083979 ], [ 139.4488672365284, 36.734128616683186 ], [ 139.448783336302427, 36.734151384735227 ], [ 139.448650272366166, 36.734213337862769 ], [ 139.448447771955728, 36.734269440240915 ], [ 139.448385002751735, 36.734308894806432 ], [ 139.448343043917561, 36.734376679332946 ], [ 139.448356952621054, 36.734517502890675 ], [ 139.448378048758372, 36.734590561114985 ], [ 139.448485833265863, 36.734799169041914 ], [ 139.448608331691133, 36.735035549385984 ], [ 139.448608331691133, 36.735137226569051 ], [ 139.448573326850322, 36.735199160660812 ], [ 139.448517494914142, 36.73524971985114 ], [ 139.448385002751735, 36.735311672978682 ], [ 139.448231111720077, 36.735340003411643 ], [ 139.448154165487438, 36.735373607070443 ], [ 139.448119161363451, 36.735418892877611 ], [ 139.448084174681782, 36.735553884721725 ], [ 139.448112224812434, 36.735751118691141 ], [ 139.448209998140442, 36.736015828996209 ], [ 139.448251938815446, 36.736139716215511 ], [ 139.448251938815446, 36.736432506813948 ], [ 139.448224157009918, 36.736590267024745 ], [ 139.448203061589425, 36.736640845408175 ], [ 139.448105288261416, 36.736748065621747 ], [ 139.447916392388947, 36.736798605618972 ], [ 139.447608609608864, 36.736815561622464 ], [ 139.447440827316029, 36.736815561622464 ], [ 139.44722416731932, 36.736787500679519 ], [ 139.446678610723922, 36.736595848126804 ], [ 139.446608601759095, 36.73655083165233 ], [ 139.446343046138281, 36.736364991620128 ], [ 139.446251941036166, 36.7362241680624 ], [ 139.445951398733655, 36.735965000473186 ], [ 139.445685557345399, 36.735655273221681 ], [ 139.445552761017439, 36.735582234347788 ], [ 139.445426938275574, 36.735559735628442 ], [ 139.444944722658022, 36.735548322812768 ], [ 139.444804722170744, 36.735565278658939 ], [ 139.444566948355458, 36.735565278658939 ], [ 139.444427216193304, 36.735525824093422 ], [ 139.443986655483315, 36.735351108351097 ], [ 139.443818891110681, 36.735317215694543 ], [ 139.443553067164743, 36.735311672978682 ], [ 139.443434162336899, 36.735334171698028 ], [ 139.443231393362396, 36.735390562601971 ], [ 139.442986665553775, 36.735503325531397 ], [ 139.442923610582312, 36.735514161138155 ], [ 139.442546104604844, 36.735604444226695 ], [ 139.442519734911087, 36.735615568516572 ], [ 139.442483067792523, 36.735621381037085 ], [ 139.442385277022169, 36.735655003888986 ], [ 139.442329176521923, 36.735700270503052 ], [ 139.442238321824732, 36.735846656441701 ], [ 139.442049444111404, 36.736269165343771 ], [ 139.441965562044572, 36.736421113191376 ], [ 139.441993612175224, 36.736669175841136 ], [ 139.442091385503232, 36.736922492838275 ], [ 139.442130001144875, 36.737033042268266 ], [ 139.442203335143063, 36.737243613712344 ], [ 139.442349735770051, 36.737318326633684 ], [ 139.442418065014778, 36.73745472382182 ], [ 139.442361106256413, 36.73757416484915 ], [ 139.442270001632181, 36.737625263176838 ], [ 139.442182508047694, 36.737609712517369 ], [ 139.442077494242085, 36.737609712517369 ], [ 139.441881661818599, 36.737598607577915 ], [ 139.441803339075676, 36.737665275758161 ], [ 139.441695286004148, 36.737665275758161 ], [ 139.441575827322652, 36.73764250770612 ], [ 139.44147333453077, 36.737551396797109 ], [ 139.441416393692606, 36.737483342465936 ], [ 139.441406382752064, 36.73735639552023 ], [ 139.441203613777589, 36.737328045894174 ], [ 139.441063880898611, 36.737350833611274 ], [ 139.440930835121492, 36.737395830892645 ], [ 139.440903053315964, 36.737401392801601 ], [ 139.44082610780012, 36.737429453744546 ], [ 139.440630274659839, 36.737474720358613 ], [ 139.440434442236381, 36.737491676362104 ], [ 139.440105832360899, 36.737497219077959 ], [ 139.439972786583752, 36.737508324017419 ], [ 139.439895822908795, 36.737530822579444 ], [ 139.439777222007535, 36.737536673643476 ], [ 139.439651112542492, 36.737514174924129 ], [ 139.439406384255989, 36.737435265793103 ], [ 139.439245556434372, 36.73741832945467 ], [ 139.438903055536656, 36.737350833611274 ], [ 139.438735272527055, 36.737333896800884 ], [ 139.438651390460194, 36.73736750045969 ], [ 139.438462780594136, 36.737485825298073 ], [ 139.438322779867917, 36.737609712517369 ], [ 139.438148061263007, 36.737857775167129 ], [ 139.438106102428861, 36.737959163352443 ], [ 139.438099165877844, 36.738105568484194 ], [ 139.438161934365041, 36.738454711443048 ], [ 139.438168888836259, 36.738663339035035 ], [ 139.438126947444431, 36.738809435818602 ], [ 139.438064161037033, 36.738910843668982 ], [ 139.438029442680488, 36.738946949038372 ], [ 139.437982781824815, 36.738999991218151 ], [ 139.437948617082981, 36.739031112359463 ], [ 139.437911396110763, 36.739065273876754 ], [ 139.437839723912447, 36.739086945247593 ], [ 139.437682775694697, 36.739121395448002 ], [ 139.437617772439069, 36.7391569429589 ], [ 139.437529438516691, 36.7391569429589 ], [ 139.437463344996104, 36.739120279416376 ], [ 139.4374083352387, 36.739123897630556 ], [ 139.437361674382998, 36.7390933348197 ], [ 139.43726000353098, 36.739068603407816 ], [ 139.43707806236867, 36.739074165788736 ], [ 139.437000562282378, 36.7391055559481 ], [ 139.436872218048933, 36.739113042830695 ], [ 139.436725281010609, 36.739068892090934 ], [ 139.436673882770862, 36.739083615716531 ], [ 139.436613330653984, 36.739055554773586 ], [ 139.436420841184088, 36.739034711223219 ], [ 139.436321387419184, 36.739035846919911 ], [ 139.436211117738395, 36.739025011155832 ], [ 139.436145006058666, 36.738966118226656 ], [ 139.436086117175307, 36.738947776858843 ], [ 139.436033896039959, 36.73885304742101 ], [ 139.435894718448253, 36.738730834878432 ], [ 139.435814447182253, 36.738742497991019 ], [ 139.435733604142399, 36.738727774837386 ], [ 139.435693325267238, 36.738650559576179 ], [ 139.435693325267238, 36.738562508865535 ], [ 139.435741112706182, 36.738460273666647 ], [ 139.435792511423813, 36.738416103733783 ], [ 139.435887227565701, 36.738404440778517 ], [ 139.435890284751821, 36.738199431243387 ], [ 139.435834434656527, 36.738075005673338 ], [ 139.43571472557008, 36.737930833076803 ], [ 139.435553879111495, 36.737801383948543 ], [ 139.435498047414228, 36.737767491606625 ], [ 139.435099446016267, 36.737593064547418 ], [ 139.434875563223216, 36.737468888645004 ], [ 139.434455830086478, 36.73716472377442 ], [ 139.434239170089768, 36.737052230649645 ], [ 139.433938609628115, 36.736961947089149 ], [ 139.43347695325869, 36.73686610161969 ], [ 139.433260543427963, 36.736793062903118 ], [ 139.433099715845316, 36.736725278061961 ], [ 139.432833874457032, 36.736607222556273 ], [ 139.432715004991707, 36.736573349564779 ], [ 139.432512218574885, 36.73646054840647 ], [ 139.432225566816754, 36.736359179099615 ], [ 139.432106662466765, 36.736336661344488 ], [ 139.431896653014689, 36.736364991620128 ], [ 139.431631114836193, 36.736438049844445 ], [ 139.431428327941489, 36.736528333090305 ], [ 139.43102999486868, 36.736770564341093 ], [ 139.430918061954372, 36.736815561622464 ], [ 139.430743343110521, 36.73686610161969 ], [ 139.430477501722237, 36.736990277364789 ], [ 139.43037250607577, 36.737046398936037 ], [ 139.430281669298779, 36.737074729211677 ], [ 139.430239727906951, 36.737102770489557 ], [ 139.43012082355699, 36.737136663146117 ], [ 139.429848045139806, 36.737187222336445 ], [ 139.429631384904155, 36.737271943673349 ], [ 139.429603066926234, 36.737297213750622 ], [ 139.429549737844667, 36.737327776561479 ], [ 139.429495568425153, 36.737370002642237 ], [ 139.429344715703678, 36.737474720358613 ], [ 139.429246674528429, 36.737559172205501 ], [ 139.429065001213388, 36.737778885229197 ], [ 139.428931937277099, 36.738004160633814 ], [ 139.428813050369456, 36.738302494262747 ], [ 139.428736104853641, 36.738476940672378 ], [ 139.428708323048113, 36.738516375887471 ], [ 139.428652222786809, 36.738623615136824 ], [ 139.428505553356814, 36.738798042196031 ], [ 139.428421653847636, 36.738871389103466 ], [ 139.428387507503885, 36.738892501986527 ], [ 139.428339720303882, 36.738920543579049 ], [ 139.4280930434943, 36.739029168507365 ], [ 139.428009178630845, 36.739057229135668 ], [ 139.427930266671751, 36.739116102871741 ], [ 139.427727211929806, 36.739331119878514 ], [ 139.427578325651609, 36.739477775149858 ], [ 139.427555549555279, 36.739497772001293 ], [ 139.427428885758701, 36.739609456970648 ], [ 139.427345003691869, 36.73965999696788 ], [ 139.42721193975558, 36.73968832724352 ], [ 139.427079162303585, 36.739682495529905 ], [ 139.426799447096471, 36.73964889202842 ], [ 139.426638601354654, 36.739654454252019 ], [ 139.426421941357944, 36.73968832724352 ], [ 139.426016117402582, 36.73969945153339 ], [ 139.425890275784781, 36.739727762615935 ], [ 139.425785566144697, 36.739772779090401 ], [ 139.425740836130814, 36.739806940765021 ], [ 139.425698055117863, 36.739839177937952 ], [ 139.425667787900068, 36.739873609259902 ], [ 139.425620286706476, 36.739914718994399 ], [ 139.425533883625889, 36.739998054495018 ], [ 139.425543895522168, 36.740061951474658 ], [ 139.425469720469266, 36.74011555167025 ], [ 139.425354159311809, 36.740148347173644 ], [ 139.425283881782917, 36.740162781644159 ], [ 139.425246946817111, 36.740148347173644 ], [ 139.425203610755858, 36.74011555167025 ], [ 139.425147778819678, 36.740117495365027 ], [ 139.425059177050031, 36.74011555167025 ], [ 139.425023886202808, 36.740074172445738 ], [ 139.424964174423877, 36.740059718782121 ], [ 139.424877503496049, 36.740086663221476 ], [ 139.42477027284221, 36.740092783618209 ], [ 139.4246775052234, 36.740055542552128 ], [ 139.42462167328722, 36.740008331771321 ], [ 139.424575835088177, 36.739924726938007 ], [ 139.424317215540498, 36.73968832724352 ], [ 139.424205283342985, 36.739643041436352 ], [ 139.423023888423529, 36.739389724281892 ], [ 139.422806942420408, 36.73932777115435 ], [ 139.422702214382269, 36.739305272435004 ], [ 139.422471395277114, 36.739305272435004 ], [ 139.422324440079677, 36.739333333377949 ], [ 139.4220377708792, 36.73941778522483 ], [ 139.421890834557729, 36.739446115185835 ], [ 139.421478323978391, 36.739462782506209 ], [ 139.421338609258555, 36.739513611501188 ], [ 139.421275554764975, 36.739553046558967 ], [ 139.421100836160065, 36.73969945153339 ], [ 139.420869998895796, 36.740082217344145 ], [ 139.420660561217545, 36.740397776309266 ], [ 139.420660561217545, 36.740510558117151 ], [ 139.420681120465673, 36.740578053960547 ], [ 139.420681120465673, 36.740707503088807 ], [ 139.420506669946946, 36.740887781212052 ], [ 139.420462780270981, 36.740949715146492 ], [ 139.420447226493138, 36.740980835973161 ], [ 139.420445831823713, 36.741027218933496 ], [ 139.420483053751639, 36.741086670350448 ], [ 139.420597220239671, 36.741197777796252 ], [ 139.420806943924333, 36.741383617828454 ], [ 139.420869998895796, 36.741490568394688 ], [ 139.420883889440148, 36.741496111425185 ], [ 139.420925830831976, 36.741682220790082 ], [ 139.420890843911366, 36.742268052283862 ], [ 139.420869998895796, 36.742425831373126 ], [ 139.42085583978735, 36.742459435031925 ], [ 139.420828057503968, 36.742634151246207 ], [ 139.42084888507722, 36.742802785135325 ], [ 139.420905003019783, 36.742910005034254 ], [ 139.421205545322294, 36.743214170376802 ] ], [ [ 139.46705527494376, 36.730046946851161 ], [ 139.466995831489953, 36.730025006619584 ], [ 139.466964992737246, 36.730008608631913 ], [ 139.466948062449092, 36.729987226416156 ], [ 139.466933063002756, 36.729959723803667 ], [ 139.466933330849997, 36.729934453726386 ], [ 139.466961666987061, 36.72990000305402 ], [ 139.467002213709435, 36.729871942425717 ], [ 139.467061675322412, 36.729853331410567 ], [ 139.467123889239133, 36.7298502712122 ], [ 139.467217765759926, 36.729853331410567 ], [ 139.467242776146804, 36.72986888222735 ], [ 139.467264730064358, 36.72990000305402 ], [ 139.467286398214441, 36.729934453726386 ], [ 139.467292494427539, 36.729983069064623 ], [ 139.46727722665608, 36.730021946421218 ], [ 139.467248890519045, 36.730040557121733 ], [ 139.467202211982084, 36.730053067090573 ], [ 139.467158322306119, 36.730059168294197 ], [ 139.467102221805845, 36.730056108095837 ], [ 139.46705527494376, 36.730046946851161 ] ] ] } },
{ "type": "Feature", "properties": { "P12_001": 10002, "P12_002": "東照宮", "P12_003": "09", "P12_004": "09206", "P12_005": "神社・寺院・教会", "P12_006": "日光市山内2301", "P12_007": -1 }, "geometry": { "type": "Polygon", "coordinates": [ [ [ 139.60066894417352, 36.757336360958867 ], [ 139.600652721613784, 36.757334333097617 ], [ 139.600640582709246, 36.757339889028401 ], [ 139.600576943778208, 36.757427832918424 ], [ 139.600537082802134, 36.757498138977915 ], [ 139.600415221619159, 36.757459306143012 ], [ 139.600378860338679, 36.757449972003108 ], [ 139.600030917195681, 36.757360416993841 ], [ 139.599939166488497, 36.757325555872285 ], [ 139.599844388940056, 36.757299667053481 ], [ 139.599734110418609, 36.757137056022387 ], [ 139.599549111353383, 36.756865805904134 ], [ 139.599384777862781, 36.756836917140717 ], [ 139.599206082646049, 36.756816083029584 ], [ 139.599139888772356, 36.756851667038838 ], [ 139.598736222170118, 36.757084361048953 ], [ 139.598461860801962, 36.757250361078256 ], [ 139.598129277898664, 36.75745652817762 ], [ 139.598163080174601, 36.758858945098901 ], [ 139.598170584437554, 36.75893775102768 ], [ 139.598219370628954, 36.759027814968768 ], [ 139.598283165585229, 36.759061589477632 ], [ 139.598369475958634, 36.759080352621702 ], [ 139.598474552843356, 36.759084105816875 ], [ 139.598564618095992, 36.759054084503177 ], [ 139.598613399030825, 36.759005298472204 ], [ 139.598684703506621, 36.758855191903734 ], [ 139.598695957392209, 36.758656299304285 ], [ 139.598744743583637, 36.758569988558371 ], [ 139.598789774895806, 36.758494934566194 ], [ 139.598891096901298, 36.758412376228847 ], [ 139.599003677810032, 36.758363591771079 ], [ 139.599127518099891, 36.75829604353995 ], [ 139.599206321820986, 36.758198473837815 ], [ 139.59932641248821, 36.758085893557485 ], [ 139.599473749983247, 36.758014611166978 ], [ 139.599529056260224, 36.758003334433539 ], [ 139.599645386791622, 36.758037108313118 ], [ 139.599769227081481, 36.758093398374619 ], [ 139.599833021798787, 36.758213484416004 ], [ 139.599825517535834, 36.758401118059226 ], [ 139.599825517535834, 36.758423634555783 ], [ 139.600579802169563, 36.758626277990594 ], [ 139.600596249807012, 36.758595722101838 ], [ 139.600648444659384, 36.758565360818544 ], [ 139.60068005541433, 36.758552361110986 ], [ 139.600728305911218, 36.758487583136549 ], [ 139.600959889133691, 36.758088611111809 ], [ 139.600651332917749, 36.75801491715535 ], [ 139.600721221458826, 36.757823555960201 ], [ 139.6007972786106, 36.757638582921274 ], [ 139.600824833188, 36.757566361170056 ], [ 139.600826889471222, 36.757515916981014 ], [ 139.60066894417352, 36.757336360958867 ] ] ] } },
{ "type": "Feature", "properties": { "P12_001": 10001, "P12_002": "輪王寺大猷院霊廟", "P12_003": "09", "P12_004": "09206", "P12_005": "神社・寺院・教会", "P12_006": "日光市山内2300", "P12_007": -1 }, "geometry": { "type": "Polygon", "coordinates": [ [ [ 139.599439721912802, 36.754267221911533 ], [ 139.599413305626513, 36.7542683329089 ], [ 139.599409582764707, 36.754269138861822 ], [ 139.599355582750832, 36.754277416909211 ], [ 139.599306528712162, 36.754283444014888 ], [ 139.599166499552553, 36.754292916911474 ], [ 139.598979416726451, 36.754303971980328 ], [ 139.598758167485983, 36.754323278037447 ], [ 139.598537278322055, 36.754334832756214 ], [ 139.598496610459108, 36.754338443890973 ], [ 139.598480139644892, 36.754341943957456 ], [ 139.598472499905228, 36.754347943846682 ], [ 139.598460833616087, 36.754359832871508 ], [ 139.598447667525676, 36.754376750016831 ], [ 139.598428972456247, 36.754406721774572 ], [ 139.598376750126221, 36.754496388953356 ], [ 139.598329250127279, 36.754573167178215 ], [ 139.5982943616483, 36.754631472043357 ], [ 139.598279055886024, 36.754648138891767 ], [ 139.598268944353435, 36.754658999827129 ], [ 139.598246166823486, 36.754672305995015 ], [ 139.598218056242018, 36.754678471857375 ], [ 139.59819933297814, 36.754681056003911 ], [ 139.598184111321302, 36.754681638876363 ], [ 139.598179167496539, 36.754682167001278 ], [ 139.598153083092342, 36.754682471888408 ], [ 139.598079000507681, 36.754702166999124 ], [ 139.598072638358815, 36.754759999745445 ], [ 139.598067444845924, 36.754816694120635 ], [ 139.598064028061117, 36.754835167008387 ], [ 139.598055444285308, 36.75485874998062 ], [ 139.598036528200055, 36.754885471968791 ], [ 139.598013471592878, 36.754918582899784 ], [ 139.597995389633212, 36.754942082806792 ], [ 139.597981556672408, 36.754959167026485 ], [ 139.597945917695455, 36.75500074998105 ], [ 139.597917250393124, 36.755032944048168 ], [ 139.597902194080007, 36.755051472155415 ], [ 139.59785852733134, 36.755119083157417 ], [ 139.597838250505561, 36.75515733296254 ], [ 139.597829638774243, 36.755192555921248 ], [ 139.597827110592448, 36.755217166982952 ], [ 139.597816777327239, 36.755329056154316 ], [ 139.597832778393297, 36.755407222103308 ], [ 139.597867583005723, 36.755420471950458 ], [ 139.597914610867122, 36.755462110911118 ], [ 139.597956167333052, 36.755497250175317 ], [ 139.598005499732182, 36.755515360911275 ], [ 139.598110916622829, 36.755539166963977 ], [ 139.598345722375115, 36.755563610793985 ], [ 139.59837527851937, 36.755564944085222 ], [ 139.598756528385024, 36.755600305957934 ], [ 139.599025471879401, 36.755622555953565 ], [ 139.599272028026292, 36.755644916860156 ], [ 139.599367471967241, 36.755640610998071 ], [ 139.599625916852716, 36.755653360880672 ], [ 139.59968524991811, 36.755334278093677 ], [ 139.599746916193538, 36.755014832840246 ], [ 139.599791389112283, 36.754785749964888 ], [ 139.599802027737667, 36.754784860946742 ], [ 139.599804332992221, 36.754769917072451 ], [ 139.599808472080525, 36.754696194169021 ], [ 139.599849916724423, 36.754436471867727 ], [ 139.599841749414054, 36.754433916982805 ], [ 139.59984561085875, 36.754416805861304 ], [ 139.599844082863029, 36.754402472075903 ], [ 139.599837500654104, 36.754387416976016 ], [ 139.599823333421853, 36.754371972035926 ], [ 139.599805110251026, 36.754361832887028 ], [ 139.599622388962672, 36.754310556000576 ], [ 139.599476444225587, 36.754274138979277 ], [ 139.599471638744745, 36.754272971975801 ], [ 139.599439721912802, 36.754267221911533 ] ] ] } }
]
}
