{
"type": "FeatureCollection",
"crs": { "type": "name", "properties": { "name": "urn:ogc:def:crs:EPSG::4612" } },
"features": [
{ "type": "Feature", "properties": { "P12_001": 10006, "P12_002": "松島", "P12_003": "04", "P12_004": "04401", "P12_005": "岩石・洞窟", "P12_006": "松島町松島", "P12_007": -1 }, "geometry": { "type": "Point", "coordinates": [ 141.079571000056831, 38.363989000288001 ] } },
{ "type": "Feature", "properties": { "P12_001": 10004, "P12_002": "蔵王の樹氷", "P12_003": "04", "P12_004": "04301", "P12_005": "自然現象", "P12_006": "蔵王町", "P12_007": -1 }, "geometry": { "type": "Point", "coordinates": [ 140.446803401345079, 38.142080899600607 ] } },
{ "type": "Feature", "properties": { "P12_001": 10005, "P12_002": "瑞厳寺", "P12_003": "04", "P12_004": "04401", "P12_005": "神社・寺院・教会", "P12_006": "松島町松島字町内91", "P12_007": -1 }, "geometry": { "type": "Point", "coordinates": [ 141.05961469005436, 38.37217778981514 ] } },
{ "type": "Feature", "properties": { "P12_001": 10001, "P12_002": "仙台七夕まつり", "P12_003": "04", "P12_004": "04101", "P12_005": "年中行事", "P12_006": "仙台市", "P12_007": -1 }, "geometry": { "type": "Point", "coordinates": [ 140.871888183178612, 38.26696053311764 ] } },
{ "type": "Feature", "properties": { "P12_001": 10003, "P12_002": "鳴子温泉の潟沼、温泉神社、滝の湯", "P12_003": "04", "P12_004": "04215", "P12_005": "温泉", "P12_006": "大崎市", "P12_007": -1 }, "geometry": { "type": "Point", "coordinates": [ 140.716835999903566, 38.743275 ] } },
{ "type": "Feature", "properties": { "P12_001": 10002, "P12_002": "鳴子峡", "P12_003": "04", "P12_004": "04215", "P12_005": "河川・峡谷", "P12_006": "大崎市", "P12_007": -1 }, "geometry": { "type": "Point", "coordinates": [ 140.690388211011168, 38.73525080777096 ] } },
{ "type": "Feature", "properties": { "P12_001": 10002, "P12_002": "鳴子峡", "P12_003": "04", "P12_004": "04215", "P12_005": "河川・峡谷", "P12_006": "大崎市", "P12_007": -1 }, "geometry": { "type": "LineString", "coordinates": [ [ 140.701645405327753, 38.735783426002584 ], [ 140.701625559722231, 38.735740552313075 ], [ 140.701397496116698, 38.735275287567376 ], [ 140.701321115237761, 38.735160280018405 ], [ 140.701267214291647, 38.735101111578437 ], [ 140.701220569191094, 38.735056101414806 ], [ 140.701141661354399, 38.735002775998055 ], [ 140.701037509334384, 38.73493778434154 ], [ 140.700972789291143, 38.734918054522495 ], [ 140.700929729399434, 38.734904168325258 ], [ 140.700868615925941, 38.734895559949265 ], [ 140.700796661397987, 38.734895559949265 ], [ 140.700717775502881, 38.734898324703451 ], [ 140.700551948269634, 38.734933616505693 ], [ 140.70005971445994, 38.735067788073138 ], [ 140.700013889721362, 38.735081381147502 ], [ 140.69989526932838, 38.735101111578437 ], [ 140.699783882839398, 38.735123899261239 ], [ 140.699686943362451, 38.735126664002124 ], [ 140.699596935833426, 38.735120820380317 ], [ 140.699521677868944, 38.735109719342539 ], [ 140.69945332989505, 38.735092775294845 ], [ 140.6993527838641, 38.735058886587566 ], [ 140.699187497009689, 38.734963337377124 ], [ 140.699079716478337, 38.734898324703451 ], [ 140.698971396745236, 38.734839449373048 ], [ 140.698763049418432, 38.734714723462695 ], [ 140.698688050076186, 38.734664728600698 ], [ 140.698626936586976, 38.734639448256118 ], [ 140.698501384246157, 38.734616660573316 ], [ 140.698495833803577, 38.734615278508812 ], [ 140.698433057633139, 38.734600009635187 ], [ 140.698318065155121, 38.734588616099735 ], [ 140.698181671759841, 38.734585830328385 ], [ 140.69812055828632, 38.73459138024203 ], [ 140.69804527836456, 38.734605560147429 ], [ 140.698005824446227, 38.734616660573316 ], [ 140.697844164926039, 38.734704167820219 ], [ 140.697808338922641, 38.734729448151498 ], [ 140.697614179389262, 38.7348191747706 ], [ 140.697546112591311, 38.734844727194286 ], [ 140.697463900705969, 38.734872772279758 ], [ 140.697029994774084, 38.73500943649568 ], [ 140.696885006718361, 38.735050278810156 ], [ 140.69670890018611, 38.735117783547018 ], [ 140.6966477866969, 38.735143063279715 ], [ 140.696543612735269, 38.735202211301115 ], [ 140.69642862027294, 38.73526416551244 ], [ 140.69635694690524, 38.735320569810114 ], [ 140.696299439405067, 38.73536555895658 ], [ 140.696241932485606, 38.735430550001198 ], [ 140.696177212442336, 38.735509448872108 ], [ 140.696116120329719, 38.73560499868114 ], [ 140.696047772952255, 38.735723336172974 ], [ 140.695968886476436, 38.735866932978929 ], [ 140.695943620351528, 38.735951381763492 ], [ 140.695939992436593, 38.736036102640455 ], [ 140.695943620351528, 38.7361119436476 ], [ 140.69596167393334, 38.736159990644531 ], [ 140.695983333488499, 38.736205000808155 ], [ 140.696008340394798, 38.736238889515434 ], [ 140.696169999914957, 38.736388057252199 ], [ 140.696274173280159, 38.736472506635351 ], [ 140.696378325896575, 38.736571113709552 ], [ 140.696486105831525, 38.736697787484978 ], [ 140.696554431832425, 38.736790823615067 ], [ 140.696593885766475, 38.736875272399622 ], [ 140.696622779806319, 38.736939991963723 ], [ 140.696622779806319, 38.737001946175049 ], [ 140.696622779806319, 38.737052778930021 ], [ 140.696554431832425, 38.737156664424049 ], [ 140.696514999871368, 38.737215833475915 ], [ 140.69646472684019, 38.73726943038649 ], [ 140.696389166354606, 38.737336935110051 ], [ 140.696313605853305, 38.737384710014567 ], [ 140.696249166389578, 38.737424169665957 ], [ 140.69615918081783, 38.737458058373235 ], [ 140.696065825953355, 38.737491947080514 ], [ 140.695810833510308, 38.737570824934259 ], [ 140.695659993087276, 38.737609991462783 ], [ 140.695487493109056, 38.737641114830581 ], [ 140.695354447064915, 38.737663609390516 ], [ 140.695282773697187, 38.737680554050101 ], [ 140.695218053653946, 38.737703069640496 ], [ 140.695156940180425, 38.737739722490069 ], [ 140.695067213827315, 38.737829721786866 ], [ 140.694984440202234, 38.737911385411962 ], [ 140.6949811148084, 38.737911385411962 ], [ 140.694870290059157, 38.737919993176071 ], [ 140.694829993805854, 38.737919993176071 ], [ 140.694704160289092, 38.737900284374184 ], [ 140.694571394808747, 38.737871946179148 ], [ 140.69448859982279, 38.737843880675101 ], [ 140.694359440912194, 38.737770553346891 ], [ 140.694265827425511, 38.73771722793014 ], [ 140.694187222109917, 38.737658059476864 ], [ 140.69408667606325, 38.73756778748907 ], [ 140.694007508992229, 38.737458058373235 ], [ 140.693964449100548, 38.737407225604962 ], [ 140.693896101142343, 38.737291945976885 ], [ 140.693791949122357, 38.737108889519533 ], [ 140.693698615618757, 38.736962213832655 ], [ 140.693641108699296, 38.736908889014494 ], [ 140.693558616250158, 38.736835561686284 ], [ 140.693479449179137, 38.736782215239067 ], [ 140.693371669244186, 38.736708887910858 ], [ 140.693238882418655, 38.736655269384535 ], [ 140.693185002833417, 38.736635560582656 ], [ 140.693087782776985, 38.736604730324423 ], [ 140.692940570268888, 38.736559720174093 ], [ 140.692671109452874, 38.736506101634468 ], [ 140.692606389425322, 38.736494728517584 ], [ 140.692423329568612, 38.736455289896654 ], [ 140.692308337090566, 38.736413065504379 ], [ 140.692197209804505, 38.73637082009494 ], [ 140.692103898258239, 38.736320280436232 ], [ 140.692017496702505, 38.736263897155716 ], [ 140.691932218641995, 38.736196937215567 ], [ 140.69173443119368, 38.736031390619786 ], [ 140.691385004305573, 38.735738897557582 ], [ 140.691288324047292, 38.735658323499301 ], [ 140.691126664527104, 38.735542771778817 ], [ 140.691004437564402, 38.735469716529714 ], [ 140.690907498087483, 38.735418883774742 ], [ 140.690652505644437, 38.735300567300065 ], [ 140.690476399112185, 38.735224726891509 ], [ 140.690430834188618, 38.735217500593308 ], [ 140.6902891715267, 38.73519666078888 ], [ 140.690261400385623, 38.735193896034687 ], [ 140.690208881572573, 38.735184177686598 ], [ 140.690196680938783, 38.735178334064791 ], [ 140.690069724523227, 38.73512444343276 ], [ 140.690056659628567, 38.735120275596906 ], [ 140.690014441459709, 38.735108882061454 ], [ 140.690008329873791, 38.735108882061454 ], [ 140.689867228951613, 38.735031679395078 ], [ 140.689852220780523, 38.735004179093011 ], [ 140.689820281926359, 38.734972783034209 ], [ 140.689784995721084, 38.734927500791471 ], [ 140.689738609839168, 38.734897507827633 ], [ 140.68969388665414, 38.734877778008588 ], [ 140.689638064388902, 38.734810001192621 ], [ 140.689594442161052, 38.734775002499951 ], [ 140.689454442792453, 38.734617498466292 ], [ 140.68941999890643, 38.73458166188064 ], [ 140.689371108008345, 38.734538893316845 ], [ 140.689306949704843, 38.734443888291224 ], [ 140.689261945956019, 38.73434389794204 ], [ 140.689263608652908, 38.734333614378677 ], [ 140.68927110235623, 38.734304710383064 ], [ 140.689279437782403, 38.734224429447657 ], [ 140.689271944079081, 38.734114449256566 ], [ 140.689249723380584, 38.734056118097683 ], [ 140.689247498928239, 38.734041100897898 ], [ 140.689246678550603, 38.733990833344905 ], [ 140.689247498928239, 38.733911662381587 ], [ 140.689234434033551, 38.733884999972503 ], [ 140.68922333435691, 38.733853897036575 ], [ 140.689227221490484, 38.733804446944688 ], [ 140.689226940330258, 38.733708331933677 ], [ 140.689221390484079, 38.733556670923235 ], [ 140.689215279494562, 38.733505838766852 ], [ 140.689220570106443, 38.733475552693442 ], [ 140.689223895500248, 38.733435569289107 ], [ 140.68923028766568, 38.733348062055498 ], [ 140.689260563822927, 38.733194160669015 ], [ 140.689277494521662, 38.733096935672613 ], [ 140.689311117433618, 38.732985551787976 ], [ 140.689337787021117, 38.732920288039054 ], [ 140.689349729032699, 38.732902778190791 ], [ 140.689363333725538, 38.732872220024966 ], [ 140.689367502035026, 38.732858605920143 ], [ 140.6894225039226, 38.732761108232737 ], [ 140.689459712043401, 38.732708893399966 ], [ 140.689503333690539, 38.732660825372577 ], [ 140.689660566263314, 38.73258332960993 ], [ 140.689691381637971, 38.732563055606064 ], [ 140.689702222692432, 38.732551389366307 ], [ 140.689768324256647, 38.732510274959424 ], [ 140.689787500737253, 38.732506944417963 ], [ 140.689842783800771, 38.732487214585618 ], [ 140.689891933933183, 38.732453326476929 ], [ 140.689920568754417, 38.73245722163508 ], [ 140.689948058719551, 38.732466939983162 ], [ 140.689981379706779, 38.73246943264494 ], [ 140.690066938331142, 38.732465557918665 ], [ 140.690088619843607, 38.732464992118096 ], [ 140.69020860099306, 38.732481664671965 ], [ 140.690248897230674, 38.732499718718351 ], [ 140.690324435790359, 38.732506107123569 ], [ 140.690404164601119, 38.732540561032835 ], [ 140.690452493759466, 38.732567223441912 ], [ 140.690528616000506, 38.732584712273017 ], [ 140.690556105965641, 38.732585550166 ], [ 140.690629723190483, 38.732609447834193 ], [ 140.690666110352936, 38.732636676043846 ], [ 140.690736380226667, 38.732678062543144 ], [ 140.690777496841918, 38.73268916356762 ], [ 140.69081638902054, 38.732681665177012 ], [ 140.690892489916365, 38.732672491612334 ], [ 140.690936392127327, 38.732675004692688 ], [ 140.69095278241582, 38.73267611466477 ], [ 140.691017783038575, 38.732675276771793 ], [ 140.69110083724317, 38.732676387355774 ], [ 140.691255003060036, 38.732642226556081 ], [ 140.691310566703066, 38.732627502465867 ], [ 140.691354447568813, 38.732623606722427 ], [ 140.691384442550145, 38.732621679861218 ], [ 140.691412213691223, 38.732600001565217 ], [ 140.691426660718975, 38.732578323867799 ], [ 140.691438062916745, 38.732542781003616 ], [ 140.691449162593386, 38.732522779078856 ], [ 140.691513602057142, 38.732421678757589 ], [ 140.691549168841931, 38.732273327883341 ], [ 140.6915516738581, 38.732223060330348 ], [ 140.691559447544506, 38.732200565757111 ], [ 140.691558605821655, 38.732095004477124 ], [ 140.691549730000958, 38.73203055760402 ], [ 140.691540552239843, 38.731943888861984 ], [ 140.69152861024395, 38.731911110140096 ], [ 140.691515005535422, 38.731896679159448 ], [ 140.69148999864484, 38.731863335222279 ], [ 140.691444174502664, 38.731812230374892 ], [ 140.691397226881008, 38.731751386148957 ], [ 140.691322228119475, 38.731694709758877 ], [ 140.691305556655038, 38.731680278778228 ], [ 140.691273056641847, 38.731622785512329 ], [ 140.691254160740783, 38.731599725750414 ], [ 140.69120166386935, 38.731534440984333 ], [ 140.691169724999497, 38.731520282694689 ], [ 140.691145279252254, 38.731511381209117 ], [ 140.691133056676847, 38.731501934940141 ], [ 140.691078054789244, 38.73141721347789 ], [ 140.691061944483863, 38.731386676329222 ], [ 140.691037499317304, 38.731341938258005 ], [ 140.69103000561401, 38.731327214181093 ], [ 140.690970555433807, 38.731285827681795 ], [ 140.690953883969399, 38.731274727242607 ], [ 140.690918057965973, 38.731238324856385 ], [ 140.690890006245382, 38.731177229568509 ], [ 140.690849710007768, 38.731106394290187 ], [ 140.69084139592681, 38.731080003960216 ], [ 140.690822500606458, 38.731057782091284 ], [ 140.690765554846024, 38.731027223925459 ], [ 140.690715001251021, 38.730997775146434 ], [ 140.690700554223241, 38.7309825068847 ], [ 140.690657213171335, 38.730901388043016 ], [ 140.690646394058518, 38.730871101969605 ], [ 140.690617781194589, 38.73084668054846 ], [ 140.690508899721777, 38.73075333027834 ], [ 140.690496677130653, 38.7307391714034 ], [ 140.690477781229561, 38.730726102068687 ], [ 140.690429171491701, 38.730654722618844 ], [ 140.690341387834309, 38.730534164557639 ], [ 140.690266669652289, 38.730467497727062 ], [ 140.690137510741692, 38.730365288018994 ], [ 140.690123603512063, 38.730350836021188 ], [ 140.690092787556694, 38.730319712054794 ], [ 140.690036101014869, 38.730238321120694 ], [ 140.690034179099342, 38.730183068856036 ], [ 140.690033617940315, 38.730172219492097 ], [ 140.690057782527333, 38.730112778959715 ], [ 140.690073049917061, 38.730074177633178 ], [ 140.6900736116568, 38.730053337815441 ], [ 140.690084430769616, 38.730028602267566 ], [ 140.690102224536417, 38.729992786699079 ], [ 140.690119997538716, 38.729971381094074 ], [ 140.690157507599935, 38.729949724413821 ], [ 140.690178605996067, 38.729937492386796 ], [ 140.690203051162598, 38.729868898695003 ], [ 140.690207499455198, 38.729849440968366 ], [ 140.690230282505524, 38.72981693492418 ], [ 140.690262782518715, 38.729787507774205 ], [ 140.69033333297196, 38.729758897486754 ], [ 140.690393604722601, 38.729730831384124 ], [ 140.690443618519481, 38.729684166451698 ], [ 140.690547489959954, 38.729648895679915 ], [ 140.690578327276228, 38.729641397887896 ], [ 140.690596661437581, 38.729631679526513 ], [ 140.690641945765918, 38.729618882297508 ], [ 140.690685286833542, 38.729606671287641 ], [ 140.690766936963428, 38.72960110034353 ], [ 140.690770003138624, 38.72960221032892 ], [ 140.690942784292758, 38.729619175407073 ], [ 140.691090838523706, 38.729669170282371 ], [ 140.691255003060036, 38.729710829472666 ], [ 140.691436659438466, 38.729723605684512 ], [ 140.691566660684003, 38.729736675005931 ], [ 140.691672777922037, 38.729734999219971 ], [ 140.691905570399683, 38.729707498917911 ], [ 140.692068612052964, 38.729638612116545 ], [ 140.692154711071851, 38.72959027141146 ], [ 140.692294170642327, 38.729510284184215 ], [ 140.692333062820921, 38.729448329361006 ], [ 140.692343881918049, 38.729396931404047 ], [ 140.692350835823248, 38.729328337712261 ], [ 140.692333603215474, 38.729229164238895 ], [ 140.692309999787483, 38.729120566125609 ], [ 140.692318896969084, 38.728984446679796 ], [ 140.692279723630236, 38.728851385111049 ], [ 140.692189435521669, 38.728707495182213 ], [ 140.692180840876887, 38.728681942758527 ], [ 140.69209998916736, 38.728589723490948 ], [ 140.69200916127636, 38.728509714647956 ], [ 140.691938330227885, 38.728439445170203 ], [ 140.691877777913419, 38.728400822813207 ], [ 140.691739721805533, 38.72832889917855 ], [ 140.691636929977022, 38.72828443319974 ], [ 140.691581949434607, 38.728271384895486 ], [ 140.691468339073992, 38.728233328352353 ], [ 140.691446679518833, 38.728222227913164 ], [ 140.691355829686216, 38.728197219674293 ], [ 140.691229715589941, 38.728171939329712 ], [ 140.691135561708705, 38.728136396465523 ], [ 140.69099055229205, 38.728091386301898 ], [ 140.690896117831301, 38.728063320199261 ], [ 140.690779159538835, 38.728026939428794 ], [ 140.690762510031732, 38.728021661607556 ], [ 140.690720551081512, 38.72801556631191 ], [ 140.690659437607991, 38.727994161305496 ], [ 140.690605839198696, 38.727959434705234 ], [ 140.690544444549261, 38.727905271994089 ], [ 140.69045832416947, 38.727863612803787 ], [ 140.690351947712799, 38.727815837899279 ], [ 140.690321930774189, 38.727808067416255 ], [ 140.690196399778557, 38.727726948587872 ], [ 140.690130276257008, 38.727694715234676 ], [ 140.690107774366879, 38.72768193842424 ], [ 140.690015823577113, 38.727587771291603 ], [ 140.689996387877898, 38.727572503016567 ], [ 140.689957776278789, 38.727538069525878 ], [ 140.689866948387788, 38.72749111149718 ], [ 140.689865825489022, 38.727490567312358 ], [ 140.689840278784601, 38.727485288892531 ], [ 140.689818899808955, 38.727473057450794 ], [ 140.689801947765034, 38.727460281238947 ], [ 140.689791387886515, 38.72744639504171 ], [ 140.689784995721084, 38.72743971352692 ], [ 140.689708333681921, 38.727389990744037 ], [ 140.689665554369753, 38.727380272395948 ], [ 140.689608328029806, 38.727374449791306 ], [ 140.689581679787523, 38.72737028194215 ], [ 140.689545551859396, 38.727367224091694 ], [ 140.68951778070263, 38.72735528516094 ], [ 140.689500007700303, 38.727340561070719 ], [ 140.689491111115132, 38.727331115413634 ], [ 140.689476382927126, 38.727311112903593 ], [ 140.689467507687141, 38.727304180313553 ], [ 140.6893913854461, 38.727250834464925 ], [ 140.689316947843594, 38.727233052524255 ], [ 140.689245274491583, 38.727215269971687 ], [ 140.689224435894801, 38.727204714329211 ], [ 140.68912250773073, 38.727148331048696 ], [ 140.689093052531859, 38.727126674368442 ], [ 140.689064439071529, 38.727114442341417 ], [ 140.688999719028288, 38.727088052024747 ], [ 140.688968881712015, 38.727068322192402 ], [ 140.688947783315882, 38.727055273888141 ], [ 140.688903060727284, 38.726999162700039 ], [ 140.688830005242181, 38.72693777428929 ], [ 140.688762780182742, 38.726876113187537 ], [ 140.688674435366295, 38.726773609771307 ], [ 140.688658325641626, 38.726744999483856 ], [ 140.688628330048203, 38.72667667788447 ], [ 140.688608894945389, 38.726655837481452 ], [ 140.6885688792716, 38.726620273586796 ], [ 140.688545837599037, 38.726593611177719 ], [ 140.688472220970596, 38.726515005416381 ], [ 140.688452504676178, 38.726476948873248 ], [ 140.688451381777412, 38.726450286464171 ], [ 140.688451381777412, 38.726433886587991 ], [ 140.688441383057921, 38.726400563681281 ], [ 140.688400007804745, 38.726328891108572 ], [ 140.688383336340337, 38.72630666862775 ], [ 140.68833165984654, 38.726224167721561 ], [ 140.688313325685215, 38.726205003104496 ], [ 140.688264715366643, 38.726127507927139 ], [ 140.68825083007863, 38.726106396030296 ], [ 140.688239730401961, 38.72609194403249 ], [ 140.688203601877433, 38.726034722872299 ], [ 140.688148060191708, 38.725924721650749 ], [ 140.688077509738463, 38.725812227794023 ], [ 140.688033887494925, 38.725725286347689 ], [ 140.687970550181177, 38.725603891005392 ], [ 140.687928612591833, 38.72551167173782 ], [ 140.687908054574564, 38.725424730304788 ], [ 140.687897213520131, 38.725373331735938 ], [ 140.687874431066206, 38.725276671941515 ], [ 140.687854995963392, 38.725249444330458 ], [ 140.687800555219127, 38.725167508626249 ], [ 140.687795005372976, 38.72515722446429 ], [ 140.687740823266608, 38.725096673347927 ], [ 140.687647490359439, 38.725045819562496 ], [ 140.687627774065021, 38.725036394922569 ], [ 140.687499997271829, 38.725007218834548 ], [ 140.687475270945072, 38.724991949960916 ], [ 140.687387228649726, 38.724939442005272 ], [ 140.687326676915973, 38.72490639119097 ], [ 140.687279448714804, 38.724888336559296 ], [ 140.687252217371849, 38.724880272966708 ], [ 140.687232220513607, 38.724869716712341 ], [ 140.687213325193255, 38.724856396328981 ], [ 140.687197496063789, 38.724841399547763 ], [ 140.687168883184171, 38.724819449757938 ], [ 140.687088333995746, 38.724793059441268 ], [ 140.687053609545899, 38.72478721580616 ], [ 140.687011391377069, 38.724779173244031 ], [ 140.686910284187064, 38.724760553397076 ], [ 140.686888883850543, 38.72475389289945 ], [ 140.68682388322776, 38.724735838267776 ], [ 140.686758601444751, 38.72471388847795 ], [ 140.686721933718502, 38.724703604914581 ], [ 140.686661661967833, 38.724679727678257 ], [ 140.686635554120102, 38.72466249050769 ], [ 140.686625274805408, 38.724656939995455 ], [ 140.686561116517595, 38.72464167112183 ], [ 140.686514989854288, 38.724635827500023 ], [ 140.686435282985116, 38.724620286547285 ], [ 140.68637222565448, 38.724618066576504 ], [ 140.686287509333681, 38.724628601800411 ], [ 140.686245830978692, 38.724633607529242 ], [ 140.686132501197562, 38.724647221647366 ], [ 140.685950780155736, 38.724655243192338 ] ] } },
{ "type": "Feature", "properties": { "P12_001": 10005, "P12_002": "瑞厳寺", "P12_003": "04", "P12_004": "04401", "P12_005": "神社・寺院・教会", "P12_006": "松島町松島字町内91", "P12_007": -1 }, "geometry": { "type": "Polygon", "coordinates": [ [ [ 141.060626027961234, 38.371357999941772 ], [ 141.060566829877303, 38.371300184737557 ], [ 141.059489660490328, 38.371816329104981 ], [ 141.058967104842168, 38.372152944578588 ], [ 141.059351809042596, 38.372621001107241 ], [ 141.059556984614744, 38.372495971886039 ], [ 141.059819055527782, 38.372855889188514 ], [ 141.059932416147348, 38.372804138646671 ], [ 141.059979722057193, 38.372782056116101 ], [ 141.060029527649078, 38.372753306483368 ], [ 141.06010591682724, 38.372692971594411 ], [ 141.060127628585491, 38.372675500777902 ], [ 141.060566829877303, 38.373249348630914 ], [ 141.061307385759676, 38.372826176128051 ], [ 141.061031682861852, 38.372438265997339 ], [ 141.060775213394919, 38.372601766211851 ], [ 141.060598890338838, 38.372380561311168 ], [ 141.060832444475835, 38.372227027516693 ], [ 141.061110221742439, 38.372047999556813 ], [ 141.06120341703766, 38.371992055948063 ], [ 141.061095805566083, 38.371868388976509 ], [ 141.060759860580902, 38.371520806417529 ], [ 141.060744694026198, 38.371464082575358 ], [ 141.060626027961234, 38.371357999941772 ] ] ] } }
]
}
