{
"type": "FeatureCollection",
"crs": { "type": "name", "properties": { "name": "urn:ogc:def:crs:EPSG::4612" } },
"features": [
{ "type": "Feature", "properties": { "P12_001": 10013, "P12_002": "立山", "P12_003": "16", "P12_004": "16323", "P12_005": "山岳", "P12_006": "立山町", "P12_007": -1 }, "geometry": { "type": "Point", "coordinates": [ 137.619796400098579, 36.576001020032059 ] } },
{ "type": "Feature", "properties": { "P12_001": 10009, "P12_002": "剱岳", "P12_003": "16", "P12_004": "16322", "P12_005": "山岳", "P12_006": "上市町", "P12_007": -1 }, "geometry": { "type": "Point", "coordinates": [ 137.617130509717981, 36.623319750104827 ] } },
{ "type": "Feature", "properties": { "P12_001": 10004, "P12_002": "薬師岳", "P12_003": "16", "P12_004": "16201", "P12_005": "山岳", "P12_006": "富山市", "P12_007": -1 }, "geometry": { "type": "Point", "coordinates": [ 137.544838200271215, 36.46882980019457 ] } },
{ "type": "Feature", "properties": { "P12_001": 10005, "P12_002": "白馬三山", "P12_003": "16", "P12_004": "16207", "P12_005": "山岳", "P12_006": "黒部市", "P12_007": -1 }, "geometry": { "type": "Point", "coordinates": [ 137.753790505826203, 36.753958607204318 ] } },
{ "type": "Feature", "properties": { "P12_001": 10003, "P12_002": "雲ノ平", "P12_003": "16", "P12_004": "16201", "P12_005": "高原・湿原・原野", "P12_006": "富山市", "P12_007": -1 }, "geometry": { "type": "Point", "coordinates": [ 137.577615499276817, 36.420743279969983 ] } },
{ "type": "Feature", "properties": { "P12_001": 10006, "P12_002": "黒部峡谷", "P12_003": "16", "P12_004": "16207、16323", "P12_005": "河川・峡谷", "P12_006": "黒部市　および　立山町", "P12_007": -1 }, "geometry": { "type": "Point", "coordinates": [ 137.683550579946967, 36.606453340132369 ] } },
{ "type": "Feature", "properties": { "P12_001": 10012, "P12_002": "称名滝", "P12_003": "16", "P12_004": "16323", "P12_005": "滝", "P12_006": "立山町", "P12_007": -1 }, "geometry": { "type": "Point", "coordinates": [ 137.52356699996912, 36.575374999703463 ] } },
{ "type": "Feature", "properties": { "P12_001": 10011, "P12_002": "立山のライチョウ", "P12_003": "16", "P12_004": "16323", "P12_005": "動物", "P12_006": "立山町", "P12_007": -1 }, "geometry": { "type": "Point", "coordinates": [ 137.619782778003184, 36.5760219724622 ] } },
{ "type": "Feature", "properties": { "P12_001": 10002, "P12_002": "富山湾の蜃気楼", "P12_003": "16", "P12_004": "16201", "P12_005": "自然現象", "P12_006": "富山市", "P12_007": -1 }, "geometry": { "type": "Point", "coordinates": [ 137.236428999761898, 36.871689999976581 ] } },
{ "type": "Feature", "properties": { "P12_001": 10008, "P12_002": "五箇山合掌造り集落", "P12_003": "16", "P12_004": "16210", "P12_005": "集落・街", "P12_006": "南砺市", "P12_007": -1 }, "geometry": { "type": "Point", "coordinates": [ 136.886582560948767, 36.4043564527759 ] } },
{ "type": "Feature", "properties": { "P12_001": 10010, "P12_002": "黒部第四ダム", "P12_003": "16", "P12_004": "16323", "P12_005": "建造物", "P12_006": "立山町", "P12_007": -1 }, "geometry": { "type": "Point", "coordinates": [ 137.662166999959368, 36.56643799985757 ] } },
{ "type": "Feature", "properties": { "P12_001": 10001, "P12_002": "おわら風の盆", "P12_003": "16", "P12_004": "16201", "P12_005": "年中行事", "P12_006": "富山市八尾町", "P12_007": -1 }, "geometry": { "type": "Point", "coordinates": [ 137.137775439873593, 36.57594189019364 ] } },
{ "type": "Feature", "properties": { "P12_001": 10007, "P12_002": "城端曳山祭", "P12_003": "16", "P12_004": "16210", "P12_005": "年中行事", "P12_006": "南砺市", "P12_007": -1 }, "geometry": { "type": "Point", "coordinates": [ 136.896449999970002, 36.510690999840335 ] } },
{ "type": "Feature", "properties": { "P12_001": 10006, "P12_002": "黒部峡谷", "P12_003": "16", "P12_004": "16207、16323", "P12_005": "河川・峡谷", "P12_006": "黒部市　および　立山町", "P12_007": -1 }, "geometry": { "type": "LineString", "coordinates": [ [ 137.680051955184894, 36.64692663067212 ], [ 137.680327785968245, 36.646147467524763 ], [ 137.680505015616546, 36.645604392840838 ], [ 137.680611953816111, 36.645335232669623 ], [ 137.680680841483934, 36.645252731586268 ], [ 137.680833063441412, 36.645143840269689 ], [ 137.68125001737485, 36.64499995027343 ], [ 137.681491405609592, 36.644949955359465 ], [ 137.681848908427867, 36.644938289025475 ], [ 137.682523057722193, 36.64496773738793 ], [ 137.683379446677549, 36.645126623618459 ], [ 137.683839439545352, 36.645160512089674 ], [ 137.68469528824815, 36.645235787350657 ], [ 137.684942225024997, 36.645238573144844 ], [ 137.685118331823702, 36.645216623020389 ], [ 137.685263622220759, 36.645178294118132 ], [ 137.685426404428, 36.645111061604098 ], [ 137.685647794956367, 36.644971339703829 ], [ 137.685821396762833, 36.644783005110845 ], [ 137.685906458928542, 36.644690806563098 ], [ 137.686115843081694, 36.644463850025673 ], [ 137.686208614771516, 36.644344130167958 ], [ 137.686291409627842, 36.64417439444744 ], [ 137.686400550306445, 36.643883850012436 ], [ 137.686848622335503, 36.643215798195747 ], [ 137.687006394530016, 36.642929400505032 ], [ 137.687031682304735, 36.642754114467273 ], [ 137.686977219592222, 36.642342739966082 ], [ 137.686922800947343, 36.642013280222173 ], [ 137.686852228567261, 36.641593297193936 ], [ 137.686812795892877, 36.64145885351757 ], [ 137.686721946626506, 36.64120523408959 ], [ 137.686556400077535, 36.64098717904082 ], [ 137.686442227804378, 36.640694393562306 ], [ 137.686340558938753, 36.639877466889921 ], [ 137.686302790214029, 36.639469401662446 ], [ 137.686329740215228, 36.639205519392853 ], [ 137.686426118136779, 36.638997748134543 ], [ 137.686471402742171, 36.638803570262709 ], [ 137.686440565577868, 36.638439111839112 ], [ 137.686395280972505, 36.638159395542388 ], [ 137.686191943241255, 36.637748000011776 ], [ 137.686128346517506, 36.637528855783948 ], [ 137.686128346517506, 36.637344395922483 ], [ 137.686161127687086, 36.637207459413546 ], [ 137.686342502944029, 36.636984964256015 ], [ 137.686635848051594, 36.636749964649347 ], [ 137.687069731960804, 36.63650995955669 ], [ 137.687640290841784, 36.636380500739754 ], [ 137.688509722609808, 36.636374405671845 ], [ 137.688676953842787, 36.636374405671845 ], [ 137.688788620248033, 36.636346339852921 ], [ 137.688949178394381, 36.636273012270976 ], [ 137.689080561574656, 36.636211623438648 ], [ 137.689183893514212, 36.636062183205723 ], [ 137.689296402713467, 36.635853008696756 ], [ 137.6893944437372, 36.635371071458955 ], [ 137.689456118941507, 36.635037171203429 ], [ 137.689561113107544, 36.63473301275539 ], [ 137.689798613331732, 36.634180512780986 ], [ 137.689826125167372, 36.633912462818252 ], [ 137.689900563100451, 36.633546622173412 ], [ 137.689933344298254, 36.633085503822173 ], [ 137.689929738066496, 36.632802729718506 ], [ 137.689895012863417, 36.632571626114498 ], [ 137.689755834594308, 36.632213576749841 ], [ 137.689595837434922, 36.631798285619425 ], [ 137.689543902200455, 36.631626622846419 ], [ 137.689537790976459, 36.631606348388246 ], [ 137.689521680433188, 36.631414683572686 ], [ 137.689568628140734, 36.631149670468055 ], [ 137.689690293837032, 36.630803559530719 ], [ 137.68975915989472, 36.63059273038489 ], [ 137.689866399760007, 36.630416062125896 ], [ 137.690092779566726, 36.630143299397062 ], [ 137.690250551761238, 36.629898853792788 ], [ 137.690334166954017, 36.629774672877467 ], [ 137.690354163784662, 36.629711629408277 ], [ 137.690395842158296, 36.629571069634586 ], [ 137.69041750121545, 36.629418299179093 ], [ 137.690412232757211, 36.629288567624243 ], [ 137.69037945155938, 36.629148573630651 ], [ 137.690312507021162, 36.62901856998247 ], [ 137.690238069963783, 36.62893162846806 ], [ 137.690116404267485, 36.628829963054436 ], [ 137.689793905832204, 36.628612724849667 ], [ 137.689661399802304, 36.628487726687482 ], [ 137.689503627607792, 36.628290239541926 ], [ 137.689293616789882, 36.627943562824498 ], [ 137.689244725952761, 36.627823298538402 ], [ 137.689215551862389, 36.627676078319567 ], [ 137.689191948799987, 36.627213284704908 ], [ 137.689182792302944, 36.627031903599246 ], [ 137.689133901437543, 36.626784965968113 ], [ 137.688994182068427, 36.62642521998832 ], [ 137.688868630056504, 36.626154111896348 ], [ 137.68877112843785, 36.625974113414784 ], [ 137.688679177931959, 36.625861619460018 ], [ 137.688408334675529, 36.625518859694104 ], [ 137.688283343678819, 36.625272173126881 ], [ 137.688127233682536, 36.625030785732413 ], [ 137.687920829972086, 36.624757729961402 ], [ 137.687338610421051, 36.624101072063084 ], [ 137.687142506791673, 36.623915229899808 ], [ 137.686923621255545, 36.623758291348317 ], [ 137.68678556496036, 36.623689111235805 ], [ 137.686600561861553, 36.62355718061572 ], [ 137.68649945483034, 36.623464123326272 ], [ 137.686443609975214, 36.623373851831012 ], [ 137.686422511905022, 36.623356907595408 ], [ 137.686290005875122, 36.623221898138951 ], [ 137.686024453562737, 36.623024683006157 ], [ 137.685466117158001, 36.622714952969751 ], [ 137.685256689784637, 36.62257996446214 ], [ 137.685059723502576, 36.622474403368138 ], [ 137.684821941499592, 36.622272747804296 ], [ 137.684698894508159, 36.622082465532266 ], [ 137.684508341115816, 36.621698298108292 ], [ 137.684520844551628, 36.621398851781777 ], [ 137.684595281609006, 36.621054123387971 ], [ 137.684591675377249, 36.620835795923576 ], [ 137.684558894207697, 36.620549964012959 ], [ 137.68443362225139, 36.620172749995739 ], [ 137.684319450825683, 36.619831079489451 ], [ 137.684307227473738, 36.619708574159837 ], [ 137.684286410334863, 36.619342733112141 ], [ 137.684279456316887, 36.61919635068616 ], [ 137.684321113052164, 36.61899911460452 ], [ 137.684695007345056, 36.618227449695155 ], [ 137.684925014117908, 36.617713006207381 ], [ 137.684998609285259, 36.617523854850965 ], [ 137.685033334488338, 36.617433562406852 ], [ 137.685108614339697, 36.617234127179394 ], [ 137.685128330239053, 36.617182184264102 ], [ 137.685253342874091, 36.616593010346591 ], [ 137.685264183207721, 36.616426625797487 ], [ 137.685256949105849, 36.616177740165028 ], [ 137.685293336535437, 36.616001616334415 ], [ 137.685465556171039, 36.615497456637108 ], [ 137.68552001800785, 36.615308849950786 ], [ 137.685516390165986, 36.614821069031287 ], [ 137.685556405437438, 36.614436629513982 ], [ 137.685558349470938, 36.614164118171352 ], [ 137.685630843370518, 36.61394635616476 ], [ 137.68574890283503, 36.613548281685574 ], [ 137.685768899665703, 36.613187467475576 ], [ 137.685837787361748, 36.612959966509763 ], [ 137.68607140039461, 36.61262357390509 ], [ 137.686485288320597, 36.612239113358363 ], [ 137.686671954549837, 36.61201911030826 ], [ 137.686806404585013, 36.611784969523868 ], [ 137.686920554400643, 36.611516060819433 ], [ 137.687015010774502, 36.611204110688355 ], [ 137.687071114103389, 36.610958848642937 ], [ 137.687109186245266, 36.610634122049966 ], [ 137.687114455550955, 36.610211353549836 ], [ 137.687141945804711, 36.609744119504128 ], [ 137.687138339572954, 36.609184121533445 ], [ 137.687098345911636, 36.609020794952436 ], [ 137.687027514210314, 36.608888843625216 ], [ 137.686955020282511, 36.608791618320339 ], [ 137.686806123653696, 36.608636899782944 ], [ 137.686667505524071, 36.608481615868307 ], [ 137.686485849307559, 36.608363299583544 ], [ 137.686234722854408, 36.608233840444321 ], [ 137.685788053730619, 36.608003008853082 ], [ 137.685543621098532, 36.607884671619466 ], [ 137.685494730233131, 36.607850783148258 ], [ 137.684817514959633, 36.607518579507861 ], [ 137.68443362225139, 36.607304671203373 ], [ 137.684224174143623, 36.607175233415859 ], [ 137.684077501603952, 36.607062467045473 ], [ 137.683937782234835, 36.606904963036172 ], [ 137.68383334990321, 36.60674161542574 ], [ 137.683707516112491, 36.606578288764162 ], [ 137.683540004823897, 36.606459951127682 ], [ 137.683337509010954, 36.606386896283652 ], [ 137.6831980498105, 36.606358579078524 ], [ 137.683086123208312, 36.606313569104572 ], [ 137.682793059060316, 36.606127747567854 ], [ 137.682562512006655, 36.605947749005722 ], [ 137.682332224274234, 36.605818017853736 ], [ 137.682185551734563, 36.605699952632882 ], [ 137.681998064349671, 36.605559685901376 ], [ 137.681856401822728, 36.605475781567357 ], [ 137.68171029114572, 36.605434688142047 ], [ 137.681632225342526, 36.605417178529208 ], [ 137.681510559646256, 36.605414120319402 ], [ 137.681015000561018, 36.605492181294004 ], [ 137.680677796239138, 36.605553570206908 ], [ 137.680538056107366, 36.605576064679177 ], [ 137.68037056558137, 36.605621074733705 ], [ 137.680181956222555, 36.605654670162728 ], [ 137.679972507239086, 36.605694129900023 ], [ 137.67988861111499, 36.605705502869547 ], [ 137.679733063009621, 36.605718572454201 ], [ 137.679585851093094, 36.605714132023152 ], [ 137.679204722726581, 36.605604130498101 ], [ 137.679087786111666, 36.605470503665742 ], [ 137.678998901584976, 36.605145797941049 ], [ 137.678953336076489, 36.604950782276362 ], [ 137.678939451345542, 36.604843859587675 ], [ 137.678925565767116, 36.604663840076689 ], [ 137.678841669642992, 36.604410241597556 ], [ 137.678771939181189, 36.60416246617357 ], [ 137.678728339288114, 36.603876633860089 ], [ 137.678681111524924, 36.603303566304753 ], [ 137.678692232789871, 36.603091354937689 ], [ 137.678717520564589, 36.602986903729871 ], [ 137.679145293221552, 36.602146624085229 ], [ 137.679294189822116, 36.601826903300541 ], [ 137.679420843949259, 36.601320502882011 ], [ 137.679591400482678, 36.600601639387925 ], [ 137.679653054076852, 36.600311639381303 ], [ 137.679660288150473, 36.600169969399133 ], [ 137.679658625923992, 36.599756060489959 ], [ 137.679674735591561, 36.599224673169445 ], [ 137.679720020196953, 36.598784122640851 ], [ 137.679736409920139, 36.598156619821083 ], [ 137.67979806351434, 36.597856063608376 ], [ 137.67982611563076, 36.597699125056884 ], [ 137.679854188453334, 36.597580787823276 ], [ 137.679868333352999, 36.597288001941898 ], [ 137.679910292657951, 36.597164135098183 ], [ 137.679952510408413, 36.597094138061095 ], [ 137.680007793429127, 36.597017731642779 ], [ 137.680310014074166, 36.59695190270169 ], [ 137.680402504832642, 36.596906347896493 ], [ 137.680485839094075, 36.596763002328608 ], [ 137.680576689236176, 36.596373012494077 ], [ 137.68066194589278, 36.596010229736756 ], [ 137.680689176825325, 36.595734953548785 ], [ 137.680689176825325, 36.595574957109775 ], [ 137.680623614457943, 36.59526746811688 ], [ 137.680381125831133, 36.594614957607426 ], [ 137.6799222342311, 36.593777170070211 ], [ 137.679876949625708, 36.593646077242973 ], [ 137.679867793976143, 36.593547469716867 ], [ 137.679943894135704, 36.592793565887114 ], [ 137.680000300006043, 36.592506351352391 ], [ 137.680170554026262, 36.59201440273975 ], [ 137.680205019032428, 36.591801060134785 ], [ 137.680208626139887, 36.591654405696048 ], [ 137.680157791269238, 36.59148799987581 ], [ 137.680067222058454, 36.591326076787176 ], [ 137.679644740345566, 36.590803841938651 ], [ 137.679432505438513, 36.590564402303798 ], [ 137.678961391334013, 36.590133842523493 ], [ 137.678624187012105, 36.589728290352298 ], [ 137.67847028037059, 36.589429954556543 ], [ 137.678386946137408, 36.589189970090452 ], [ 137.678312508176077, 36.589024968165447 ], [ 137.678178339072218, 36.588781360434595 ], [ 137.678045833042319, 36.588625238646536 ], [ 137.677735557111504, 36.588379389872173 ], [ 137.677365831816985, 36.588163575947483 ], [ 137.677050006496614, 36.588039960409397 ], [ 137.676691940939946, 36.587930231299971 ], [ 137.676517519701008, 36.587902186429893 ], [ 137.676454721675327, 36.587874120288681 ], [ 137.676363893143332, 36.58785717605307 ], [ 137.67626611144081, 36.587845782134707 ], [ 137.676112507340719, 36.587812187027964 ], [ 137.676021678808723, 36.587778298556756 ], [ 137.67579834512253, 36.587631895181929 ], [ 137.675511953213743, 36.587513578494303 ], [ 137.675274733920872, 36.587468568520343 ], [ 137.675190836949326, 36.587451624284739 ], [ 137.675023347270809, 36.587446073967506 ], [ 137.674735012175944, 36.587471060950058 ], [ 137.674150568563988, 36.587569689505592 ], [ 137.673785010488189, 36.587588853755292 ], [ 137.673523625422774, 36.587552179812185 ], [ 137.673247513708105, 36.587448859439405 ], [ 137.673033334767553, 36.5872838575144 ], [ 137.672758345902508, 36.586958293047999 ], [ 137.672453339305633, 36.586499123100957 ], [ 137.672416109986017, 36.586410233504644 ], [ 137.672415807444594, 36.586409291128682 ], [ 137.672346682913116, 36.586201352360149 ], [ 137.672253630320228, 36.585939690507509 ], [ 137.672143906168856, 36.585704963316459 ], [ 137.672154185515524, 36.585478299821219 ], [ 137.672173901414851, 36.585344965950469 ], [ 137.672230566606402, 36.585101902970294 ], [ 137.672263909638644, 36.584975229625257 ], [ 137.672263909638644, 36.584843026589546 ], [ 137.672250563437075, 36.584689125299015 ], [ 137.672217502211879, 36.584556356886068 ], [ 137.672137794944859, 36.584318844142558 ], [ 137.672004727052268, 36.583976063427791 ], [ 137.671865008530602, 36.583676889516894 ], [ 137.671715550067375, 36.583389402888841 ], [ 137.671625845232455, 36.583238287070209 ], [ 137.671446391494982, 36.583073577784525 ], [ 137.671197229781512, 36.582931342425127 ], [ 137.671166392617238, 36.582916890619231 ], [ 137.670925004382468, 36.582804397067328 ], [ 137.67045695713287, 36.582551343338871 ], [ 137.670244182848961, 36.582421905148493 ], [ 137.669722795708196, 36.582209128001338 ], [ 137.669420834384397, 36.582101912351042 ], [ 137.669181671086278, 36.58206940610107 ], [ 137.668908905434677, 36.582091062780485 ], [ 137.66854000042008, 36.582217464112759 ], [ 137.667899733534853, 36.582428020842961 ], [ 137.667257781965588, 36.582600521408821 ], [ 137.666744731013694, 36.582751637308029 ], [ 137.666497512458022, 36.582764957956591 ], [ 137.666198337057807, 36.582751637308029 ], [ 137.666083344476419, 36.582731907278237 ], [ 137.665916394146507, 36.582703297030932 ], [ 137.665660559346378, 36.582611349627669 ], [ 137.665447785062469, 36.582473847741497 ], [ 137.665285283786574, 36.58232746563781 ], [ 137.665122220648016, 36.582102184363805 ], [ 137.664973064697961, 36.581789124427111 ], [ 137.664870013661471, 36.581514120574198 ], [ 137.664817516592592, 36.581248018371078 ], [ 137.664757504462244, 36.5809646788096 ], [ 137.664711399548679, 36.580668856070126 ], [ 137.664708051762432, 36.580358560253622 ], [ 137.66470472646202, 36.580146914344361 ], [ 137.664741394822926, 36.579920230222555 ], [ 137.664861116485667, 36.579734136592513 ], [ 137.6650272240216, 36.579621349273275 ], [ 137.665233347676377, 36.579462169678266 ], [ 137.665393063876195, 36.579364965725105 ], [ 137.665764733204242, 36.579223023327309 ], [ 137.666030566447944, 36.579177175560496 ], [ 137.666296399691646, 36.579177175560496 ], [ 137.666482223098654, 36.579120520120824 ], [ 137.666555559820466, 36.579058565911261 ], [ 137.666735012682238, 36.578813010501371 ], [ 137.666798070029131, 36.578684682116617 ], [ 137.666871125819597, 36.578482189082209 ], [ 137.666874451120037, 36.578356060165554 ], [ 137.66684113054535, 36.578099969579 ], [ 137.666834457458691, 36.577929961523424 ], [ 137.6668211121046, 36.577648841976043 ], [ 137.666758054757679, 36.577451919885434 ], [ 137.66673140642223, 36.577289954818525 ], [ 137.666664722080924, 36.57707690533632 ], [ 137.666568343283643, 36.576920239119872 ], [ 137.666375565830407, 36.576718018178802 ], [ 137.666249451984072, 36.576524678019254 ], [ 137.666180002453615, 36.57630356484124 ], [ 137.666136683463606, 36.576184955192005 ], [ 137.666100296034045, 36.576050783528402 ], [ 137.666104722602228, 36.575967465601039 ], [ 137.666113619778031, 36.575805521160696 ], [ 137.666116945954172, 36.575664961386998 ], [ 137.666126944369495, 36.575491078599903 ], [ 137.666146941200168, 36.575218567579562 ], [ 137.666143615024055, 36.57497552530652 ], [ 137.666143615024055, 36.574731624533484 ], [ 137.66615693961549, 36.574488854514918 ], [ 137.666169723982648, 36.574337738696286 ], [ 137.666226409908631, 36.574170516354329 ], [ 137.666295837828983, 36.573908289124454 ], [ 137.666342504605211, 36.573652177186183 ], [ 137.666392237360668, 36.573460512692911 ], [ 137.666445554766, 36.57322052822682 ], [ 137.666541955145107, 36.573020800037746 ], [ 137.666608337820691, 36.572878564678348 ], [ 137.666701389566128, 36.57276024807129 ], [ 137.666764727872589, 36.572689957669738 ], [ 137.666950832210915, 36.572498292854178 ], [ 137.667033627095492, 36.57240523556473 ], [ 137.667070295428147, 36.572286353499877 ], [ 137.667016955565259, 36.572121917032675 ], [ 137.666903906989177, 36.571954673741871 ], [ 137.666601945637098, 36.571769689998014 ], [ 137.666256125098982, 36.571675229457902 ], [ 137.665854178717922, 36.571661636474289 ], [ 137.665408611681102, 36.571621066528522 ], [ 137.665036121197403, 36.57153496312926 ], [ 137.66433223595007, 36.571254953468056 ], [ 137.664102790135928, 36.571144407514623 ], [ 137.663843630007136, 36.570882452297511 ], [ 137.663408342345235, 36.570348300131656 ], [ 137.66304250333809, 36.569976343389492 ], [ 137.662862790279377, 36.569647176687759 ], [ 137.662680011241463, 36.569339687936584 ], [ 137.662616392907609, 36.569160526925586 ], [ 137.662580286409366, 36.569059133927574 ], [ 137.662501119366652, 36.568766620461822 ], [ 137.662467797944544, 36.568416069012869 ], [ 137.662444454203353, 36.568111072771977 ], [ 137.662414739860424, 36.567975246552088 ], [ 137.662301690436863, 36.56768135046223 ], [ 137.662215289320528, 36.567265807945617 ], [ 137.662185553367522, 36.566881347398891 ], [ 137.662168903475617, 36.566521078020138 ], [ 137.662172790638721, 36.566353897334167 ] ] } }
]
}
