{
"type": "FeatureCollection",
"crs": { "type": "name", "properties": { "name": "urn:ogc:def:crs:EPSG::4612" } },
"features": [
{ "type": "Feature", "properties": { "P12_001": 10022, "P12_002": "大雪山", "P12_003": "01", "P12_004": "01458", "P12_005": "山岳", "P12_006": "東川町", "P12_007": -1 }, "geometry": { "type": "Point", "coordinates": [ 142.854200101608058, 43.663620659837498 ] } },
{ "type": "Feature", "properties": { "P12_001": 10028, "P12_002": "利尻山", "P12_003": "01", "P12_004": "01518", "P12_005": "山岳", "P12_006": "利尻町", "P12_007": -1 }, "geometry": { "type": "Point", "coordinates": [ 141.242023029940754, 45.178486059360353 ] } },
{ "type": "Feature", "properties": { "P12_001": 10019, "P12_002": "羊蹄山", "P12_003": "01", "P12_004": "01399", "P12_005": "山岳", "P12_006": "京極町", "P12_007": -1 }, "geometry": { "type": "Point", "coordinates": [ 140.811218050041219, 42.828223199167141 ] } },
{ "type": "Feature", "properties": { "P12_001": 10018, "P12_002": "駒ヶ岳", "P12_003": "01", "P12_004": "01343", "P12_005": "山岳", "P12_006": "鹿部町", "P12_007": -1 }, "geometry": { "type": "Point", "coordinates": [ 140.686052889391391, 42.065889439398575 ] } },
{ "type": "Feature", "properties": { "P12_001": 10024, "P12_002": "十勝岳連山", "P12_003": "01", "P12_004": "01460", "P12_005": "山岳", "P12_006": "上富良野町", "P12_007": -1 }, "geometry": { "type": "Point", "coordinates": [ 142.68604910040537, 43.417843671767066 ] } },
{ "type": "Feature", "properties": { "P12_001": 10029, "P12_002": "斜里岳", "P12_003": "01", "P12_004": "01545", "P12_005": "山岳", "P12_006": "斜里町", "P12_007": -1 }, "geometry": { "type": "Point", "coordinates": [ 144.717942776382529, 43.765672630866618 ] } },
{ "type": "Feature", "properties": { "P12_001": 10026, "P12_002": "サロベツ原野", "P12_003": "01", "P12_004": "01516、01520", "P12_005": "高原・湿原・原野", "P12_006": "豊富町　および　幌延町", "P12_007": -1 }, "geometry": { "type": "Point", "coordinates": [ 141.699037251567319, 45.091089361848084 ] } },
{ "type": "Feature", "properties": { "P12_001": 10013, "P12_002": "釧路湿原", "P12_003": "01", "P12_004": "01206、01661、01664、01667、01668", "P12_005": "高原・湿原・原野", "P12_006": "釧路市　および　釧路町　および　標茶町　および鶴居村　および　白糠町", "P12_007": -1 }, "geometry": { "type": "Point", "coordinates": [ 144.400481717397383, 43.105132009065692 ] } },
{ "type": "Feature", "properties": { "P12_001": 10033, "P12_002": "霧多布湿原", "P12_003": "01", "P12_004": "01663", "P12_005": "高原・湿原・原野", "P12_006": "浜中町", "P12_007": -1 }, "geometry": { "type": "Point", "coordinates": [ 145.075775669277618, 43.083032411348654 ] } },
{ "type": "Feature", "properties": { "P12_001": 10020, "P12_002": "雨竜沼湿原", "P12_003": "01", "P12_004": "01436", "P12_005": "高原・湿原・原野", "P12_006": "雨竜町", "P12_007": -1 }, "geometry": { "type": "Point", "coordinates": [ 141.601889359713851, 43.699704758660033 ] } },
{ "type": "Feature", "properties": { "P12_001": 10034, "P12_002": "摩周湖", "P12_003": "01", "P12_004": "01665", "P12_005": "湖沼", "P12_006": "弟子屈町", "P12_007": -1 }, "geometry": { "type": "Point", "coordinates": [ 144.534270493349908, 43.58253950387985 ] } },
{ "type": "Feature", "properties": { "P12_001": 10035, "P12_002": "屈斜路湖", "P12_003": "01", "P12_004": "01665", "P12_005": "湖沼", "P12_006": "弟子屈町", "P12_007": -1 }, "geometry": { "type": "Point", "coordinates": [ 144.321893890677018, 43.62361079892306 ] } },
{ "type": "Feature", "properties": { "P12_001": 10015, "P12_002": "支笏湖", "P12_003": "01", "P12_004": "01224", "P12_005": "湖沼", "P12_006": "千歳市", "P12_007": -1 }, "geometry": { "type": "Point", "coordinates": [ 141.328064657643466, 42.754444288989966 ] } },
{ "type": "Feature", "properties": { "P12_001": 10032, "P12_002": "洞爺湖", "P12_003": "01", "P12_004": "01575、01584", "P12_005": "湖沼", "P12_006": "壮瞥町　および　洞爺湖町", "P12_007": -1 }, "geometry": { "type": "Point", "coordinates": [ 140.852926958640751, 42.600365440184774 ] } },
{ "type": "Feature", "properties": { "P12_001": 10017, "P12_002": "大沼", "P12_003": "01", "P12_004": "01337", "P12_005": "湖沼", "P12_006": "七飯町", "P12_007": -1 }, "geometry": { "type": "Point", "coordinates": [ 140.691407507225819, 41.998586370997998 ] } },
{ "type": "Feature", "properties": { "P12_001": 10012, "P12_002": "阿寒湖沼群", "P12_003": "01", "P12_004": "01206", "P12_005": "湖沼", "P12_006": "釧路市", "P12_007": -1 }, "geometry": { "type": "Point", "coordinates": [ 144.098298823081194, 43.451883618254222 ] } },
{ "type": "Feature", "properties": { "P12_001": 10030, "P12_002": "知床五湖", "P12_003": "01", "P12_004": "01545", "P12_005": "湖沼", "P12_006": "斜里町", "P12_007": -1 }, "geometry": { "type": "Point", "coordinates": [ 145.082396128157512, 44.126441920261371 ] } },
{ "type": "Feature", "properties": { "P12_001": 10021, "P12_002": "層雲峡", "P12_003": "01", "P12_004": "01457", "P12_005": "河川・峡谷", "P12_006": "上川町", "P12_007": -1 }, "geometry": { "type": "Point", "coordinates": [ 142.95670451166518, 43.725622036160139 ] } },
{ "type": "Feature", "properties": { "P12_001": 10025, "P12_002": "天塩川", "P12_003": "01", "P12_004": "01470、01471、01487、01520", "P12_005": "河川・峡谷", "P12_006": "音威子府村　および　中川町　および　天塩町　および　幌延町", "P12_007": -1 }, "geometry": { "type": "Point", "coordinates": [ 142.063585677559644, 44.848985368489537 ] } },
{ "type": "Feature", "properties": { "P12_001": 10004, "P12_002": "石狩川", "P12_003": "01", "P12_004": "01102、01103、01235、01303", "P12_005": "河川・峡谷", "P12_006": "札幌市北区　および　札幌市東区　および　石狩市　および　当別町", "P12_007": -1 }, "geometry": { "type": "Point", "coordinates": [ 141.390915768502026, 43.205171871534361 ] } },
{ "type": "Feature", "properties": { "P12_001": 10031, "P12_002": "知床半島の海岸", "P12_003": "01", "P12_004": "01545、01693、01694", "P12_005": "海岸・岬", "P12_006": "斜里町　および　標津町　および　羅臼町", "P12_007": -1 }, "geometry": { "type": "Point", "coordinates": [ 145.3324320037419, 44.344995999087445 ] } },
{ "type": "Feature", "properties": { "P12_001": 10011, "P12_002": "釧路湿原のタンチョウヅル", "P12_003": "01", "P12_004": "01206", "P12_005": "動物", "P12_006": "釧路市", "P12_007": -1 }, "geometry": { "type": "Point", "coordinates": [ 144.196313487737655, 43.055580258250444 ] } },
{ "type": "Feature", "properties": { "P12_001": 10027, "P12_002": "礼文島の高山植物群落", "P12_003": "01", "P12_004": "01517", "P12_005": "植物", "P12_006": "礼文町", "P12_007": -1 }, "geometry": { "type": "Point", "coordinates": [ 141.031730133325681, 45.290085635824525 ] } },
{ "type": "Feature", "properties": { "P12_001": 10014, "P12_002": "オホーツク海沿岸の流氷", "P12_003": "01", "P12_004": "01219", "P12_005": "自然現象", "P12_006": "紋別市", "P12_007": -1 }, "geometry": { "type": "Point", "coordinates": [ 143.375037577490446, 44.328362068447603 ] } },
{ "type": "Feature", "properties": { "P12_001": 10009, "P12_002": "五稜郭", "P12_003": "01", "P12_004": "01202", "P12_005": "城跡・城郭・宮殿", "P12_006": "函館市", "P12_007": -1 }, "geometry": { "type": "Point", "coordinates": [ 140.756977920979494, 41.797081019928768 ] } },
{ "type": "Feature", "properties": { "P12_001": 10008, "P12_002": "函館市元町末広町の街並み", "P12_003": "01", "P12_004": "01202", "P12_005": "集落・街", "P12_006": "函館市", "P12_007": -1 }, "geometry": { "type": "Point", "coordinates": [ 140.728959207159107, 41.768660989206694 ] } },
{ "type": "Feature", "properties": { "P12_001": 10007, "P12_002": "函館山からの函館市街地の夜景", "P12_003": "01", "P12_004": "01202", "P12_005": "郷土景観", "P12_006": "函館市", "P12_007": -1 }, "geometry": { "type": "Point", "coordinates": [ 140.704404104412333, 41.759213150968463 ] } },
{ "type": "Feature", "properties": { "P12_001": 10023, "P12_002": "美瑛の丘の農村風景", "P12_003": "01", "P12_004": "01459", "P12_005": "郷土景観", "P12_006": "美瑛町", "P12_007": -1 }, "geometry": { "type": "Point", "coordinates": [ 142.4565770318207, 43.605137629875884 ] } },
{ "type": "Feature", "properties": { "P12_001": 10002, "P12_002": "大通公園", "P12_003": "01", "P12_004": "01101", "P12_005": "庭園・公園", "P12_006": "札幌市中央区", "P12_007": -1 }, "geometry": { "type": "Point", "coordinates": [ 141.356391026836064, 43.061077788723708 ] } },
{ "type": "Feature", "properties": { "P12_001": 10006, "P12_002": "モエレ沼公園", "P12_003": "01", "P12_004": "01103", "P12_005": "庭園・公園", "P12_006": "札幌市東区", "P12_007": -1 }, "geometry": { "type": "Point", "coordinates": [ 141.427573997535745, 43.12420999905941 ] } },
{ "type": "Feature", "properties": { "P12_001": 10001, "P12_002": "さっぽろ雪まつり", "P12_003": "01", "P12_004": "01101", "P12_005": "年中行事", "P12_006": "札幌市中央区", "P12_007": -1 }, "geometry": { "type": "Point", "coordinates": [ 141.356381850236573, 43.061046300232739 ] } },
{ "type": "Feature", "properties": { "P12_001": 10010, "P12_002": "旭川市旭山動物園", "P12_003": "01", "P12_004": "01204", "P12_005": "動植物園・水族館", "P12_006": "旭川市", "P12_007": -1 }, "geometry": { "type": "Point", "coordinates": [ 142.482227997111693, 43.767233000011046 ] } },
{ "type": "Feature", "properties": { "P12_001": 10016, "P12_002": "登別温泉の地獄谷と多様な泉質の自然湧出源泉、浴場群", "P12_003": "01", "P12_004": "01230", "P12_005": "温泉", "P12_006": "登別市", "P12_007": -1 }, "geometry": { "type": "Point", "coordinates": [ 141.106639997546949, 42.412773001032477 ] } },
{ "type": "Feature", "properties": { "P12_001": 10005, "P12_002": "ビール園のビールとジンギスカン", "P12_003": "01", "P12_004": "01103", "P12_005": "食", "P12_006": "札幌市東区", "P12_007": -1 }, "geometry": { "type": "Point", "coordinates": [ 141.36843799698039, 43.070831998696569 ] } },
{ "type": "Feature", "properties": { "P12_001": 10003, "P12_002": "札幌ラーメン", "P12_003": "01", "P12_004": "01101", "P12_005": "食", "P12_006": "札幌市中央区", "P12_007": -1 }, "geometry": { "type": "Point", "coordinates": [ 141.354352000363548, 43.06207800014343 ] } }
]
}
